Origin Time       2013/08/03 09:56:00
Lat.              34.642
Long.             137.532
Depth. (km)       34
Mag.              4.9
Station Code      SZOH24
Station Lat.      34.8343
Station Long.     137.6616
Station Height(m) 19.2
Record Time       2013/08/03 09:56:21
Sampling Freq(Hz) 100Hz
Duration Time(s)  120
Dir.              4
Scale Factor      3920(gal)/6170801
Max. Acc. (gal)   46.699
Last Correction   2013/08/03 09:56:06
Memo.             
[...]
   11034    11047    11051    11037    11035    11052    11049    11031 
   11040    11055    11046    11039    11047    11045    11041    11043 
   11040    11039    11043    11047    11047    11041    11043    11044 
   11040    11046    11047    11040    11045    11052    11041    11035 
   11048    11051    11042    11044    11053    11047    11033    11042 
   11053    11043    11042    11050    11044    11036    11047    11052 
   11042    11041    11044    11042    11042    11047    11048    11040 
   11040    11050    11043    11037    11045    11042    11038    11046 
   11049    11045    11043    11042    11042    11045    11044    11046 
   11047    11041    11044    11044    11038    11044    11046    11044 
   11048    11046    11042    11045    11046    11042    11042    11046 
   11044    11044    11049    11046    11042    11042    11045    11048 
   11043    11039    11044    11050    11046    11042    11048    11045 
   11040    11048    11043    11035    11046    11051    11043    11043 
   11042    11042    11047    11046    11043    11041    11038    11043 
   11051    11048    11045    11046    11043    11043    11044    11040 
   11046    11046    11038    11050    11056    11040    11034    11043 
   11046    11044    11046    11051    11049    11036    11041    11053 
   11043    11038    11053    11053    11038    11040    11050    11046 
   11044    11047    11044    11043    11047    11047    11045    11047 
   11048    11043    11043    11053    11046    11032    11049    11059 
   11041    11039    11052    11048    11037    11042    11053    11047 
   11040    11049    11049    11039    11043    11052    11048    11037 
   11042    11052    11043    11043    11053    11045    11038    11048 
   11047    11035    11040    11049    11047    11047    11050    11046 
   11040    11045    11045    11041    11045    11051    11045    11043 
   11052    11048    11040    11044    11045    11041    11046    11057 
   11051    11037    11044    11051    11041    11041    11052    11048 
   11044    11051    11051    11042    11043    11054    11051    11038 
   11041    11052    11048    11042    11047    11050    11041    11037 
   11046    11049    11043    11046    11050    11044    11037    11041 
   11046    11044    11045    11045    11046    11049    11040    11032 
   11046    11052    11037    11041    11053    11043    11035    11043 
   11050    11046    11049    11053    11041    11040    11050    11045 
   11037    11045    11054    11046    11039    11039    11041    11044 
   11045    11046    11046    11050    11046    11040    11046    11045 
   11040    11043    11047    11045    11041    11040    11040    11039 
   11037    11042    11046    11040    11039    11047    11045    11036 
   11042    11048    11039    11035    11046    11048    11038    11044 
   11050    11040    11037    11044    11046    11041    11041    11047 
   11045    11036    11038    11045    11043    11039    11045    11048 
   11041    11039    11041    11040    11042    11049    11051    11042 
   11034    11039    11048    11047    11042    11043    11042    11046 
   11050    11043    11043    11047    11044    11044    11046    11044 
   11046    11048    11045    11043    11045    11046    11043    11037 
   11041    11049    11049    11044    11048    11050    11042    11043 
   11048    11042    11044    11048    11045    11046    11051    11046 
   11040    11047    11049    11042    11047    11049    11041    11044 
   11052    11049    11039    11041    11053    11047    11035    11047 
   11053    11042    11043    11050    11043    11039    11045    11050 
   11047    11043    11044    11045    11044    11043    11044    11047 
   11044    11041    11045    11047    11044    11044    11045    11045 
   11043    11039    11046    11053    11043    11040    11046    11047 
   11044    11042    11045    11044    11038    11040    11048    11046 
   11041    11045    11045    11040    11043    11047    11048    11047 
   11046    11047    11043    11040    11045    11050    11051    11048 
   11042    11042    11042    11040    11044    11047    11046    11042 
   11046    11051    11047    11042    11046    11047    11044    11049 
   11054    11047    11043    11048    11046    11039    11045    11049 
   11043    11047    11055    11043    11037    11052    11056    11043 
   11039    11048    11052    11044    11043    11045    11040    11044 
   11050    11045    11046    11051    11039    11039    11050    11047 
   11045    11048    11043    11037    11045    11053    11049    11042 
   11039    11043    11047    11047    11049    11048    11040    11039 
   11047    11048    11040    11042    11047    11041    11040    11047 
   11044    11042    11048    11049    11037    11036    11051    11052 
   11044    11046    11043    11038    11043    11045    11038    11046 
   11053    11040    11032    11044    11052    11048    11048    11046 
   11037    11037    11051    11054    11041    11043    11050    11039 
   11034    11045    11048    11042    11046    11049    11039    11035 
   11046    11057    11052    11038    11038    11049    11051    11046 
   11042    11036    11042    11050    11041    11037    11044    11045 
   11047    11049    11040    11037    11048    11050    11041    11039 
   11048    11050    11043    11045    11046    11040    11041    11049 
   11051    11043    11042    11046    11042    11040    11049    11052 
   11044    11041    11039    11041    11052    11051    11040    11043 
   11046    11042    11050    11057    11043    11033    11044    11055 
   11049    11041    11046    11046    11042    11044    11047    11045 
   11040    11042    11045    11042    11041    11048    11050    11037 
   11036    11046    11046    11042    11046    11047    11041    11036 
   11036    11044    11048    11042    11040    11044    11044    11040 
   11038    11046    11049    11040    11042    11047    11038    11037 
   11051    11048    11034    11036    11043    11040    11040    11044 
   11041    11038    11047    11050    11034    11034    11047    11041 
   11038    11047    11041    11037    11051    11050    11031    11033 
   11046    11044    11040    11042    11041    11043    11043    11041 
   11041    11036    11036    11049    11048    11036    11040    11046 
   11042    11040    11043    11042    11040    11037    11040    11044 
   11043    11044    11042    11034    11039    11046    11038    11039 
   11049    11041    11037    11048    11041    11029    11039    11049 
   11043    11040    11042    11037    11035    11044    11048    11040 
   11035    11044    11042    11029    11035    11053    11047    11038 
   11044    11039    11035    11048    11050    11046    11048    11040 
   11034    11042    11039    11042    11060    11053    11031    11030 
   11042    11052    11052    11042    11040    11044    11038    11038 
   11045    11043    11045    11054    11047    11033    11036    11045 
   11048    11046    11045    11044    11040    11035    11037    11046 
   11050    11045    11045    11045    11035    11034    11045    11044 
   11048    11054    11039    11033    11045    11045    11037    11044 
   11048    11038    11037    11040    11042    11045    11048    11044 
   11040    11041    11044    11041    11043    11052    11044    11036 
   11052    11047    11027    11039    11059    11047    11036    11046 
   11041    11033    11044    11051    11046    11041    11040    11042 
   11043    11043    11046    11045    11040    11041    11042    11042 
   11044    11045    11046    11044    11039    11036    11039    11045 
   11047    11046    11048    11044    11037    11040    11043    11043 
   11046    11048    11049    11047    11036    11037    11046    11045 
   11046    11046    11035    11034    11051    11053    11040    11037 
   11041    11043    11040    11043    11053    11051    11038    11031 
   11038    11042    11047    11051    11046    11041    11039    11039 
   11043    11043    11042    11040    11043    11052    11050    11038 
   11038    11049    11049    11042    11041    11045    11045    11042 
   11044    11047    11048    11049    11044    11036    11040    11050 
   11052    11047    11041    11040    11043    11046    11048    11048 
   11048    11045    11039    11043    11052    11046    11040    11051 
   11047    11033    11046    11056    11044    11040    11044    11045 
   11051    11047    11043    11047    11042    11036    11046    11052 
   11042    11042    11052    11048    11037    11038    11051    11056 
   11046    11041    11047    11051    11045    11043    11049    11050 
   11039    11034    11044    11045    11042    11051    11048    11027 
   11031    11051    11051    11044    11041    11041    11045    11046 
   11046    11048    11044    11039    11042    11046    11050    11050 
   11047    11047    11042    11034    11041    11054    11053    11042 
   11042    11044    11042    11047    11045    11043    11050    11047 
   11041    11051    11051    11036    11039    11051    11049    11046 
   11049    11044    11035    11029    11015    11006    11035    11026 
   10745    10285    10467    11377    11173     9493     9468    11455 
   11559    10053    10938    13114    10358     4452     7469    14813 
   12147     9751    12566     9183    10657    21884    19214     3528 
    6642    20072    10986     5307    17593    11742     4350    11732 
    5066     6050    25171    19411     4443    10755    10958     2459 
    4628     9453    11821    13510    18014    17190     9375    12841 
   12681     8247    13953     8562     2144     3989     6048    19949 
   21375     7114    10081    17860    20204    14740     1402     5053 
   12816     7502     6501     8433    10822    18087    19801    10487 
    4099     7909     8046     8591    13286     9100     7208    13004 
   14441    14116    13656    10078    11688    18680    15515     5887 
    5658    11813    12804     9958    10879     9089     5462     9882 
   13060    10353    11910    17303    15170     6955     7924    13307 
   11233    10666    11268     6274     5946    11514    13356    13204 
   14385    13107    10522    12076    13594    10254     7169     6935 
    8454    11649    12577    10610    10928    12985    13140    11958 
   10684    10203    11706    13104    11571    10408    13040    13463 
    8086     5476    10665    15699    12794     8283    10339    13462 
   11440     9235    12271    13306    10796    12833    10318     3208 
    7308    13261    12576    13246    10999     7613    11101    14412 
   12915     9328     9315    12886    10114     6672    10890    14295 
   14232    13671    12579    11198    10176    10304     7819     5953 
   12371    17180    13971    10770     8496     8562    11365     8620 
    4816     8345    12761    14399    13206     8057     8483    14723 
   14252    11896    11905     7529     6492    14102    17959    11514 
    4847     8231    15301    14973    11051    11401    13930    15753 
   14763     7695     3292     9206    13995    10312     3589     2291 
   12248    19353    12056     6034    10602    16730    16386    11450 
   10058     8466     5008    14397    23044     8487    -1259     9756 
   16702    16488    13932     8213     7638    12426    16941    14891 
    8178     7398     8258     5676     7570    12560    11769     9795 
   14340    16925    11558     9983    13815    11032     5823     8212 
   11679     9294     7647    11069    13456    12255    12194    15228 
   18090    15855     8295     6289    13631    13353     4487     5678 
    9738     6664     9455    15834    15901    13882    10576     9169 
   13213    12037     4835     6596    13210     9968     8180    17558 
   18451     8055     7715    12278     8607     8153    13246    12885 
   11059    13002    10784     4874     6600    12040    12027    12578 
   16116    15011    10652    10555    11547     9687    13268    17909 
    9129      628     7014    14233    13350     9235     6009     7139 
   12789    16496    14891    14527    14786    11203     9697     8972 
    5547     6992    11889    12656    11403    11715    13435    12762 
    8206     7764    12489    13967    13750    14035    11110     8727 
   10884    11767     7822     7548    11843    10218     8455    13555 
   14494    10577    10401    11333    11309     9864     7062    10237 
   14304     9663     6752     9305    10725    14599    14675     9078 
   13200    18480    12461     7368     8144    12290    16198    12764 
    7996     8529    11012    13254    13160    11446     9753     7375 
    7546    10106    10336     9156     9633    11823    13469    11677 
    8250     8629    12000    12548    10470    10916    13343    12297 
    9481    11812    15940    13786    10567    10880     9516    10254 
   12633     8331     5752    11034    14934    12254     7351     8525 
   12878    12191    11497    12501    11300    11194    11993    12990 
   12704     8734     9631    13685    10661     6783     7849    10338 
   11229    10915    12295    13890    14750    15684    12622     8518 
    9972    10194     5743     6259    12292    14343    10561     9326 
   13991    13880     8110     9821    14823    12544     9080     8354 
    7651     8682     7226      622     3177    16311    22200    24720 
   33106    34576    23610     4943   -14130   -12003     8679     3944 
  -25053   -14200    43119    79675    65091    27543    14076    48245 
   79230    49370    -4818   -21347   -10592   -17544   -46928   -62466 
  -49130   -30272   -10403    21440    37957    13386   -15447    -2894 
   29254    34383    17218     1723   -13105   -18526     2533    37110 
   56919    41842     4389    -4388    31229    63814    51792      705 
  -39542   -23543    27887    53334    28573    -4569    -4197    13411 
   24145    22749     9660    11809    31198    20603   -17201   -33404 
  -24873   -13329     2713    19004    17571     8964    14053    22684 
   26218    28254    19794     4471     -947      915     1970     6533 
   13874    12009     8890    20489    24875    11026    11576    27413 
   28558    18425    15973    19709    16000     4597      -94     2486 
    2764     2793     9755    21541    21701     5002    -5679     2012 
   13242    14844     8989     6658    13028    20446    18174     5124 
   -6894    -7001     4139    18775    25567    19545    11647    13279 
   20116    23425    22878    19496    13044     6716     4415     7675 
   10191     5185      619     4692    12782    17001    12872     5671 
    2373      919     3537    13454    19246    13240     8127    11601 
   12380     8642    12127    20046    19843    11281     3038     3186 
   13678    21969    15984     4887     1518     5664    11763    14889 
   17128    21254    21083    15702    10315     4866     2672     6601 
    9039     6532     4377     5523    11325    16996    12912     6496 
    9539    13978    13684    13813    15221    17705    19519    16220 
   11190     7479     3135     3621     9836    11366     7874     8279 
   12905    14973    13746    14415    16474    15228     9727     3362 
    4484    14511    18783    13800    13132    15546    13904    13366 
   15014    14693    12214     9682     8997     8369     6497     5328 
    6354     8898     8004     4089     4266     6412     5397     3341 
    3198     4537     4745     7359    15208    19112    17332    17526 
   17400    14766    16155    22925    24963    16078     9247    14551 
   19055    14899    10610     8124     5998     8136    12348    12091 
    8539     5880     3548     2966     6652     9494     7437     4882 
    3962     1890     1680     6341    10657    14079    17738    15823 
   10983    11556    15076    15000    12041    11600    14572    16196 
   14153    12556    14033    14507    14598    17349    16521    11463 
   10835    13501    13397    12067    10306     5882     2693     5908 
   12686    15553    12350     9258    10486    12170    10647     8409 
    8529    10196    12671    14857    13567    10668    10499    10915 
    9274     7791     8302     9970    12736    14568    10033     4960 
    9244    13774     9540     5561     7982    11027    11281    12677 
   14644    13694    12144     8842     5721    10994    16748    12136 
    6318     9471    15423    14031     9572    11288    14740    13402 
   10121     9412    12344    15490    14641    10695     9047    12768 
   15946    12637     8540     9510    12291    11699     8055     9923 
   16217    12851     3984     4173    10178    12902    10975     8045 
    7117     6556     7038    11505    15555    14811    13098    13979 
   15417    13266     9423     8249     7074     7079    10523    10072 
    7212     9944    12383     9188     6427     7364    10150    13643 
   16650    16209    11312     7755     9670    12889    13979    13240 
   10916     8511     8315    11894    17026    17989    14877    12327 
   12653    13841    11125     8074     9768    10594     9653    10143 
    8628     7974    10893    10153     7619     9209    10142    10698 
   13809    13695    11929    12390     9930     7772    10794    10947 
    7269     8861    12624    10762     8685    12143    17023    17397 
   10865     5448     9754    15043    11869     5705     5673    13562 
   18428    12134     6460    10007    13175    11268    10349    11874 
   12623    11578    10358    10612    11160    10840    12448    15631 
   13673     7810     7436    11233    11442     9776    10510    11336 
   10066     9395    10948    11902    10888    10430    12240    14261 
   12083     7697     9247    14325    13935     9981     8476    10248 
   13619    14179    10821    10223    13839    14628    11107     8315 
    8986    11789    12517     9820     8782    11116    11738     9894 
    9118     9617    10631    11692    11216     9517     9804    11907 
   11147     8690     9007    10687    11515    10847    10345    12561 
   13308    10979    10804    11486    11245    12650    12862    11813 
   13251    13385    11227    11370    11752    10189    10215    11604 
   10813     9279     9921    10571     9284     9289    11296    11870 
   11733    11930    10820     9979     9710     9076    10468    12029 
   10904    10334    11280    11949    12315    11563    11289    13353 
   13160     9299     7783    10067    12050    12554    12267    10110 
    8444    10662    12238     9582     8455    11754    13304    11650 
   12222    13194    10485     8344     9708    10511     9213     9687 
   12480    13523    11619     9704    10356    12603    13347    11846 
   10803    11428    11609    11135    11489    11557    10146     9485 
   10902    11369    10237    10230    10605    10354    10717    11541 
   12299    12137    10987    10881    11432    11179    10693    10229 
    9616     9134    10162    11536     9957     8677    10503    12342 
   13684    13031     9725     9418    12032    12340    11138    10084 
    9601    11895    14002    12294    11364    12887    12764    11914 
   11999    10392     8151     9212    11087    10139     9066    10072 
   11133    10379     9333    10474    12760    13696    12563    11508 
   12752    13382    11639    10834    11086    11383    11612     9459 
    7577     9295    11235    11828    11569    10356    10038    10900 
