Origin Time       2013/08/03 09:56:00
Lat.              34.642
Long.             137.532
Depth. (km)       34
Mag.              4.9
Station Code      SZOH24
Station Lat.      34.8343
Station Long.     137.6616
Station Height(m) 19.2
Record Time       2013/08/03 09:56:21
Sampling Freq(Hz) 100Hz
Duration Time(s)  120
Dir.              5
Scale Factor      3920(gal)/6170801
Max. Acc. (gal)   67.518
Last Correction   2013/08/03 09:56:06
Memo.             
[...]
    3727     3724     3731     3728     3726     3727     3719     3727 
    3736     3725     3724     3734     3730     3725     3732     3733 
    3724     3722     3732     3739     3725     3716     3731     3736 
    3726     3728     3733     3723     3720     3729     3734     3732 
    3730     3726     3722     3731     3735     3726     3727     3733 
    3729     3730     3736     3725     3720     3731     3732     3733 
    3739     3731     3724     3729     3732     3728     3729     3733 
    3731     3726     3726     3731     3732     3730     3731     3727 
    3726     3732     3728     3726     3732     3733     3731     3729 
    3724     3727     3732     3727     3727     3730     3726     3726 
    3731     3728     3725     3733     3729     3724     3731     3732 
    3726     3731     3732     3718     3730     3744     3729     3724 
    3732     3734     3729     3726     3729     3728     3726     3732 
    3738     3731     3724     3730     3734     3727     3725     3727 
    3728     3734     3732     3731     3736     3728     3725     3731 
    3731     3728     3730     3733     3733     3730     3732     3739 
    3730     3717     3731     3740     3722     3724     3739     3730 
    3721     3728     3734     3726     3718     3734     3741     3720 
    3719     3736     3731     3725     3734     3735     3724     3727 
    3736     3729     3727     3733     3729     3725     3726     3729 
    3735     3732     3728     3729     3724     3733     3741     3722 
    3724     3747     3735     3718     3736     3741     3719     3722 
    3738     3731     3723     3735     3734     3720     3731     3740 
    3729     3726     3730     3727     3727     3732     3733     3729 
    3730     3729     3725     3731     3736     3728     3728     3734 
    3729     3728     3733     3729     3727     3732     3730     3730 
    3731     3727     3732     3736     3728     3731     3739     3728 
    3719     3729     3735     3731     3734     3737     3724     3723 
    3738     3730     3718     3731     3738     3728     3727     3739 
    3736     3723     3728     3739     3734     3729     3734     3732 
    3728     3732     3733     3725     3723     3734     3735     3727 
    3728     3731     3727     3728     3731     3732     3730     3729 
    3729     3726     3726     3730     3728     3727     3728     3733 
    3732     3723     3727     3727     3723     3735     3734     3723 
    3729     3736     3728     3726     3735     3732     3727     3731 
    3734     3728     3725     3732     3730     3728     3733     3729 
    3722     3729     3734     3723     3730     3739     3725     3722 
    3736     3734     3722     3725     3727     3725     3728     3730 
    3728     3724     3728     3732     3720     3716     3731     3730 
    3718     3726     3737     3726     3719     3729     3733     3723 
    3722     3732     3729     3718     3728     3737     3722     3718 
    3727     3728     3728     3728     3723     3725     3728     3726 
    3729     3734     3726     3721     3728     3727     3721     3731 
    3735     3728     3724     3727     3735     3732     3723     3734 
    3741     3724     3723     3738     3731     3725     3734     3732 
    3726     3730     3732     3731     3729     3728     3734     3736 
    3731     3730     3727     3728     3732     3729     3727     3729 
    3733     3736     3731     3726     3732     3733     3728     3734 
    3735     3729     3728     3733     3732     3728     3737     3735 
    3718     3728     3741     3732     3729     3732     3726     3726 
    3733     3735     3729     3725     3732     3735     3732     3736 
    3730     3725     3733     3733     3730     3735     3730     3721 
    3729     3736     3730     3731     3732     3723     3726     3739 
    3738     3726     3726     3732     3729     3727     3735     3735 
    3723     3727     3739     3730     3721     3731     3734     3727 
    3726     3732     3729     3726     3734     3734     3726     3731 
    3737     3728     3726     3735     3732     3728     3734     3738 
    3727     3717     3729     3736     3729     3731     3739     3729 
    3720     3730     3736     3736     3733     3731     3732     3728 
    3735     3738     3724     3722     3741     3740     3722     3728 
    3740     3734     3725     3731     3735     3728     3731     3736 
    3733     3727     3728     3732     3731     3733     3734     3728 
    3729     3735     3730     3726     3735     3733     3725     3731 
    3734     3727     3727     3735     3732     3724     3732     3737 
    3725     3724     3736     3736     3729     3726     3729     3733 
    3733     3732     3729     3728     3723     3727     3738     3732 
    3723     3726     3728     3730     3735     3728     3725     3732 
    3729     3731     3739     3721     3712     3737     3745     3729 
    3724     3724     3725     3730     3734     3735     3725     3723 
    3738     3737     3722     3729     3737     3722     3718     3732 
    3736     3727     3725     3732     3726     3719     3729     3740 
    3730     3716     3730     3744     3727     3717     3728     3736 
    3734     3726     3725     3733     3730     3725     3730     3729 
    3724     3724     3733     3736     3725     3723     3735     3731 
    3721     3730     3739     3730     3722     3724     3730     3733 
    3734     3734     3729     3724     3728     3740     3734     3722 
    3725     3729     3729     3734     3730     3723     3730     3734 
    3728     3730     3728     3727     3739     3742     3724     3717 
    3733     3736     3728     3734     3735     3727     3720     3727 
    3736     3734     3728     3731     3728     3720     3727     3733 
    3730     3733     3730     3723     3727     3729     3728     3728 
    3724     3725     3734     3733     3725     3720     3718     3729 
    3737     3727     3725     3736     3727     3716     3732     3735 
    3719     3731     3743     3720     3716     3738     3729     3715 
    3731     3733     3719     3728     3733     3722     3729     3735 
    3720     3716     3732     3736     3718     3719     3740     3734 
    3719     3726     3730     3725     3726     3728     3730     3724 
    3722     3732     3730     3721     3727     3729     3723     3733 
    3737     3723     3722     3732     3728     3719     3728     3736 
    3729     3722     3724     3727     3727     3730     3727     3721 
    3728     3733     3721     3716     3731     3731     3723     3725 
    3726     3728     3734     3726     3718     3723     3728     3730 
    3723     3716     3729     3734     3721     3726     3733     3719 
    3724     3741     3724     3717     3739     3731     3719     3732 
    3726     3722     3741     3734     3717     3725     3734     3728 
    3721     3724     3739     3741     3718     3718     3735     3726 
    3725     3739     3727     3716     3734     3735     3718     3728 
    3735     3724     3729     3729     3720     3735     3733     3717 
    3734     3739     3715     3719     3736     3725     3728     3745 
    3728     3717     3730     3726     3722     3733     3730     3721 
    3726     3730     3726     3725     3726     3725     3727     3736 
    3734     3720     3722     3731     3730     3731     3734     3721 
    3717     3734     3732     3720     3728     3733     3721     3720 
    3731     3731     3723     3725     3734     3727     3712     3722 
    3735     3732     3729     3731     3727     3723     3729     3729 
    3729     3733     3725     3718     3731     3739     3731     3725 
    3726     3726     3721     3726     3739     3730     3717     3734 
    3738     3713     3719     3743     3733     3720     3732     3735 
    3722     3719     3727     3734     3730     3729     3731     3721 
    3720     3731     3736     3733     3728     3725     3729     3734 
    3727     3727     3734     3726     3721     3731     3731     3724 
    3732     3734     3726     3726     3729     3728     3728     3735 
    3734     3730     3729     3727     3732     3730     3725     3733 
    3736     3731     3732     3730     3724     3730     3737     3732 
    3724     3725     3735     3735     3732     3731     3727     3725 
    3726     3737     3743     3727     3724     3731     3724     3727 
    3737     3731     3732     3736     3728     3725     3732     3733 
    3726     3725     3738     3739     3725     3724     3728     3728 
    3737     3742     3724     3717     3738     3738     3723     3738 
    3743     3722     3721     3738     3741     3730     3725     3734 
    3733     3716     3723     3744     3730     3716     3732     3738 
    3726     3726     3732     3729     3729     3734     3728     3721 
    3730     3739     3731     3724     3731     3736     3729     3727 
    3732     3734     3739     3733     3715     3723     3738     3733 
    3733     3736     3726     3724     3729     3730     3731     3731 
    3729     3726     3730     3733     3730     3726     3729     3733 
    3725     3727     3736     3718     3688     3683     3680     3601 
    3365     3008     2885     3393     4280     4717     4421     3757 
    2879     2319     2476     2963     3524     3125     2850     4363 
    5475     7285     7772     2321     -349     3846     8032     8909 
    4065    -2073    -2101     3289     5441      755     3809    11599 
    6889     3060     4429    -1469     -356     5603    -3392    -3768 
   13367    15060     6406     2787     -665     2975     7001      983 
   -4372     2217    10446     3924      840     7568     5759     6560 
    9684     5506     3084    -3831    -6694     4065     5083    -1107 
    1366     6990    12416    12291     2560    -6614     -712    11125 
    6272    -4498    -1658    10742    14699     2042    -4456     4145 
   10419     9158     1644    -5685    -1427     7661     6931     3075 
    3903     3748     3616     3120     2337     4830     4699     2281 
    2805     3782     5837     7064     1926     -876     4397     5631 
    1929     2407     3525     2556     2688     5071     8956     8199 
    3311     2887     4855     3789      749     -477     2725     4989 
    3491     3717     5405     5784     4462     1970     2727     5334 
    4123     2195     3006     4128     4020     2743     2775     5816 
    7566     5393     2178      984     2597     4654     3368     1193 
    2965     4654     4128     3486     2580     4116     5808     4992 
    4392     3429     4732     6577     1962     -878     3452     4921 
    3089     3269     4353     5870     5754     3161     1817     3297 
    5605     4752     1298      683     3018     4305     3930     4260 
    5038     4676     4909     3548    -1577    -1782     4609     6874 
    5639     6651     5540     3639     5214     3325     -361     2385 
    5626     6718     6943     1270    -2463     2899     6273     3967 
    2547     3557     7017     8159     3873     2598     4039     2391 
    4043     6315      -59    -5403      -72     7593     7422     2080 
    2913     9283    10381     5177    -1122    -2020     4145     8573 
    6894     1644    -1691     4049     8637     -972    -6718     3999 
   12649    10715     3838     -103     4018     3727    -3202    -1883 
    5999     8836     6638     6557     7146     3692     1715     3204 
    2581     2488     5517     6062     3405     2249     3049     2602 
    1448     3758     8378    10646     9708     5193     -578     -794 
    1954      -34    -2794     -254     2589      617     2517    11325 
   10503      800     1539     8312     8087     3993      550     1428 
    5720     3904      613     5883     8109     2109     1785     4906 
    2373     1517     4759     3675     1331     5846     9182     4186 
     242      600     1028     5298    10354     6535      338     1125 
    3203     2311     1696     2567     3726     4029     5974     8094 
    3947     -502      763     3261     5871     6298     4994     5072 
    1905     -923     2249     4973     5261     5602     4469      710 
    -683     7053    13293     6186     -195     3372     5148     2085 
    1590     4162     4379     2055     2217     2976     1650     3102 
    6843     5761     1174     2155     6377     4405      499     1472 
    5561     8870     6727     2622     3258     2804     -412     1723 
    4898     3918     4694     5013     1948     2164     5304     7058 
    6598     3581     2608     3277      718     1200     4883     4599 
    5800     7792     3026    -1098     1220     4408     4347     2516 
    3742     5723     3534     2292     4789     5647     3450     1939 
    2487     3642     5061     7065     7836     5015     1690     1549 
    2658     4034     4480     3070     4563     7091     3964     1085 
    2242     1502     1787     4485     3499     1721     2640     2519 
     736     1740     6451     9425     8837     7096     4817     4373 
    4475     1939     1633     2440       87     -455     1594     5332 
    8686     5627     2567     5133     5278     1928     1873     5264 
    6635     2928       74     3265     5818     4585     3922     3990 
    4204     3437     2002     3207     4702     3423      320     -338 
    5440     7059    -3251    -7768     1454     6854     9904    26538 
   44923    52483    54212    37272     -564   -21885   -24367   -55471 
 -102554   -94644   -29409    28774    41766    16917    -6311     2125 
   12705    -4513    -6817    36362    61769    38307    33246    42753 
    2972   -39452   -27112     4076    22567    25385    17322    11224 
   -2569   -28883   -35750   -12888     5543     1141    -8163     -928 
   24417    43838    32551     1931   -13797    -5348     2084    -7585 
  -18163   -17500    -8612     4659    12415    25816    47905    31407 
  -15331   -29846   -15125     7916    25258    11688     7549    34797 
   15602   -40040   -32624     9161     8539    -9483   -11730    -3209 
    9899    15572    14766    14975    10201     2967     1324     5933 
    8685     -392    -3116    17933    32456    21387    10573     8262 
     201   -12480   -17088    -5202     7701      -74   -11273     -740 
   11849      513   -13559    -4960     7500     3590    -5577    -5591 
    1699     5633     3410     1402     2795     7698    13090    16607 
   20137    18301    10811     7669     8016    10140    13059     9218 
    5262     7911     5175    -5998   -12481    -9340    -3898      363 
    1715    -4145    -8733    -2954     3592     4370     6210     7906 
    1823    -5067    -2174     5727     9611     8537    10362    14886 
    7377    -4174     2593    14796    11458     2174     -305     2846 
    9078    14096    12675     8684     6991     3872     -855    -2259 
   -2193    -4914    -6950    -4343    -3686    -8100    -6102     5216 
   11653     8577     4045      451     2215    11089    12825     6663 
    7072    10975     9389     5557     6649    11907    11369     3196 
   -2756    -2129      929     1912       32    -1370     1037     5758 
    7352     3631      544     1135     -509    -2189      715    -1513 
   -7871    -3781     4170     2786     -201     4158    10775    12600 
   10096     7606     5048     1571     2927    10423    15612    15067 
    9897      990    -1824     6125    11628     8893     6678     7301 
    5339     -593    -3285      896     1280    -4047    -1650     4821 
    1020    -7639    -6515     4021     7566     -301    -2100     4922 
    6689     5438     8332     9244     5247     3528     7590    10574 
    6821     2299     2144     3045     3432     3533     2591     3118 
    5734     4541      183      199     3188     5501     7108     5396 
    1372     -798     -485     1553     4433     5841     4666     4028 
    5263     5911     5210     3443     3899     7651     7090     2918 
    3195     4516     2826     2087     3495     5140     5866     4244 
    1008     1006     4987     4332    -2698    -4489     1446     4496 
    1919     2028     7716     9349     2934     1329     7630     7804 
    1781      689     4397     6998     7157     7629     8359     7146 
    4735     3829     6562     7284     2192    -1198     -978      981 
    4809     5058     1904      205      284     3357     5145      520 
   -1972     3790     9716     8598     2335    -1470     1403     4662 
    2887      198      -60      957     2885     4025     3059     4220 
    8286     8070     3801     4973     9733     7664     2272     2649 
    5613     5041     2446     2536     5327     4795      280      255 
    6006     9011     7093     5701     5252     1585    -2070       36 
    5330     7661     3897     -727     2114     7298     3966    -2758 
   -1577     2975     1869     -745     1650     6207     6404     3516 
    5118     8221     5095      991     2274     5500     6679     7000 
    8118     7249     3078      -59     1224     5218     6668     3452 
    2604     7080     6863     1501     2355     6447     4330       88 
     972     5301     7323     5077     1430      394     2276     4601 
    6173     4128     -529     -655     2726     4625     5005     2385 
   -1268     1249     6747     4701     -662     2069     8934     8742 
    1430     -984     5230     7715     4558     4440     5104     3567 
    3531     5124     5941     6297     6150     3778     2306     4529 
    4135     1202     3751     6924     4394     2129     2290     1987 
    2298     3670     4998     5045     2083     -398     1524     2388 
     898     3769     6805     4028     1738     2570     2238     1868 
    4260     6947     6537     4382     3729     4336     4680     4045 
    2416     2608     5759     8754     8815     4905     1767     4640 
    8193     7620     5218     1360    -1674      293     3613     3591 
    2706     3391     3723     1988      813     3121     5233     3508 
    2387     4271     3411      352     1649     3019      178      551 
    5698     8254     6348     3816     3233     2452     -229     -179 
    3576     5689     5766     5436     4076     2807     3242     4632 
    5053     5468     6841     6822     5446     4546     3421     2197 
    3006     4722     4334     2471      573      962     5618     7986 
    4514     3387     5662     4590     1418     1314     5044     7328 
    4004      946     1968     2728     3842     7047     7355     3031 
    -167     1424     3653     1995      335     3617     6787     4020 
     315      932     2791     4076     6119     6163     2677     1404 
    5226     7795     5936     4438     4698     4866     5478     5308 
    3426     2513     3466     4167     2991     1405     1681     2958 
    3675     3263     2624     3703     4932     4257     3826     4821 
    5519     4980     4033     3561     2318      388      867     3024 
    3124     2686     5434     7219     3567      918     2969     4777 
    4504     3409     3425     3745     2377     3835     6984     4837 
    2595     5575     6866     4161     3344     4545     4290     3469 
    4002     4970     4244     3437     4098     3187     1574     2513 
    4228     4106     2622     2461     3661     3100     1490     2212 
    3874     3212     2531     4567     6089     5118     4046     3199 
