Origin Time       2013/08/03 09:56:00
Lat.              34.642
Long.             137.532
Depth. (km)       34
Mag.              4.9
Station Code      SZOH24
Station Lat.      34.8343
Station Long.     137.6616
Station Height(m) -280.8
Record Time       2013/08/03 09:56:21
Sampling Freq(Hz) 100Hz
Duration Time(s)  120
Dir.              1
Scale Factor      2940(gal)/6170270
Max. Acc. (gal)   10.348
Last Correction   2013/08/03 09:56:06
Memo.             
[...]
  -91466   -91467   -91465   -91464   -91464   -91464   -91465   -91466 
  -91466   -91467   -91467   -91464   -91465   -91467   -91464   -91463 
  -91465   -91466   -91466   -91466   -91467   -91467   -91465   -91464 
  -91466   -91465   -91463   -91465   -91465   -91464   -91465   -91466 
  -91466   -91466   -91466   -91467   -91465   -91464   -91467   -91467 
  -91465   -91465   -91465   -91466   -91465   -91465   -91465   -91465 
  -91464   -91465   -91465   -91464   -91465   -91466   -91465   -91465 
  -91465   -91465   -91467   -91468   -91467   -91465   -91465   -91465 
  -91463   -91464   -91464   -91464   -91465   -91465   -91465   -91466 
  -91466   -91464   -91466   -91467   -91465   -91464   -91464   -91465 
  -91466   -91464   -91464   -91465   -91465   -91464   -91466   -91466 
  -91464   -91462   -91463   -91466   -91466   -91466   -91464   -91464 
  -91465   -91465   -91465   -91465   -91465   -91466   -91464   -91463 
  -91465   -91465   -91464   -91464   -91463   -91465   -91467   -91467 
  -91466   -91464   -91464   -91465   -91465   -91466   -91465   -91464 
  -91464   -91465   -91463   -91463   -91465   -91465   -91464   -91464 
  -91464   -91466   -91464   -91464   -91465   -91464   -91465   -91467 
  -91465   -91465   -91464   -91464   -91465   -91464   -91464   -91463 
  -91464   -91466   -91465   -91463   -91463   -91464   -91464   -91464 
  -91465   -91465   -91465   -91464   -91463   -91464   -91464   -91463 
  -91463   -91464   -91465   -91464   -91463   -91465   -91465   -91464 
  -91465   -91464   -91463   -91465   -91465   -91464   -91466   -91466 
  -91465   -91466   -91465   -91464   -91465   -91464   -91464   -91465 
  -91465   -91464   -91464   -91465   -91465   -91464   -91464   -91465 
  -91464   -91463   -91465   -91466   -91464   -91465   -91467   -91466 
  -91465   -91465   -91465   -91466   -91465   -91464   -91466   -91466 
  -91464   -91464   -91465   -91465   -91465   -91465   -91462   -91461 
  -91465   -91466   -91464   -91463   -91463   -91463   -91465   -91466 
  -91467   -91465   -91466   -91467   -91466   -91465   -91464   -91464 
  -91464   -91465   -91465   -91465   -91467   -91468   -91465   -91463 
  -91465   -91466   -91466   -91468   -91465   -91462   -91464   -91465 
  -91464   -91464   -91466   -91465   -91462   -91462   -91465   -91465 
  -91464   -91464   -91463   -91463   -91464   -91464   -91463   -91461 
  -91463   -91465   -91463   -91463   -91465   -91464   -91462   -91463 
  -91465   -91463   -91464   -91464   -91464   -91465   -91465   -91463 
  -91463   -91462   -91463   -91465   -91466   -91463   -91463   -91464 
  -91464   -91464   -91466   -91466   -91466   -91465   -91463   -91464 
  -91466   -91463   -91461   -91463   -91464   -91464   -91464   -91465 
  -91465   -91463   -91462   -91463   -91464   -91463   -91463   -91464 
  -91464   -91464   -91463   -91464   -91465   -91465   -91465   -91464 
  -91465   -91466   -91464   -91462   -91463   -91464   -91463   -91462 
  -91464   -91465   -91464   -91464   -91466   -91465   -91464   -91463 
  -91464   -91466   -91466   -91464   -91465   -91464   -91463   -91465 
  -91466   -91464   -91464   -91464   -91465   -91465   -91464   -91462 
  -91463   -91466   -91466   -91465   -91465   -91464   -91464   -91464 
  -91463   -91463   -91463   -91464   -91465   -91464   -91464   -91464 
  -91464   -91465   -91465   -91465   -91465   -91465   -91465   -91464 
  -91466   -91468   -91465   -91464   -91465   -91464   -91464   -91466 
  -91464   -91464   -91466   -91464   -91466   -91467   -91462   -91463 
  -91467   -91464   -91463   -91465   -91464   -91463   -91465   -91465 
  -91466   -91467   -91464   -91463   -91464   -91464   -91465   -91464 
  -91464   -91464   -91465   -91466   -91465   -91464   -91465   -91466 
  -91465   -91463   -91464   -91466   -91464   -91464   -91466   -91466 
  -91465   -91464   -91464   -91467   -91468   -91467   -91465   -91465 
  -91467   -91468   -91465   -91464   -91465   -91465   -91465   -91464 
  -91465   -91465   -91465   -91466   -91466   -91464   -91464   -91464 
  -91464   -91464   -91464   -91464   -91465   -91466   -91464   -91462 
  -91464   -91465   -91465   -91467   -91466   -91465   -91464   -91465 
  -91467   -91467   -91465   -91464   -91464   -91465   -91464   -91463 
  -91464   -91464   -91465   -91468   -91466   -91465   -91465   -91464 
  -91467   -91468   -91465   -91465   -91468   -91467   -91465   -91463 
  -91463   -91464   -91465   -91466   -91464   -91464   -91465   -91465 
  -91464   -91465   -91465   -91464   -91463   -91464   -91465   -91466 
  -91465   -91465   -91466   -91465   -91464   -91465   -91465   -91465 
  -91465   -91466   -91463   -91461   -91465   -91467   -91465   -91464 
  -91465   -91466   -91466   -91464   -91463   -91464   -91466   -91467 
  -91467   -91466   -91465   -91464   -91465   -91466   -91465   -91463 
  -91463   -91463   -91464   -91465   -91466   -91466   -91464   -91463 
  -91464   -91464   -91464   -91466   -91467   -91466   -91464   -91462 
  -91463   -91464   -91465   -91467   -91466   -91463   -91463   -91464 
  -91464   -91465   -91466   -91464   -91465   -91467   -91465   -91464 
  -91466   -91464   -91463   -91463   -91462   -91463   -91465   -91464 
  -91463   -91465   -91463   -91463   -91467   -91466   -91464   -91463 
  -91465   -91467   -91465   -91464   -91465   -91465   -91465   -91465 
  -91465   -91465   -91464   -91464   -91465   -91466   -91465   -91463 
  -91464   -91464   -91465   -91464   -91464   -91464   -91463   -91463 
  -91464   -91464   -91465   -91466   -91465   -91465   -91466   -91466 
  -91464   -91464   -91465   -91466   -91467   -91468   -91466   -91464 
  -91465   -91464   -91463   -91464   -91465   -91464   -91465   -91467 
  -91467   -91465   -91463   -91464   -91466   -91465   -91465   -91465 
  -91464   -91465   -91466   -91465   -91465   -91466   -91465   -91464 
  -91463   -91463   -91464   -91464   -91463   -91464   -91464   -91464 
  -91463   -91464   -91465   -91463   -91463   -91464   -91464   -91465 
  -91465   -91463   -91463   -91465   -91464   -91463   -91465   -91464 
  -91463   -91464   -91464   -91465   -91464   -91464   -91464   -91463 
  -91462   -91463   -91463   -91463   -91465   -91465   -91463   -91463 
  -91465   -91465   -91464   -91464   -91466   -91464   -91461   -91462 
  -91464   -91465   -91466   -91465   -91465   -91466   -91464   -91464 
  -91466   -91464   -91463   -91466   -91466   -91463   -91462   -91465 
  -91467   -91465   -91464   -91465   -91466   -91465   -91464   -91463 
  -91463   -91464   -91464   -91464   -91466   -91466   -91463   -91464 
  -91466   -91466   -91466   -91466   -91464   -91462   -91464   -91465 
  -91467   -91466   -91464   -91463   -91464   -91465   -91464   -91463 
  -91464   -91465   -91466   -91466   -91464   -91462   -91462   -91462 
  -91464   -91466   -91467   -91465   -91463   -91464   -91465   -91464 
  -91463   -91464   -91465   -91466   -91465   -91464   -91465   -91466 
  -91464   -91463   -91463   -91464   -91465   -91464   -91465   -91467 
  -91467   -91464   -91463   -91466   -91465   -91462   -91463   -91465 
  -91465   -91464   -91462   -91464   -91466   -91466   -91464   -91462 
  -91461   -91463   -91465   -91465   -91465   -91466   -91465   -91466 
  -91465   -91462   -91463   -91465   -91464   -91464   -91466   -91466 
  -91465   -91465   -91465   -91464   -91464   -91466   -91465   -91465 
  -91465   -91466   -91465   -91463   -91463   -91463   -91464   -91464 
  -91464   -91464   -91465   -91466   -91466   -91463   -91463   -91464 
  -91463   -91464   -91466   -91464   -91464   -91465   -91464   -91464 
  -91465   -91466   -91466   -91465   -91464   -91464   -91464   -91465 
  -91465   -91463   -91462   -91464   -91465   -91466   -91465   -91463 
  -91467   -91467   -91464   -91463   -91464   -91465   -91464   -91463 
  -91464   -91465   -91464   -91463   -91463   -91463   -91464   -91465 
  -91465   -91463   -91463   -91465   -91464   -91465   -91468   -91468 
  -91466   -91466   -91464   -91464   -91465   -91465   -91466   -91467 
  -91467   -91464   -91464   -91465   -91465   -91465   -91466   -91466 
  -91465   -91465   -91465   -91465   -91465   -91465   -91466   -91467 
  -91466   -91464   -91464   -91463   -91465   -91465   -91464   -91466 
  -91467   -91465   -91465   -91464   -91465   -91466   -91466   -91464 
  -91463   -91464   -91467   -91468   -91466   -91464   -91464   -91466 
  -91466   -91463   -91465   -91466   -91465   -91465   -91466   -91465 
  -91464   -91464   -91466   -91466   -91466   -91467   -91464   -91465 
  -91467   -91465   -91463   -91466   -91466   -91464   -91464   -91466 
  -91464   -91463   -91465   -91466   -91466   -91466   -91466   -91465 
  -91464   -91463   -91463   -91464   -91465   -91465   -91465   -91464 
  -91465   -91465   -91464   -91462   -91462   -91464   -91465   -91464 
  -91465   -91466   -91465   -91465   -91465   -91465   -91464   -91462 
  -91463   -91464   -91465   -91466   -91466   -91465   -91465   -91464 
  -91464   -91465   -91464   -91465   -91467   -91466   -91465   -91465 
  -91465   -91467   -91467   -91465   -91467   -91468   -91465   -91464 
  -91466   -91466   -91466   -91467   -91473   -91488   -91502   -91492 
  -91522   -91754   -92111   -92063   -91512   -91311   -91596   -91447 
  -91214   -91826   -92767   -92773   -91518   -91608   -93428   -92282 
  -90011   -90674   -90343   -90377   -93042   -91502   -87835   -89495 
  -91764   -89906   -89541   -92886   -93781   -93564   -94240   -88727 
  -86646   -95652   -94161   -85965   -93697   -98502   -90941   -92636 
  -94704   -86694   -86820   -93021   -90426   -88523   -94859   -94965 
  -89184   -91716   -91130   -85936   -92853   -94591   -86696   -91272 
  -93289   -87435   -93076   -95153   -87345   -88204   -92910   -93849 
  -93642   -90497   -87819   -89579   -93210   -94245   -92146   -92669 
  -94333   -92807   -91310   -88714   -87647   -92763   -94684   -91547 
  -89993   -89630   -92061   -92998   -89588   -90580   -92427   -91488 
  -93597   -92541   -89500   -92682   -92856   -89614   -92180   -93494 
  -91424   -92225   -90893   -88109   -91310   -93969   -91443   -90428 
  -90265   -88899   -90267   -92350   -92317   -91465   -90263   -90921 
  -92411   -91279   -90652   -91869   -91733   -90895   -91365   -92791 
  -93171   -92127   -92152   -93072   -92895   -92055   -91203   -91023 
  -91252   -90547   -90803   -91939   -91454   -92321   -94135   -92220 
  -89568   -89305   -89698   -89989   -89881   -90148   -90960   -91512 
  -92266   -92173   -92053   -92963   -91576   -90143   -91906   -91919 
  -90314   -90933   -91029   -89972   -90842   -93011   -93466   -92559 
  -92868   -92733   -91004   -90235   -90370   -90882   -90896   -89551 
  -90760   -93141   -91899   -92065   -93948   -91472   -90136   -92627 
  -91998   -90484   -91765   -91793   -91905   -93745   -91809   -88694 
  -91250   -93120   -90060   -90292   -92971   -92030   -91933   -92688 
  -90578   -89828   -90270   -89775   -91135   -91723   -90512   -91951 
  -93389   -92038   -91578   -91753   -90105   -90111   -93387   -93487 
  -89786   -89818   -92189   -92763   -93632   -92208   -89904   -93211 
  -95099   -91335   -89976   -91640   -93747   -93370   -87576   -86187 
  -91233   -90785   -88730   -91234   -91286   -90667   -93794   -94144 
  -90462   -89087   -90365   -90880   -90853   -91581   -92624   -93787 
  -94051   -92016   -90480   -91549   -91103   -88601   -90209   -94612 
  -94402   -91156   -89776   -89343   -89906   -92051   -92900   -92454 
  -93310   -94141   -92783   -90487   -88889   -88453   -89314   -90293 
  -90541   -91260   -92665   -93648   -93527   -92038   -91073   -91631 
  -91602   -91476   -91476   -90279   -91073   -92315   -89848   -90065 
  -92826   -90463   -89337   -92220   -91168   -90603   -93603   -92590 
  -90187   -90435   -90585   -92997   -95089   -91839   -90894   -93309 
  -91257   -90530   -94200   -92858   -89823   -92700   -93804   -89458 
  -87671   -89882   -91190   -91234   -91598   -91941   -92385   -92392 
  -91228   -90761   -91365   -91512   -91470   -91096   -90292   -90647 
  -91497   -91401   -92177   -92774   -90827   -90858   -92658   -90906 
  -90806   -93650   -92124   -90803   -92786   -90519   -87594   -89812 
  -91406   -91787   -93829   -93705   -91759   -91957   -92622   -91520 
  -90143   -90825   -92241   -91155   -90352   -91586   -91053   -91219 
  -93299   -91839   -90446   -92716   -92237   -89875   -90778   -91776 
  -91187   -91093   -90891   -91235   -92655   -92621   -91858   -91956 
  -91377   -91165   -91732   -90847   -89895   -89998   -90548   -91320 
  -91188   -92240   -93939   -91730   -90017   -91803   -91507   -91017 
  -93039   -92510   -90907   -92533   -93563   -92331   -91425   -90064 
  -89296   -90870   -91395   -90399   -90281   -90208   -90525   -91114 
  -90910   -91980   -93280   -92533   -92320   -93093   -92749   -91803 
  -91295   -91632   -92417   -92196   -91373   -91400   -91228   -90953 
  -92071   -92227   -90644   -90156   -90602   -90986   -90463   -88419 
  -88780   -92412   -93977   -93415   -93376   -91989   -90492   -91766 
  -91694   -89230   -90275   -92855   -92507   -92436   -91921   -89809 
  -90524   -91062   -89478   -91146   -93038   -92499   -93128   -92768 
  -91823   -92618   -90913   -88814   -91063   -92866   -92258   -92554 
  -91842   -89315   -88346   -87113   -85275   -89517   -95862   -94429 
  -92322   -97301  -100368   -95556   -86726   -76961   -71082   -71244 
  -70740   -69746   -76080   -86002   -92024   -97007  -103502  -106728 
 -104076  -102095  -105899  -107624  -100440   -93363   -97192  -105753 
 -104564   -94771   -89683   -91709   -95228   -97967   -97372   -92207 
  -84095   -76876   -76554   -78898   -76530   -76965   -81886   -82434 
  -86585  -100742  -108898  -105500  -103042  -101954   -96740   -91948 
  -88037   -82974   -83660   -91403   -96890   -95183   -93709  -101652 
 -108932  -103482   -99242  -102679   -97867   -87377   -84458   -85089 
  -83884   -80558   -77378   -80927   -87737   -90276   -92578   -95467 
  -93046   -87576   -83657   -82451   -86841   -92887   -92455   -91291 
  -96281  -100795  -101682  -102211  -100578   -96159   -92689   -90427 
  -89055   -90551   -91434   -88110   -86034   -87169   -87725   -90742 
  -94745   -92367   -90072   -91783   -87466   -81139   -82679   -84697 
  -84696   -89873   -95314   -95582   -95221   -94530   -92973   -94413 
  -96150   -95071   -95111   -94347   -90414   -90737   -94068   -92298 
  -89554   -89431   -88439   -88202   -90058   -91207   -91162   -89577 
  -87062   -87619   -90938   -92957   -93788   -94385   -94179   -93664 
  -92221   -90849   -92216   -92491   -88566   -86318   -88394   -90893 
  -92649   -93573   -93839   -95290   -96625   -96778   -97239   -96941 
  -95247   -92573   -89171   -88089   -88511   -87106   -87458   -90396 
  -90587   -89184   -90132   -91201   -89976   -89065   -89922   -89065 
  -87056   -88787   -91183   -90858   -92918   -95570   -93362   -91565 
  -91436   -88693   -89108   -94079   -94567   -91874   -92404   -93369 
  -93039   -93208   -92669   -92209   -92925   -91780   -89497   -89743 
  -90297   -89528   -90646   -91916   -90429   -90034   -91497   -91872 
  -92667   -93304   -91481   -89629   -88688   -88077   -89083   -90930 
  -91872   -90541   -88167   -89431   -92324   -92390   -93462   -94930 
  -91838   -89950   -93797   -96988   -95665   -92919   -92190   -93097 
  -93147   -92796   -92790   -91951   -90654   -89785   -90491   -91957 
  -90166   -87690   -88814   -88835   -87795   -90288   -91181   -89710 
  -91314   -91622   -89865   -91534   -93098   -92757   -93114   -92596 
  -92875   -94275   -93178   -92968   -94849   -94194   -92856   -92642 
  -90992   -89984   -91591   -92265   -90991   -90585   -90679   -90300 
  -91206   -91916   -91225   -92527   -93674   -91840   -92322   -94478 
  -92626   -89859   -89711   -89890   -89322   -89460   -91121   -92712 
  -92630   -91483   -90619   -90633   -89929   -88201   -88160   -89685 
  -90886   -91632   -91501   -90694   -90618   -90889   -90392   -90153 
  -90811   -91078   -91496   -93029   -93183   -91384   -91124   -92778 
  -93364   -92218   -91747   -92448   -91551   -90659   -92532   -92769 
  -90824   -91345   -91464   -90198   -91952   -92767   -90506   -91001 
  -91999   -90749   -92343   -94505   -92659   -90886   -90853   -90440 
  -90702   -91867   -92037   -91579   -92031   -92055   -91238   -92073 
  -92845   -91407   -90536   -90294   -89371   -89415   -89865   -89682 
  -90207   -91383   -92121   -92171   -91977   -91677   -90469   -89593 
  -90542   -91446   -91683   -92484   -93025   -91989   -89946   -89574 
  -91464   -92133   -91288   -91583   -92504   -93375   -93388   -91706 
  -91567   -92848   -91651   -90694   -92582   -94185   -94574   -94349 
  -92909   -91065   -90212   -90199   -89914   -90141   -91236   -91004 
  -90968   -92492   -92118   -91017   -91066   -90010   -89983   -90920 
  -89815   -90257   -91856   -90980   -91169   -92543   -92145   -91837 
  -91902   -92050   -92790   -92522   -92115   -92456   -92000   -91693 
  -91920   -90844   -89148   -89418   -91418   -91807   -91207   -92443 
  -92653   -91360   -92420   -93289   -91715   -91275   -91914   -91392 
  -90983   -91446   -91143   -89969   -90108   -91141   -91153   -91399 
  -91419   -89908   -90381   -92479   -91902   -90865   -91486   -91831 
  -92506   -93821   -94214   -93542   -92297   -91415   -90979   -89852 
  -89127   -90537   -92652   -92541   -90699   -90854   -92264   -91359 
  -90071   -91167   -92383   -91168   -89796   -90860   -91089   -89539 
  -90535   -92518   -92472   -92840   -93064   -91018   -89777   -90546 
  -90065   -89102   -90077   -90756   -90744   -91534   -91175   -90965 
  -92759   -92750   -91482   -91775   -91205   -90507   -91688   -91788 
  -90572   -90860   -91898   -91610   -90684   -91370   -92768   -92014 
  -91046   -92081   -92718   -92675   -92743   -91873   -91555   -92113 
  -91759   -91980   -92831   -92354   -92017   -91970   -90673   -90076 
  -90953   -91381   -91364   -91169   -90762   -91118   -91516   -90866 
  -90473   -91009   -91375   -91269   -91386   -91742   -91624   -91295 
  -91181   -90661   -90379   -90951   -90954   -90556   -91251   -92420 
  -92489   -91535   -91593   -92665   -92208   -91456   -92316   -91826 
  -90431   -91663   -92300   -90704   -91237   -92613   -92306   -92577 
  -92491   -91555   -92067   -92231   -91423   -91404   -91249   -91242 
  -91192   -89807   -89596   -91220   -91926   -91516   -91111   -91288 
  -92142   -92695   -92062   -91008   -91053   -91484   -91346   -91612 
  -91410   -90756   -91838   -92287   -91051   -91492   -91560   -90000 
  -90771   -91898   -90893   -91251   -92598   -92613   -92682   -92583 
  -91862   -91907   -91826   -90892   -90604   -90661   -89993   -90146 
  -91527   -91588   -91150   -92560   -92920   -91145   -90734   -91185 
  -91214   -91671   -91085   -90269   -91336   -92249   -92365   -92434 
  -91988   -92365   -93084   -92081   -91208   -91457   -90862   -90099 
  -90610   -91510   -92021   -91603   -90655   -90962   -91741   -91568 
  -91757   -92302   -92011   -91350   -90757   -90536   -90800   -91168 
  -91544   -91336   -90913   -91296   -91610   -91685   -91840   -91254 
  -91109   -92067   -92040   -91244   -91471   -91889   -91608   -91842 
