Origin Time       2013/08/03 09:56:00
Lat.              34.642
Long.             137.532
Depth. (km)       34
Mag.              4.9
Station Code      SZOH24
Station Lat.      34.8343
Station Long.     137.6616
Station Height(m) -280.8
Record Time       2013/08/03 09:56:21
Sampling Freq(Hz) 100Hz
Duration Time(s)  120
Dir.              3
Scale Factor      2940(gal)/6170270
Max. Acc. (gal)   8.009
Last Correction   2013/08/03 09:56:06
Memo.             
[...]
  -32778   -32778   -32779   -32779   -32776   -32775   -32777   -32777 
  -32776   -32776   -32775   -32776   -32776   -32775   -32776   -32777 
  -32778   -32778   -32776   -32777   -32778   -32777   -32775   -32776 
  -32778   -32776   -32775   -32777   -32777   -32776   -32775   -32775 
  -32775   -32776   -32777   -32779   -32778   -32774   -32774   -32777 
  -32778   -32776   -32777   -32775   -32776   -32779   -32778   -32776 
  -32777   -32778   -32776   -32773   -32774   -32778   -32777   -32778 
  -32780   -32776   -32775   -32777   -32775   -32775   -32777   -32775 
  -32775   -32778   -32777   -32777   -32778   -32777   -32777   -32778 
  -32777   -32777   -32777   -32777   -32777   -32778   -32778   -32777 
  -32780   -32781   -32780   -32779   -32777   -32777   -32777   -32777 
  -32779   -32776   -32775   -32777   -32779   -32779   -32777   -32776 
  -32778   -32776   -32775   -32777   -32777   -32775   -32778   -32778 
  -32773   -32774   -32779   -32778   -32778   -32779   -32775   -32776 
  -32778   -32774   -32773   -32775   -32776   -32777   -32774   -32775 
  -32779   -32777   -32777   -32777   -32775   -32777   -32778   -32776 
  -32776   -32778   -32778   -32776   -32776   -32778   -32778   -32777 
  -32778   -32778   -32776   -32775   -32774   -32775   -32776   -32775 
  -32776   -32778   -32776   -32775   -32775   -32775   -32777   -32778 
  -32776   -32775   -32777   -32777   -32775   -32777   -32778   -32777 
  -32778   -32776   -32774   -32777   -32780   -32775   -32774   -32779 
  -32779   -32776   -32778   -32777   -32775   -32778   -32778   -32777 
  -32777   -32775   -32778   -32781   -32775   -32776   -32779   -32776 
  -32777   -32779   -32777   -32776   -32776   -32778   -32779   -32776 
  -32775   -32776   -32775   -32776   -32777   -32775   -32777   -32778 
  -32776   -32776   -32777   -32778   -32778   -32777   -32776   -32778 
  -32778   -32776   -32776   -32775   -32775   -32779   -32778   -32774 
  -32775   -32780   -32779   -32774   -32775   -32778   -32779   -32776 
  -32776   -32778   -32776   -32777   -32778   -32776   -32776   -32776 
  -32775   -32776   -32777   -32778   -32776   -32775   -32777   -32779 
  -32778   -32776   -32776   -32776   -32775   -32775   -32775   -32775 
  -32777   -32777   -32776   -32777   -32776   -32776   -32777   -32779 
  -32777   -32776   -32778   -32777   -32775   -32776   -32776   -32775 
  -32776   -32777   -32778   -32777   -32775   -32780   -32782   -32776 
  -32773   -32776   -32776   -32773   -32777   -32780   -32777   -32777 
  -32778   -32777   -32779   -32779   -32778   -32780   -32778   -32776 
  -32776   -32777   -32778   -32778   -32777   -32777   -32778   -32779 
  -32777   -32778   -32779   -32777   -32779   -32779   -32775   -32776 
  -32779   -32777   -32775   -32777   -32776   -32775   -32777   -32776 
  -32775   -32777   -32777   -32777   -32777   -32778   -32777   -32776 
  -32777   -32776   -32775   -32777   -32778   -32776   -32777   -32779 
  -32778   -32777   -32775   -32776   -32778   -32778   -32778   -32778 
  -32777   -32776   -32777   -32778   -32776   -32776   -32776   -32775 
  -32777   -32777   -32776   -32778   -32779   -32777   -32774   -32774 
  -32777   -32777   -32774   -32776   -32780   -32778   -32774   -32775 
  -32775   -32775   -32776   -32778   -32779   -32778   -32777   -32778 
  -32778   -32776   -32777   -32777   -32776   -32778   -32780   -32778 
  -32775   -32775   -32777   -32776   -32775   -32776   -32776   -32775 
  -32776   -32776   -32774   -32774   -32776   -32775   -32774   -32777 
  -32777   -32774   -32776   -32778   -32775   -32776   -32778   -32777 
  -32775   -32774   -32776   -32776   -32776   -32777   -32777   -32776 
  -32776   -32775   -32776   -32776   -32776   -32777   -32779   -32779 
  -32777   -32776   -32777   -32779   -32777   -32778   -32778   -32774 
  -32774   -32779   -32779   -32778   -32777   -32776   -32777   -32776 
  -32778   -32780   -32778   -32776   -32777   -32778   -32777   -32778 
  -32779   -32775   -32774   -32775   -32776   -32777   -32777   -32777 
  -32777   -32779   -32777   -32776   -32778   -32776   -32772   -32775 
  -32780   -32779   -32776   -32777   -32775   -32775   -32776   -32775 
  -32775   -32775   -32775   -32776   -32777   -32776   -32773   -32773 
  -32776   -32777   -32775   -32776   -32777   -32775   -32776   -32776 
  -32777   -32777   -32777   -32779   -32778   -32775   -32776   -32779 
  -32778   -32776   -32776   -32776   -32776   -32776   -32775   -32776 
  -32780   -32780   -32774   -32776   -32779   -32775   -32774   -32778 
  -32779   -32777   -32776   -32778   -32777   -32777   -32777   -32774 
  -32774   -32778   -32777   -32775   -32776   -32776   -32776   -32776 
  -32776   -32776   -32776   -32777   -32777   -32777   -32777   -32777 
  -32776   -32776   -32777   -32777   -32776   -32778   -32778   -32777 
  -32775   -32776   -32778   -32778   -32775   -32774   -32774   -32774 
  -32778   -32778   -32775   -32776   -32776   -32775   -32776   -32777 
  -32775   -32774   -32775   -32777   -32777   -32778   -32778   -32776 
  -32775   -32776   -32777   -32777   -32777   -32777   -32775   -32777 
  -32777   -32775   -32774   -32775   -32777   -32776   -32774   -32777 
  -32777   -32778   -32780   -32776   -32777   -32778   -32776   -32778 
  -32778   -32774   -32775   -32778   -32778   -32776   -32774   -32774 
  -32774   -32772   -32774   -32777   -32776   -32775   -32776   -32776 
  -32776   -32776   -32778   -32780   -32777   -32775   -32777   -32777 
  -32776   -32776   -32777   -32777   -32776   -32775   -32777   -32776 
  -32775   -32776   -32775   -32776   -32778   -32777   -32776   -32775 
  -32774   -32777   -32777   -32775   -32778   -32778   -32773   -32774 
  -32775   -32776   -32777   -32777   -32778   -32775   -32773   -32779 
  -32778   -32775   -32778   -32777   -32776   -32777   -32777   -32777 
  -32778   -32776   -32774   -32776   -32779   -32778   -32776   -32776 
  -32776   -32774   -32776   -32779   -32776   -32774   -32776   -32777 
  -32777   -32777   -32777   -32777   -32776   -32776   -32776   -32776 
  -32776   -32776   -32778   -32780   -32778   -32777   -32778   -32777 
  -32776   -32776   -32778   -32779   -32775   -32773   -32774   -32776 
  -32776   -32776   -32775   -32775   -32777   -32778   -32777   -32778 
  -32779   -32779   -32778   -32777   -32777   -32777   -32778   -32779 
  -32777   -32776   -32779   -32778   -32774   -32777   -32778   -32773 
  -32774   -32778   -32777   -32777   -32778   -32777   -32775   -32774 
  -32776   -32776   -32775   -32776   -32777   -32776   -32776   -32777 
  -32777   -32777   -32779   -32777   -32775   -32777   -32778   -32776 
  -32777   -32778   -32779   -32779   -32775   -32773   -32775   -32775 
  -32774   -32777   -32778   -32776   -32777   -32779   -32777   -32776 
  -32777   -32776   -32775   -32777   -32777   -32776   -32778   -32778 
  -32776   -32777   -32779   -32778   -32774   -32774   -32779   -32779 
  -32775   -32776   -32777   -32775   -32777   -32778   -32777   -32777 
  -32777   -32777   -32777   -32777   -32777   -32776   -32776   -32777 
  -32776   -32774   -32775   -32777   -32776   -32775   -32776   -32777 
  -32777   -32775   -32775   -32775   -32776   -32777   -32777   -32774 
  -32774   -32777   -32778   -32776   -32776   -32776   -32776   -32778 
  -32776   -32774   -32775   -32775   -32773   -32775   -32777   -32775 
  -32776   -32777   -32774   -32774   -32777   -32776   -32775   -32777 
  -32778   -32776   -32776   -32777   -32775   -32774   -32776   -32778 
  -32777   -32777   -32780   -32778   -32775   -32776   -32776   -32775 
  -32777   -32777   -32776   -32777   -32779   -32777   -32774   -32774 
  -32777   -32778   -32777   -32776   -32776   -32776   -32774   -32774 
  -32778   -32777   -32776   -32777   -32777   -32777   -32776   -32775 
  -32777   -32778   -32777   -32776   -32777   -32777   -32776   -32778 
  -32778   -32775   -32777   -32779   -32778   -32777   -32777   -32777 
  -32776   -32775   -32775   -32775   -32777   -32779   -32776   -32775 
  -32777   -32776   -32776   -32775   -32774   -32775   -32778   -32777 
  -32775   -32776   -32778   -32776   -32776   -32778   -32777   -32776 
  -32778   -32776   -32775   -32776   -32775   -32773   -32774   -32778 
  -32780   -32778   -32775   -32772   -32774   -32777   -32779   -32779 
  -32776   -32777   -32781   -32778   -32775   -32777   -32777   -32776 
  -32776   -32779   -32779   -32776   -32775   -32777   -32778   -32776 
  -32779   -32782   -32779   -32775   -32777   -32778   -32777   -32777 
  -32779   -32778   -32777   -32777   -32776   -32777   -32779   -32776 
  -32774   -32777   -32779   -32779   -32776   -32774   -32776   -32779 
  -32777   -32776   -32778   -32777   -32778   -32780   -32776   -32777 
  -32780   -32776   -32774   -32777   -32775   -32774   -32779   -32779 
  -32778   -32781   -32779   -32775   -32777   -32779   -32778   -32776 
  -32776   -32776   -32778   -32780   -32776   -32772   -32777   -32780 
  -32776   -32773   -32776   -32778   -32778   -32775   -32777   -32780 
  -32777   -32777   -32779   -32782   -32796   -32831   -32856   -32837 
  -32909   -33427   -34252   -34242   -32933   -31886   -32019   -32308 
  -32785   -34416   -36379   -35620   -31901   -32034   -36553   -36556 
  -32970   -30336   -27486   -28988   -35289   -35798   -29613   -27967 
  -30706   -30341   -33475   -40979   -40760   -34756   -26705   -17735 
  -23312   -37385   -34760   -28774   -34488   -34063   -31086   -36405 
  -38148   -35453   -32596   -26862   -24241   -30667   -36789   -35587 
  -36481   -37927   -34962   -35817   -35093   -31723   -33658   -29194 
  -20209   -24046   -33765   -37927   -38130   -35507   -35260   -41364 
  -41576   -31308   -25967   -26993   -26423   -27938   -30793   -33404 
  -34588   -31484   -33403   -39535   -39061   -35498   -31730   -28297 
  -29800   -33114   -31172   -28525   -32071   -34860   -33745   -33359 
  -33567   -34771   -34794   -33213   -33373   -31919   -29671   -31358 
  -33511   -33720   -33764   -33307   -32887   -33812   -34701   -34982 
  -34927   -33093   -30899   -31264   -33540   -34636   -32465   -30314 
  -30778   -31479   -32230   -33249   -34015   -34491   -33203   -31409 
  -31167   -31421   -31590   -32610   -34052   -33243   -30810   -30858 
  -32602   -32792   -32348   -32604   -32467   -32121   -33313   -34422 
  -32943   -32005   -33290   -32945   -31470   -32259   -33782   -33186 
  -31644   -32079   -34337   -36091   -34696   -31222   -31599   -34488 
  -33294   -30679   -31332   -32329   -32057   -33364   -35160   -35302 
  -34896   -33940   -32863   -31764   -30038   -30416   -31861   -30465 
  -30688   -34763   -36309   -35920   -35843   -32938   -30981   -31671 
  -29543   -28171   -31543   -33990   -34292   -35393   -34858   -32822 
  -33891   -35776   -34536   -32276   -30772   -31451   -33096   -31713 
  -31403   -34007   -32252   -29862   -34217   -37762   -35250   -32124 
  -31431   -32789   -32671   -29127   -28176   -30344   -30859   -30890 
  -30714   -32117   -36914   -39336   -37832   -34548   -31356   -32281 
  -33005   -29294   -27897   -31550   -34116   -32523   -32301   -35746 
  -36193   -33081   -33185   -36660   -36733   -32320   -30423   -32875 
  -34081   -30787   -26532   -27050   -30332   -32244   -34876   -36540 
  -34186   -31843   -32069   -34327   -36050   -33526   -30684   -31127 
  -31402   -30796   -30647   -32328   -34958   -33914   -32703   -35931 
  -36878   -33060   -31008   -32373   -32787   -30140   -28358   -30910 
  -34400   -34420   -32961   -35061   -37951   -35660   -32850   -33101 
  -31359   -28918   -29224   -29826   -30557   -31705   -32294   -34587 
  -37226   -36370   -34744   -33158   -29179   -28220   -32685   -34419 
  -31505   -30397   -32690   -34082   -32452   -31750   -33943   -34902 
  -33621   -32763   -32705   -32989   -33246   -33486   -34272   -34407 
  -33195   -32507   -33606   -34683   -33559   -32457   -32356   -30762 
  -30655   -33816   -35078   -33311   -31943   -32368   -32976   -31898 
  -30795   -31901   -34069   -34569   -33364   -33268   -33929   -32970 
  -31679   -31914   -32528   -31829   -30230   -30094   -32213   -34038 
  -34576   -35250   -34783   -32663   -32209   -32729   -31636   -31434 
  -32235   -31604   -31558   -32553   -32553   -32843   -33420   -32730 
  -33153   -34094   -32225   -31174   -32399   -32459   -32601   -32831 
  -32742   -34337   -34494   -32563   -32505   -33221   -33491   -33274 
  -31758   -31675   -32455   -31193   -31064   -33499   -34731   -33276 
  -32290   -33468   -33814   -32572   -31822   -32393   -33830   -33686 
  -32292   -32422   -32736   -32208   -32074   -33181   -34997   -34200 
  -32037   -33071   -35466   -35392   -32699   -30963   -31919   -31910 
  -31021   -32333   -33599   -32479   -31260   -31755   -32546   -32669 
  -32229   -31186   -32059   -35339   -35767   -32805   -31924   -33836 
  -34733   -33099   -31861   -32992   -33555   -32254   -30901   -30480 
  -31832   -33541   -34172   -35008   -34638   -33034   -33107   -33163 
  -32061   -31072   -29912   -30161   -32579   -34633   -34357   -32748 
  -32415   -32698   -32347   -33510   -35136   -33556   -31018   -31066 
  -32335   -32900   -31854   -30189   -31191   -34337   -35638   -35148 
  -36717   -38879   -37203   -35887   -37288   -34845   -29691   -28290 
  -28518   -26362   -25520   -29315   -33047   -35256   -39190   -41928 
  -42854   -45303   -43798   -36371   -33426   -36561   -35333   -28441 
  -22899   -18968   -15968   -17352   -21926   -26252   -30088   -33686 
  -36569   -38192   -37161   -32183   -26963   -27118   -31543   -35139 
  -34900   -31837   -30103   -30381   -30745   -32313   -33765   -32230 
  -30669   -31160   -30030   -28147   -31390   -36448   -37446   -39880 
  -46055   -47454   -41178   -34525   -33054   -32461   -28643   -26796 
  -29751   -32397   -30184   -25880   -25429   -26729   -27506   -31709 
  -35372   -33831   -32663   -32627   -30207   -29251   -32370   -34994 
  -34423   -34064   -36039   -37726   -36681   -33124   -30408   -31384 
  -33680   -34202   -34025   -34456   -34503   -36214   -39980   -39571 
  -35945   -36016   -37999   -37013   -34240   -32614   -31057   -28583 
  -27459   -28580   -31778   -35297   -35539   -34419   -34788   -33376 
  -29806   -28060   -27852   -27015   -26548   -26788   -26818   -28346 
  -31052   -31470   -31529   -34406   -35949   -34105   -33834   -35225 
  -34115   -32466   -33299   -34023   -33330   -33912   -35592   -35947 
  -35113   -33518   -32256   -32843   -32819   -30903   -29903   -31148 
  -33297   -33911   -33272   -33934   -35328   -36190   -37049   -38113 
  -38167   -35808   -33203   -32287   -31486   -30893   -30287   -29169 
  -29657   -30880   -31495   -32768   -33673   -33249   -32071   -30421 
  -29438   -29582   -29622   -29967   -32014   -33769   -33967   -34442 
  -34727   -33638   -32289   -32146   -32975   -33090   -32645   -33266 
  -34312   -34421   -34633   -35364   -35717   -36261   -36436   -35364 
  -34583   -34338   -32752   -30240   -28985   -28607   -28314   -28167 
  -27519   -27739   -29578   -30822   -30961   -30626   -30697   -32489 
  -33407   -31828   -31862   -34139   -34982   -34720   -35371   -36114 
  -36808   -38337   -38951   -37752   -37238   -37950   -37692   -36429 
  -35340   -34260   -33220   -32619   -33054   -34137   -33764   -32631 
  -32563   -31919   -30396   -29386   -28290   -27198   -26787   -26938 
  -27529   -27796   -27722   -28053   -28699   -29576   -30194   -30090 
  -30334   -31440   -32092   -31853   -31942   -32861   -33994   -34533 
  -34779   -35861   -36665   -36934   -38052   -38089   -37326   -38040 
  -38092   -36943   -36170   -35428   -34567   -33744   -32909   -31868 
  -31087   -31041   -30789   -30520   -30338   -28559   -27212   -29078 
  -30510   -29565   -29831   -31199   -31784   -32210   -32253   -32899 
  -34588   -34663   -34079   -35215   -36358   -36755   -37064   -36264 
  -35210   -34534   -32325   -30688   -31570   -31888   -31663   -32333 
  -32343   -32132   -32504   -32010   -31170   -31580   -31723   -30776 
  -30985   -31869   -31826   -31891   -31906   -31873   -32782   -33111 
  -32241   -32231   -33536   -34397   -33861   -33316   -33915   -34578 
  -34906   -35469   -35657   -35053   -33725   -32539   -32801   -33296 
  -33128   -33155   -33149   -33139   -32809   -31947   -31541   -31384 
  -31148   -30581   -29816   -30311   -32206   -33627   -33031   -32258 
  -33291   -34181   -33718   -33043   -32532   -32101   -32104   -32399 
  -32065   -31270   -31328   -32250   -33013   -33064   -32702   -33271 
  -34119   -33436   -32872   -33718   -34208   -33193   -32055   -32416 
  -32843   -32526   -32648   -32795   -33257   -33898   -33219   -32663 
  -32771   -32450   -32898   -33661   -33623   -33622   -33376   -33153 
  -33688   -33738   -33461   -33667   -33404   -33322   -33756   -33242 
  -32496   -32709   -33172   -32299   -30466   -30299   -31530   -31834 
  -31020   -30933   -32569   -33298   -31690   -30687   -31280   -31582 
  -31897   -32766   -32454   -31715   -32663   -33330   -32568   -32670 
  -33750   -34189   -33822   -33450   -33436   -33387   -33302   -33292 
  -33223   -33169   -32886   -32581   -32769   -32993   -32884   -32897 
  -33337   -33560   -33564   -33845   -33162   -31577   -31167   -31792 
  -32191   -32372   -32633   -33354   -34270   -34129   -33701   -33958 
  -33295   -32447   -33038   -33155   -32371   -32527   -33238   -33208 
  -32752   -32881   -33374   -33216   -32752   -32846   -32908   -32541 
  -32495   -32471   -31949   -31853   -31908   -31151   -30880   -31606 
  -31899   -31912   -32151   -32092   -32081   -32141   -31689   -31347 
  -31622   -32198   -32658   -32682   -32840   -33243   -32869   -32363 
  -32689   -32826   -33013   -33969   -33868   -32684   -32817   -33828 
  -33961   -33766   -34237   -34312   -33232   -32738   -33236   -33336 
  -33260   -33698   -34176   -33758   -33017   -33165   -33345   -33101 
  -33102   -33159   -33596   -34088   -33511   -33100   -33533   -33341 
  -32708   -32601   -32756   -32514   -32149   -32666   -33261   -33016 
  -32886   -32836   -32539   -32466   -32397   -31962   -31538   -32128 
  -32833   -32310   -32441   -33666   -34007   -33491   -32751   -32442 
  -33091   -33194   -32173   -31710   -31984   -32071   -32048   -32189 
  -32576   -32875   -33041   -33334   -33207   -32353   -31146   -30749 
  -31559   -31745   -31354   -31921   -32157   -31468   -31595   -32192 
  -32263   -32399   -32402   -32199   -32344   -32221   -32076   -32700 
  -33225   -33532   -33986   -33569   -32607   -32743   -33082   -32158 
  -31899   -33087   -33345   -33066   -33603   -33615   -32993   -32951 
  -33286   -33353   -32969   -32843   -33385   -33482   -33177   -33420 
  -33579   -33196   -32885   -33077   -33450   -33406   -33219   -32966 
  -32736   -33165   -33257   -32807   -33186   -33450   -32760   -32386 
  -32429   -32191   -32607   -33651   -33686   -33262   -33396   -33555 
  -33629   -33713   -33302   -32384   -32157   -32503   -32290   -32694 
  -33834   -33576   -32628   -32611   -32540   -32111   -31961   -31714 
  -31691   -32210   -32621   -32857   -33015   -32809   -32417   -32431 
  -32926   -33570   -33855   -33197   -32206   -32082   -32893   -33528 
  -33152   -32757   -33031   -32834   -32222   -32402   -32760   -32394 
