Origin Time       2013/08/03 09:56:00
Lat.              34.642
Long.             137.532
Depth. (km)       34
Mag.              4.9
Station Code      SZOH24
Station Lat.      34.8343
Station Long.     137.6616
Station Height(m) -280.8
Record Time       2013/08/03 09:56:21
Sampling Freq(Hz) 100Hz
Duration Time(s)  120
Dir.              2
Scale Factor      2940(gal)/6170270
Max. Acc. (gal)   21.067
Last Correction   2013/08/03 09:56:06
Memo.             
[...]
    3025     3023     3027     3029     3025     3025     3027     3026 
    3025     3026     3026     3025     3024     3025     3024     3025 
    3027     3025     3026     3026     3026     3025     3024     3025 
    3026     3026     3025     3025     3025     3024     3023     3026 
    3027     3024     3025     3027     3025     3022     3023     3026 
    3025     3025     3027     3026     3025     3026     3027     3026 
    3025     3026     3025     3024     3026     3026     3024     3025 
    3028     3027     3024     3025     3025     3025     3026     3026 
    3025     3024     3025     3027     3026     3024     3024     3024 
    3024     3024     3025     3025     3025     3024     3025     3027 
    3024     3023     3025     3026     3024     3025     3026     3024 
    3025     3026     3024     3024     3024     3025     3025     3025 
    3024     3023     3025     3028     3027     3025     3025     3024 
    3025     3028     3026     3025     3027     3027     3027     3026 
    3024     3025     3026     3024     3025     3027     3025     3022 
    3026     3027     3024     3025     3024     3024     3027     3026 
    3024     3025     3025     3023     3024     3025     3024     3023 
    3025     3026     3026     3024     3023     3024     3024     3024 
    3025     3024     3024     3025     3026     3025     3024     3026 
    3025     3024     3028     3027     3024     3025     3026     3025 
    3026     3026     3025     3026     3027     3025     3024     3026 
    3026     3026     3026     3025     3026     3026     3025     3024 
    3025     3026     3025     3024     3024     3024     3024     3025 
    3024     3025     3024     3023     3024     3026     3025     3024 
    3026     3024     3023     3025     3026     3023     3025     3028 
    3024     3024     3027     3026     3024     3024     3025     3024 
    3025     3026     3026     3025     3025     3026     3025     3025 
    3025     3027     3030     3028     3024     3026     3025     3023 
    3025     3026     3025     3025     3027     3026     3025     3026 
    3027     3026     3027     3028     3024     3024     3027     3026 
    3026     3026     3025     3025     3026     3025     3026     3027 
    3026     3024     3026     3027     3024     3024     3025     3025 
    3025     3025     3025     3026     3026     3024     3025     3025 
    3026     3028     3028     3026     3025     3025     3026     3024 
    3022     3025     3026     3023     3023     3026     3027     3025 
    3024     3026     3026     3025     3025     3026     3027     3026 
    3025     3024     3025     3025     3024     3024     3025     3026 
    3027     3026     3023     3025     3027     3026     3026     3026 
    3025     3024     3024     3025     3024     3024     3027     3026 
    3024     3026     3025     3024     3024     3025     3024     3024 
    3024     3024     3024     3026     3027     3026     3026     3026 
    3024     3024     3026     3025     3024     3026     3026     3024 
    3024     3026     3025     3023     3023     3024     3026     3026 
    3025     3025     3023     3023     3025     3024     3023     3026 
    3026     3026     3025     3023     3023     3025     3025     3024 
    3024     3024     3024     3026     3027     3027     3026     3025 
    3026     3026     3025     3024     3025     3026     3023     3023 
    3027     3026     3023     3023     3025     3025     3026     3025 
    3024     3026     3027     3025     3026     3025     3022     3024 
    3025     3024     3024     3026     3026     3025     3026     3027 
    3026     3024     3025     3024     3023     3024     3024     3025 
    3029     3027     3022     3024     3027     3024     3022     3023 
    3024     3024     3025     3027     3026     3024     3026     3025 
    3024     3025     3025     3024     3024     3024     3027     3027 
    3023     3024     3026     3025     3024     3024     3026     3026 
    3024     3024     3024     3024     3029     3029     3023     3025 
    3029     3024     3022     3026     3024     3023     3026     3025 
    3022     3026     3028     3023     3021     3024     3024     3024 
    3024     3024     3024     3024     3024     3026     3025     3024 
    3024     3025     3024     3024     3027     3027     3025     3025 
    3026     3026     3024     3022     3022     3025     3027     3026 
    3025     3025     3023     3025     3027     3025     3023     3026 
    3029     3026     3023     3024     3024     3026     3027     3023 
    3026     3028     3024     3026     3027     3023     3025     3028 
    3026     3024     3024     3026     3027     3026     3026     3027 
    3026     3025     3024     3023     3026     3028     3026     3025 
    3025     3025     3026     3026     3023     3024     3025     3024 
    3026     3026     3024     3025     3027     3025     3023     3024 
    3024     3024     3025     3025     3023     3025     3026     3026 
    3026     3024     3024     3026     3024     3024     3028     3027 
    3026     3025     3025     3026     3027     3024     3022     3025 
    3026     3024     3024     3025     3025     3024     3024     3024 
    3024     3024     3024     3023     3024     3026     3026     3025 
    3027     3025     3022     3024     3026     3026     3023     3024 
    3025     3021     3022     3027     3026     3025     3024     3025 
    3025     3024     3025     3025     3023     3024     3027     3026 
    3023     3025     3025     3026     3027     3027     3026     3025 
    3024     3025     3025     3024     3026     3027     3028     3029 
    3027     3023     3024     3026     3027     3026     3026     3025 
    3025     3025     3024     3024     3023     3023     3026     3026 
    3025     3027     3026     3024     3024     3025     3026     3027 
    3024     3024     3026     3025     3025     3026     3024     3023 
    3027     3027     3025     3024     3024     3024     3024     3025 
    3026     3025     3025     3025     3026     3026     3025     3025 
    3024     3025     3026     3023     3021     3022     3024     3024 
    3022     3023     3024     3024     3025     3026     3025     3024 
    3025     3026     3026     3024     3023     3024     3025     3023 
    3023     3027     3025     3024     3027     3027     3024     3023 
    3022     3023     3025     3025     3024     3024     3025     3026 
    3024     3025     3026     3024     3023     3026     3026     3024 
    3025     3026     3024     3024     3025     3024     3025     3026 
    3025     3024     3025     3026     3025     3025     3025     3024 
    3023     3022     3022     3025     3024     3023     3024     3025 
    3025     3026     3026     3025     3025     3024     3023     3025 
    3028     3027     3025     3025     3025     3024     3025     3026 
    3022     3021     3024     3024     3024     3026     3025     3024 
    3024     3025     3028     3028     3024     3025     3026     3025 
    3026     3026     3025     3025     3024     3024     3024     3023 
    3023     3024     3025     3024     3024     3025     3025     3025 
    3025     3023     3024     3027     3027     3025     3024     3023 
    3025     3026     3024     3025     3025     3024     3024     3024 
    3023     3022     3022     3025     3025     3023     3025     3025 
    3023     3023     3024     3022     3022     3026     3026     3023 
    3024     3026     3024     3025     3027     3025     3026     3028 
    3025     3024     3024     3022     3022     3025     3025     3024 
    3024     3025     3026     3025     3025     3025     3024     3024 
    3025     3024     3025     3026     3026     3026     3027     3025 
    3025     3025     3024     3025     3024     3026     3028     3025 
    3023     3026     3026     3024     3024     3025     3025     3025 
    3025     3025     3024     3024     3025     3026     3026     3026 
    3024     3023     3025     3025     3023     3025     3025     3023 
    3025     3027     3025     3023     3024     3026     3027     3026 
    3024     3025     3028     3028     3026     3024     3027     3026 
    3025     3025     3024     3025     3026     3025     3025     3025 
    3025     3025     3024     3025     3025     3024     3026     3027 
    3026     3026     3025     3025     3026     3025     3025     3026 
    3025     3026     3026     3025     3025     3024     3024     3022 
    3023     3025     3024     3024     3025     3026     3024     3025 
    3026     3024     3025     3027     3024     3023     3025     3024 
    3023     3024     3026     3026     3024     3025     3024     3025 
    3026     3024     3024     3026     3025     3027     3027     3026 
    3026     3025     3026     3027     3026     3024     3025     3025 
    3024     3025     3026     3025     3024     3024     3024     3025 
    3026     3027     3027     3025     3024     3025     3027     3027 
    3026     3026     3026     3023     3024     3028     3027     3026 
    3028     3024     3021     3026     3028     3025     3024     3024 
    3024     3025     3026     3024     3022     3025     3028     3026 
    3023     3022     3023     3024     3020     3010     2999     3002 
    2993     2876     2622     2513     2859     3304     3264     3025 
    3061     2856     2122     2145     3500     3760     1949     1422 
    2924     3750     4023     4277     3324     1930     3144     6210 
    4970     1793     3489     2815    -2165       68     5874     5371 
    2786     2354     2117     1740     3742     5777     2699     1751 
    4503     1008     1291     7500     3836     1943     6014     1455 
     795     5693     1984      172     3876     4623     2891     1279 
    4600     7403     3918     2414     2481     3345     4541     -963 
   -1902     4235     3096     1860     3907     3501     5272     4568 
    2627     4749     1676      141     4430     1547      541     5364 
    3420     2277     4375     2504     2743     3951     2933     3713 
    2692      886     3192     4177     2488     3248     4594     3448 
    2654     3081     2306     1944     3360     3532     1750     1113 
    3001     4379     3883     4416     4500     2255     2190     4215 
    3961     3034     3474     3205     1744     1213     1482     1429 
    2583     3504     2187     2435     3610     2846     3331     3924 
    3443     4959     4542     1927     2801     3960     3305     2874 
    1752     2402     3895     3121     3913     4176     1533     2396 
    5083     4564     3116     2037     1956     2835     3033     2908 
    2485     2866     3981     3009     2609     3907     3050     1775 
    1772     1923     2964     3808     4052     4026     3320     3926 
    4219     2443     2621     3664     2488     2007     2275     1488 
    1491     2666     3602     3487     2788     3300     4076     3210 
    2149     2136     2904     3973     3641     2171     2383     3073 
    2121     2942     5221     4494     3384     2952     1411     3012 
    4298      941     1902     5294     3452     3286     4580     3070 
    4261     4305      150      -59     2003     3175     4599     1698 
    -250     4726     6281     2842     2497     4006     5118     4945 
    2774     1498     1600     2498     3608     2660     1610     2233 
    2890     3593     2863     1577     4517     7012     2942      -16 
    2909     4212     2835     3634     3017     -399      519     4356 
    4179     3426     4708     3342     2053     4913     6308     3835 
    1563     1086     2341     3380     2920     3653     4359     2607 
    1878     3065     3712     3579     2528     2038     2579     1841 
    1759     3351     3478     3353     4339     4261     3702     3913 
    3876     2931     1941     2736     4344     3622     1223      401 
    2727     5347     3835     1453     2620     3155     2326     3574 
    3349     1477     2814     3833     2102     2638     3905     2173 
    2050     4968     5206     2429     1352     2516     3538     3923 
    4033     3678     2983     2379     2303     2370     2210     3115 
    4187     3318     2288     2286     2842     4163     3951     1821 
    1737     3539     3681     3024     3582     3148     1628     2354 
    2893      977     1656     4476     3768     2093     3091     4001 
    3901     4111     3709     3067     3835     4544     3141     1635 
    2185     2240     1362     2766     4007     2924     3092     3836 
    2931     2174     2653     4244     4397     1969     1645     3665 
    4096     3625     3338     3338     3772     3155     2339     3457 
    4353     2698     1493     2822     3606     2753     1763     1111 
    1774     3015     3251     3266     3158     3134     4101     4063 
    2448     2755     3949     2626     2894     5553     4533     3035 
    4359     3195     1576     2514     1721     1012     2755     2566 
    1271     2526     3801     2894     2457     4055     5038     3520 
    1834     2351     3648     3484     2805     3733     5028     4313 
    3637     4187     2790     1186     2092     2124     1342     1868 
    2094     2575     3573     3344     2886     3269     4600     5574 
    4193     3308     4146     3046     1028     1322     3526     4565 
    2546     1439     2960     3715     3112      141    -2638     -202 
    2272     4934    14646    23774    27336    28081    18980     5021 
     536    -6853   -28363   -41188   -29170    -8288     2743      254 
   -6356    -3861     3662     2760      109     8013    18139    20225 
   19437    17785     9302      229     2353    12080    17996    15217 
    7763     2959      166    -6443   -14926   -16601    -9120    -2746 
   -3890    -2726     6981    15176    11513     -811    -8222    -2002 
   10670    14311     3239    -9098    -7068     1874     3424     6035 
   14295    10379    -2798    -4263     -626    -1843     4048    16268 
   23064    23823    16471     4677     -404    -1765     -920     4120 
    1610    -5095    -3051    -3244    -6601     -835      477    -6905 
   -3315     5945     6629     4860     1660    -2850      383     4706 
    2402     5636    14121    12054     4886     6774    10679     7282 
    4492     7181     6639     1334     -656      424      583     1286 
    2118     1843     2974     4744     2789    -1048     -290     3767 
    5123     4515     3563      390    -3353    -3704      -42     3038 
    1114    -1630     -294     1984     2810     2832     2027     2914 
    6465     9151    10078    10068     7679     3827     2643     3938 
    3399     2649     5258     6229     1907    -1545      464     4338 
    5767     5955     6792     5748     2966     3158     5196     3504 
    -149     -805     -697     -422     2579     2382     -746     1705 
    3283      565     3150     5216     1401     2663     5895     2079 
    -327     2599     3450     2576     3458     3193      926      696 
    1856      565     -415     1962     4374     5246     5869     6542 
    7206     6432     5054     5765     5623     3355     3277     3744 
    2482     3010     3897     2893     2833     2452      442      856 
    3448     3125     -177     -623     2552     2556       18     1549 
    3731     2621     2778     3809     2245      863     1538     2874 
    4681     6088     4253      142      -29     3396     4280     4350 
    5318     4523     4706     4454     1132     2107     4632     1542 
    1629     5220     4149     3891     4756     2937     5160     7812 
    4310     2905     4165     2736     2948     3573      970      770 
    3373     3067     1631     3489     5462     2958      -56      356 
     764      683     1965     2163     1253     1619     2737     3308 
    3374     4705     5765     3219     1558     2977     2440     1876 
    3805     4845     5156     5217     3999     2657     2383     3931 
    4386     2272     2493     3300     1306     1914     4101     2995 
    2318     2677     1990     3485     5147     3209     2572     4541 
    4319     3604     4123     2857     2502     4620     3535      997 
    2448     3748     1921     1210     2113     1381      600     2355 
    3419     2156     2227     3569     3660     3642     3956     3371 
    2506     2283     2635     3376     4251     4287     3382     4041 
    5586     4384     3252     4387     3899     3520     5044     4033 
    2211     2483     2228     2366     3041     2380     2873     3163 
     864      218     1646     2013     1734     1217     1440     2303 
    1165      375     2932     4816     3608     3085     4858     5669 
    4454     3911     4841     5763     5048     3011     2802     3253 
    1056      110     2639     4749     5511     4199     1316     2214 
    4758     2735      -31      602     1835     1729     1017     1077 
    1868     2843     4432     4350     1950     1177     2376     3527 
    4200     4527     5486     5278     3121     2575     2916     2701 
    2905     1975     2303     4804     4218     3147     4051     2655 
    1880     3346     3312     4521     6312     4025     1922     3072 
    3748     3339     3459     3590     3397     3737     3924     2972 
    2580     3202     3438     3296     2210      912     1123     1279 
    2103     4261     3348     1358     2819     3652     2296     1619 
    1262     1853     3531     4558     5397     4927     2669     2338 
    3667     3198     1972     2227     2832     2750     3028     2735 
    1985     3669     4375     1922     2608     4993     3288     1293 
    1585     1828     2097     2454     3074     4038     3546     2880 
    4072     4545     3689     4015     3895     2758     3440     3284 
    1015     1316     2973     3040     3008     2624     2461     3297 
    3137     3062     4161     4512     4213     3676     2952     2833 
    3225     4114     3791     1641     1595     3255     3413     3712 
    4111     3605     3906     3692     2708     3140     3295     2853 
    2897     2630     3916     5156     2830     2139     4243     2898 
     588      827      985     2079     3690     2831     2316     2873 
    2081     1923     2409     2132     2882     3547     2958     3016 
    2935     2332     2646     2778     2556     3094     3219     2481 
    2518     3820     4354     2952     2249     3113     2545     1611 
    3061     4247     3824     3458     2612     2128     2774     3248 
    4417     4739     2864     3223     4594     2902     2182     3774 
    3847     3043     3128     3168     2530     2549     3812     4017 
    2795     1974     2067     3705     5046     3992     3265     3413 
    3354     4500     4780     3261     2972     2789     1818     1992 
    1945     1082     1396     2175     1770     1161     2189     3592 
    2928     2225     3219     3781     4076     4193     2999     3019 
    4003     3177     2810     3600     3460     3493     3835     3406 
    2872     2593     3302     4617     4255     2716     1977     2130 
    2597     2889     2884     2882     3173     3648     3812     3239 
    2055     1930     3474     3952     2760     2571     3407     3347 
    2721     2768     2956     2747     2733     2660     2603     3008 
    2892     2661     3514     3992     2966     2351     3434     3728 
