Origin Time       2013/08/03 09:56:00
Lat.              34.642
Long.             137.532
Depth. (km)       34
Mag.              4.9
Station Code      SZOH24
Station Lat.      34.8343
Station Long.     137.6616
Station Height(m) 19.2
Record Time       2013/08/03 09:56:21
Sampling Freq(Hz) 100Hz
Duration Time(s)  120
Dir.              6
Scale Factor      3920(gal)/6170801
Max. Acc. (gal)   21.406
Last Correction   2013/08/03 09:56:06
Memo.             
[...]
  -19919   -19911   -19912   -19918   -19910   -19906   -19917   -19913 
  -19906   -19913   -19917   -19914   -19911   -19913   -19914   -19909 
  -19913   -19919   -19912   -19907   -19913   -19915   -19911   -19911 
  -19916   -19916   -19913   -19918   -19917   -19909   -19909   -19915 
  -19916   -19912   -19912   -19916   -19914   -19911   -19913   -19913 
  -19914   -19915   -19911   -19913   -19913   -19910   -19918   -19918 
  -19908   -19915   -19919   -19906   -19910   -19920   -19916   -19912 
  -19913   -19913   -19914   -19913   -19911   -19911   -19912   -19914 
  -19914   -19910   -19909   -19913   -19915   -19915   -19912   -19911 
  -19915   -19915   -19911   -19914   -19916   -19912   -19911   -19914 
  -19913   -19912   -19914   -19914   -19909   -19912   -19919   -19912 
  -19907   -19914   -19915   -19910   -19911   -19915   -19913   -19912 
  -19916   -19916   -19911   -19912   -19916   -19918   -19913   -19909 
  -19912   -19917   -19914   -19910   -19915   -19917   -19910   -19908 
  -19915   -19915   -19911   -19911   -19911   -19912   -19915   -19914 
  -19908   -19908   -19914   -19918   -19914   -19907   -19907   -19913 
  -19913   -19912   -19916   -19917   -19909   -19910   -19916   -19913 
  -19912   -19917   -19916   -19911   -19911   -19914   -19913   -19911 
  -19912   -19916   -19916   -19915   -19915   -19911   -19908   -19911 
  -19916   -19916   -19910   -19912   -19916   -19911   -19910   -19914 
  -19912   -19912   -19912   -19913   -19916   -19911   -19908   -19913 
  -19914   -19912   -19914   -19913   -19911   -19911   -19911   -19913 
  -19912   -19908   -19910   -19913   -19913   -19914   -19912   -19907 
  -19907   -19912   -19917   -19918   -19909   -19908   -19914   -19911 
  -19909   -19915   -19914   -19911   -19913   -19918   -19916   -19912 
  -19915   -19915   -19910   -19913   -19918   -19914   -19911   -19914 
  -19917   -19916   -19911   -19911   -19914   -19912   -19909   -19913 
  -19915   -19913   -19914   -19913   -19912   -19914   -19914   -19912 
  -19911   -19911   -19914   -19917   -19912   -19909   -19913   -19914 
  -19910   -19912   -19915   -19911   -19909   -19916   -19916   -19908 
  -19909   -19917   -19915   -19909   -19916   -19919   -19907   -19904 
  -19913   -19917   -19913   -19912   -19915   -19912   -19910   -19918 
  -19917   -19905   -19909   -19917   -19912   -19912   -19914   -19909 
  -19909   -19912   -19916   -19915   -19906   -19908   -19913   -19910 
  -19912   -19914   -19916   -19913   -19905   -19912   -19919   -19909 
  -19906   -19917   -19918   -19911   -19912   -19915   -19913   -19911 
  -19914   -19917   -19915   -19908   -19911   -19918   -19912   -19911 
  -19917   -19914   -19910   -19916   -19918   -19911   -19908   -19916 
  -19915   -19910   -19913   -19913   -19910   -19911   -19914   -19916 
  -19912   -19907   -19911   -19917   -19914   -19910   -19913   -19914 
  -19908   -19911   -19916   -19913   -19909   -19910   -19916   -19916 
  -19908   -19908   -19914   -19912   -19908   -19910   -19914   -19912 
  -19908   -19910   -19916   -19912   -19908   -19914   -19911   -19907 
  -19913   -19913   -19912   -19911   -19907   -19911   -19914   -19913 
  -19911   -19908   -19910   -19910   -19911   -19916   -19914   -19909 
  -19908   -19912   -19912   -19910   -19911   -19909   -19907   -19910 
  -19912   -19911   -19909   -19908   -19912   -19914   -19910   -19909 
  -19914   -19911   -19908   -19912   -19913   -19906   -19908   -19918 
  -19914   -19906   -19912   -19915   -19914   -19909   -19910   -19917 
  -19913   -19908   -19914   -19914   -19908   -19912   -19915   -19911 
  -19911   -19913   -19911   -19912   -19914   -19911   -19911   -19911 
  -19908   -19912   -19915   -19911   -19911   -19915   -19914   -19912 
  -19910   -19912   -19916   -19911   -19909   -19913   -19912   -19912 
  -19913   -19912   -19912   -19913   -19915   -19917   -19912   -19912 
  -19922   -19911   -19901   -19915   -19916   -19907   -19916   -19919 
  -19907   -19907   -19918   -19918   -19911   -19908   -19914   -19919 
  -19913   -19913   -19916   -19912   -19910   -19914   -19915   -19913 
  -19914   -19911   -19909   -19919   -19919   -19908   -19910   -19914 
  -19907   -19908   -19918   -19913   -19908   -19916   -19914   -19909 
  -19912   -19912   -19911   -19910   -19911   -19913   -19914   -19915 
  -19913   -19911   -19911   -19914   -19914   -19911   -19913   -19912 
  -19910   -19913   -19914   -19913   -19911   -19912   -19917   -19913 
  -19908   -19911   -19913   -19913   -19914   -19914   -19909   -19909 
  -19915   -19911   -19908   -19912   -19915   -19913   -19911   -19912 
  -19912   -19914   -19913   -19909   -19913   -19916   -19909   -19908 
  -19911   -19913   -19912   -19909   -19913   -19911   -19907   -19914 
  -19914   -19911   -19911   -19911   -19915   -19913   -19907   -19910 
  -19912   -19908   -19911   -19918   -19914   -19906   -19911   -19915 
  -19910   -19911   -19909   -19910   -19915   -19909   -19910   -19920 
  -19911   -19907   -19918   -19917   -19906   -19909   -19918   -19914 
  -19908   -19911   -19914   -19910   -19906   -19914   -19919   -19906 
  -19907   -19915   -19908   -19909   -19917   -19914   -19911   -19909 
  -19910   -19911   -19908   -19913   -19913   -19906   -19908   -19915 
  -19916   -19913   -19911   -19911   -19905   -19908   -19915   -19905 
  -19905   -19918   -19911   -19902   -19914   -19920   -19907   -19904 
  -19919   -19917   -19904   -19912   -19916   -19904   -19907   -19915 
  -19911   -19909   -19913   -19914   -19913   -19911   -19912   -19915 
  -19910   -19907   -19914   -19915   -19909   -19908   -19912   -19910 
  -19911   -19916   -19913   -19907   -19912   -19916   -19911   -19910 
  -19914   -19913   -19909   -19911   -19914   -19914   -19912   -19909 
  -19907   -19912   -19919   -19912   -19908   -19913   -19907   -19907 
  -19918   -19913   -19905   -19912   -19914   -19909   -19909   -19910 
  -19910   -19907   -19908   -19916   -19912   -19908   -19911   -19910 
  -19908   -19912   -19913   -19911   -19912   -19913   -19914   -19913 
  -19911   -19912   -19912   -19909   -19911   -19916   -19916   -19912 
  -19908   -19910   -19915   -19917   -19914   -19911   -19912   -19914 
  -19912   -19911   -19912   -19915   -19912   -19915   -19915   -19907 
  -19912   -19916   -19908   -19910   -19918   -19913   -19907   -19910 
  -19913   -19914   -19915   -19913   -19909   -19909   -19915   -19913 
  -19907   -19910   -19913   -19912   -19915   -19918   -19909   -19905 
  -19917   -19918   -19912   -19916   -19917   -19913   -19915   -19919 
  -19916   -19912   -19913   -19917   -19915   -19914   -19921   -19918 
  -19907   -19914   -19922   -19914   -19910   -19916   -19918   -19914 
  -19917   -19920   -19913   -19912   -19919   -19920   -19913   -19912 
  -19916   -19916   -19915   -19915   -19915   -19913   -19913   -19915 
  -19919   -19917   -19911   -19912   -19918   -19918   -19913   -19916 
  -19916   -19914   -19915   -19912   -19912   -19916   -19909   -19911 
  -19917   -19909   -19905   -19914   -19915   -19911   -19913   -19911 
  -19909   -19913   -19913   -19910   -19911   -19912   -19908   -19907 
  -19909   -19909   -19913   -19915   -19912   -19913   -19912   -19909 
  -19911   -19914   -19912   -19907   -19909   -19909   -19906   -19913 
  -19914   -19905   -19908   -19917   -19913   -19908   -19914   -19913 
  -19903   -19909   -19918   -19911   -19906   -19914   -19913   -19907 
  -19911   -19915   -19909   -19906   -19913   -19913   -19909   -19913 
  -19913   -19907   -19910   -19913   -19914   -19914   -19910   -19908 
  -19914   -19915   -19910   -19912   -19912   -19907   -19913   -19917 
  -19910   -19910   -19914   -19913   -19915   -19912   -19908   -19914 
  -19913   -19911   -19917   -19916   -19911   -19912   -19912   -19909 
  -19910   -19912   -19910   -19909   -19913   -19911   -19907   -19910 
  -19914   -19910   -19910   -19915   -19914   -19907   -19912   -19917 
  -19910   -19908   -19912   -19913   -19908   -19908   -19913   -19910 
  -19907   -19911   -19913   -19911   -19909   -19907   -19909   -19910 
  -19909   -19913   -19912   -19909   -19911   -19913   -19906   -19906 
  -19915   -19911   -19904   -19912   -19916   -19907   -19909   -19920 
  -19914   -19907   -19910   -19912   -19911   -19912   -19913   -19911 
  -19910   -19911   -19911   -19913   -19913   -19908   -19906   -19911 
  -19916   -19912   -19909   -19913   -19912   -19909   -19914   -19914 
  -19907   -19910   -19918   -19917   -19912   -19909   -19910   -19914 
  -19916   -19913   -19914   -19912   -19909   -19916   -19919   -19913 
  -19911   -19914   -19912   -19912   -19918   -19916   -19908   -19909 
  -19913   -19916   -19918   -19912   -19908   -19914   -19914   -19911 
  -19915   -19914   -19906   -19906   -19914   -19919   -19912   -19903 
  -19910   -19917   -19912   -19914   -19916   -19908   -19907   -19917 
  -19919   -19911   -19908   -19914   -19917   -19911   -19909   -19914 
  -19913   -19907   -19911   -19918   -19911   -19907   -19912   -19914 
  -19913   -19913   -19915   -19917   -19914   -19909   -19911   -19916 
  -19916   -19912   -19912   -19915   -19914   -19912   -19911   -19910 
  -19914   -19918   -19911   -19906   -19911   -19912   -19909   -19913 
  -19914   -19910   -19912   -19910   -19911   -19916   -19913   -19911 
  -19914   -19910   -19909   -19912   -19911   -19912   -19911   -19908 
  -19912   -19915   -19912   -19906   -19907   -19916   -19916   -19915 
  -19916   -19908   -19906   -19914   -19913   -19907   -19910   -19913 
  -19914   -19913   -19909   -19911   -19912   -19909   -19914   -19917 
  -19912   -19910   -19914   -19912   -19911   -19914   -19914   -19909 
  -19909   -19916   -19919   -19913   -19912   -19914   -19914   -19916 
  -19914   -19910   -19912   -19916   -19914   -19911   -19916   -19915 
  -19909   -19916   -19921   -19912   -19912   -19920   -19912   -19906 
  -19921   -19924   -19909   -19909   -19918   -19913   -19908   -19917 
  -19919   -19909   -19913   -19923   -19913   -19906   -19918   -19922 
  -19911   -19912   -19918   -19912   -19910   -19920   -19918   -19908 
  -19913   -19921   -19913   -19909   -19916   -19915   -19911   -19914 
  -19918   -19913   -19910   -19915   -19914   -19909   -19915   -19920 
  -19914   -19910   -19912   -19914   -19914   -19915   -19916   -19917 
  -19911   -19910   -19919   -19917   -19911   -19913   -19911   -19914 
  -19921   -19914   -19913   -19921   -19914   -19910   -19919   -19920 
  -19915   -19913   -19913   -19916   -19915   -19913   -19917   -19919 
  -19913   -19908   -19914   -19918   -19917   -19915   -19911   -19915 
  -19919   -19911   -19909   -19917   -19917   -19914   -19916   -19914 
  -19911   -19912   -19913   -19911   -19912   -19919   -19915   -19907 
  -19912   -19918   -19912   -19912   -19920   -19918   -19909   -19911 
  -19917   -19916   -19908   -19914   -19924   -19910   -19900   -19913 
  -19920   -19913   -19910   -19913   -19913   -19912   -19917   -19918 
  -19911   -19912   -19917   -19914   -19911   -19916   -19916   -19909 
  -19914   -19925   -19914   -19904   -19913   -19914   -19913   -19919 
  -19915   -19907   -19910   -19914   -19912   -19914   -19919   -19917 
  -19909   -19911   -19918   -19912   -19910   -19915   -19913   -19913 
  -19918   -19918   -19914   -19914   -19918   -19917   -19911   -19910 
  -19912   -19913   -19915   -19916   -19916   -19914   -19912   -19915 
  -19912   -19915   -19920   -19914   -19911   -19913   -19911   -19916 
  -19920   -19915   -19910   -19912   -19916   -19912   -19908   -19918 
  -19921   -19910   -19913   -19918   -19907   -19909   -19920   -19919 
  -19913   -19910   -19909   -19915   -19919   -19915   -19911   -19911 
  -19909   -19910   -19913   -19914   -19913   -19916   -19917   -19910 
  -19910   -19913   -19911   -19911   -19916   -19918   -19911   -19909 
  -19914   -19914   -19911   -19915   -19916   -19909   -19909   -19915 
  -19914   -19909   -19909   -19912   -19914   -19912   -19909   -19912 
  -19916   -19913   -19912   -19913   -19908   -19907   -19912   -19913 
  -19911   -19912   -19911   -19909   -19910   -19916   -19917   -19909 
  -19911   -19915   -19912   -19910   -19910   -19911   -19914   -19914 
  -19911   -19909   -19910   -19913   -19913   -19907   -19909   -19911 
  -19907   -19915   -19921   -19911   -19908   -19916   -19908   -19904 
  -19915   -19917   -19911   -19911   -19912   -19907   -19904   -19909 
  -19917   -19912   -19907   -19913   -19910   -19905   -19915   -19918 
  -19910   -19911   -19915   -19916   -19916   -19910   -19916   -19921 
  -19908   -19906   -19916   -19914   -19916   -19921   -19915   -19908 
  -19911   -19914   -19912   -19909   -19910   -19912   -19909   -19908 
  -19913   -19915   -19914   -19915   -19907   -19908   -19921   -19916 
  -19908   -19913   -19909   -19908   -19916   -19914   -19911   -19918 
  -19917   -19907   -19909   -19917   -19913   -19906   -19911   -19918 
  -19916   -19918   -19946   -20010   -20078   -20031   -19991   -20842 
  -22896   -23371   -19659   -16386   -18916   -21210   -18478   -19830 
  -27762   -27974   -15285   -12340   -30593   -33077   -10318    -7495 
  -17704   -13158   -20578   -32538   -11243     5949   -21353   -34422 
   -9016   -20592   -49817   -26879    -2180    -2788    -6552   -31987 
  -35302    -2036   -17121   -47086   -24345   -11842   -23859   -19337 
  -13471   -11675   -12215   -19214   -23700   -23196   -23929   -34405 
  -30292   -14412   -23625   -19921    -8496   -23986    -5340    13786 
  -27840   -49656   -24996    -3710   -15064   -49695   -39485     1259 
   -3035   -21094   -16110   -18993   -26311   -17814   -19320   -29794 
  -20087   -14830   -23071   -21296   -17691   -13442   -13723   -27621 
  -25506   -11514   -19733   -26989   -15461   -14120   -24240   -25479 
  -17674   -15908   -26705   -26156   -12221   -16625   -27847   -22090 
  -15443   -16930   -19571   -22601   -23675   -21729   -20749   -21649 
  -21072   -19091   -19509   -19404   -14110   -11749   -18437   -22217 
  -19218   -20141   -23149   -23141   -21350   -17497   -16727   -17984 
  -15775   -18994   -26543   -23624   -15650   -17530   -22908   -19110 
  -16153   -22424   -21804   -15338   -20583   -25694   -17540   -13393 
  -24205   -29609   -17029   -12533   -25208   -24835   -11092   -14483 
  -30094   -27612   -14275   -16602   -23073   -19424   -18142   -20195 
  -19020   -16756   -17774   -25138   -26550   -17769   -17075   -23020 
  -23078   -18145   -11971   -15120   -23029   -17296   -12133   -23002 
  -30538   -25946   -22274   -20735   -16770   -15802   -18018   -17238 
  -16803   -20039   -24697   -28303   -21993   -11913   -19316   -28909 
  -19462   -14423   -19985   -18770   -21268   -23625   -15976   -17948 
  -20115   -11548   -20026   -32616   -20000    -9678   -22145   -32584 
  -21134    -3150    -8593   -25334   -20206   -11120   -17204   -20719 
  -26911   -39209   -33026   -14039   -10715   -26328   -32475   -11793 
     303   -20637   -36753   -20878    -3592   -16688   -32979   -16721 
   -5474   -29949   -33188    -4746   -13577   -40256   -26030    -5182 
  -11040   -19621   -14587   -13127   -30047   -34246   -15363   -13763 
  -24657   -22575   -19835   -18428   -14704   -19029   -24590   -19549 
  -14286   -21068   -28576   -22040   -15675   -24326   -27598   -14698 
  -10631   -21444   -23437   -13020   -10338   -19809   -24976   -19008 
  -15897   -27455   -36135   -22621   -12103   -21203   -21127   -12468 
  -16984   -20716   -17382   -17305   -17336   -20927   -27080   -22570 
  -16501   -19408   -17543   -11537   -19935   -31467   -21350    -9505 
  -22450   -32401   -18162   -10919   -23440   -26925   -16721   -16344 
  -23534   -21434   -17687   -23006   -26066   -18631   -12948   -17509 
  -22681   -20915   -16712   -18050   -24663   -20700   -11772   -22539 
  -31577   -18230   -14195   -24976   -21618   -10437   -13780   -21704 
  -21223   -23115   -25175   -19678   -19257   -22798   -19677   -15149 
  -14694   -18818   -21203   -17394   -17822   -22756   -22362   -22155 
  -24934   -21829   -16085   -17454   -20389   -17805   -18084   -22152 
  -19965   -16628   -18513   -19885   -20733   -22021   -20380   -19522 
  -21703   -21046   -16235   -15172   -22279   -26067   -19362   -18324 
  -25351   -20436   -13291   -21316   -23584   -14462   -16558   -24706 
  -22539   -13940   -13625   -25441   -27270   -14499   -14472   -26009 
  -25521   -15300   -13835   -24054   -28563   -21441   -17803   -20314 
  -19601   -17655   -19216   -22042   -22647   -18837   -15438   -19956 
  -24222   -17797   -12864   -19724   -23921   -17836   -15501   -21312 
  -23640   -20231   -18741   -19434   -19986   -21050   -19478   -17203 
  -21076   -25877   -23471   -17874   -17743   -23632   -24622   -17631 
  -15382   -19760   -21065   -17400   -13685   -15502   -19253   -20393 
  -24360   -27306   -22425   -18856   -21082   -19912   -15880   -18422 
  -20773   -15166   -16307   -26845   -25975   -15834   -16951   -23656 
  -20415   -14936   -17838   -21780   -18431   -16427   -23649   -25757 
  -17181   -16564   -24404   -25879   -23007   -20970   -21436   -25982 
  -24697   -13780    -8494   -12571   -14349   -15330   -22580   -29668 
  -30847   -31230   -31797   -26128   -15394   -11341   -18051   -18873 
   -5851    -3566   -22377   -34307   -25443   -13480   -15779   -30198 
  -33865   -18709   -11771   -22296   -20880     -620     6405    -4928 
   -6591    -2274   -14825   -34787   -40486   -32389   -24682   -25367 
  -29068   -25094   -18231   -19541   -18908   -10279   -10421   -21182 
  -25121   -21889   -24490   -28173   -23354   -23877   -30590   -19848 
   -5965   -13637   -23168   -22280   -21382   -22801   -24698   -22818 
  -19823   -18251   -12186   -12207   -20523   -13538    -1250   -10880 
  -19591    -9363   -11538   -29066   -29666   -18416   -18998   -27380 
  -27587   -21410   -25679   -33580   -26871   -19961   -23792   -25724 
  -25929   -26066   -21843   -21264   -23384   -19128   -17355   -20922 
  -19742   -16413   -13857   -10907   -12110   -16028   -16641   -15166 
  -18248   -21358   -15933   -14569   -21669   -20294   -14172   -17002 
  -24032   -25394   -20686   -19960   -23665   -23501   -22738   -19940 
  -13036   -13406   -19267   -19580   -18842   -23898   -27564   -22812 
  -19041   -23043   -24966   -20598   -17655   -17982   -16873   -16476 
  -20247   -21877   -19838   -21164   -23622   -22006   -20544   -20936 
  -18814   -16078   -17858   -22442   -24593   -23877   -24314   -25828 
  -24433   -20256   -16990   -16661   -16568   -13466   -11235   -13973 
  -17480   -17911   -17688   -18794   -18919   -16989   -16925   -19525 
  -20793   -20948   -22478   -25294   -26583   -23285   -20270   -23087 
  -24284   -19869   -20624   -25526   -22746   -19048   -20835   -18931 
  -16532   -20100   -20059   -15413   -15831   -19687   -20521   -18097 
  -16577   -16966   -15223   -13050   -15032   -17806   -17570   -17973 
  -21515   -23109   -21106   -20920   -22575   -23904   -25644   -23485 
  -19114   -22372   -26938   -23034   -20247   -24499   -27102   -24274 
  -21533   -21930   -21585   -20613   -21489   -19571   -15626   -16092 
  -18496   -17982   -16666   -18240   -19433   -16590   -15159   -16990 
  -16957   -15243   -14489   -15973   -18566   -18573   -17423   -17478 
