Origin Time       2012/11/17 17:13:00
Lat.              35.267
Long.             135.490
Depth. (km)       7
Mag.              3.9
Station Code      KYTH03
Station Lat.      35.313
Station Long.     135.1334
Station Height(m) -260
Record Time       2012/11/17 17:13:05
Sampling Freq(Hz) 100Hz
Duration Time(s)  120
Dir.              2
Scale Factor      2940(gal)/6170270
Max. Acc. (gal)   0.734
Last Correction   2012/11/17 17:12:50
Memo.             
[...]
  175592   175592   175593   175592   175593   175593   175591   175591 
  175593   175595   175596   175594   175593   175595   175594   175592 
  175594   175596   175594   175592   175590   175590   175593   175594 
  175592   175594   175594   175592   175593   175594   175593   175593 
  175595   175594   175592   175593   175593   175591   175592   175594 
  175594   175592   175594   175595   175594   175593   175592   175590 
  175590   175593   175595   175592   175591   175592   175591   175593 
  175595   175593   175592   175594   175594   175592   175593   175595 
  175594   175592   175591   175590   175591   175594   175593   175591 
  175594   175594   175590   175593   175596   175593   175591   175592 
  175593   175591   175593   175594   175591   175593   175596   175594 
  175591   175591   175593   175597   175594   175591   175592   175594 
  175592   175593   175594   175593   175591   175593   175595   175594 
  175593   175593   175591   175590   175594   175593   175591   175594 
  175594   175590   175593   175596   175594   175592   175593   175593 
  175593   175593   175594   175593   175591   175591   175594   175593 
  175591   175593   175592   175591   175593   175593   175594   175594 
  175592   175593   175594   175592   175593   175593   175591   175592 
  175595   175594   175591   175591   175591   175593   175592   175590 
  175592   175593   175591   175592   175592   175589   175592   175593 
  175591   175593   175594   175592   175591   175591   175591   175593 
  175594   175593   175592   175593   175594   175593   175592   175593 
  175595   175595   175593   175593   175595   175595   175592   175591 
  175593   175594   175593   175595   175597   175594   175591   175593 
  175594   175592   175591   175593   175593   175592   175593   175592 
  175590   175591   175593   175591   175592   175594   175593   175592 
  175592   175593   175594   175593   175591   175592   175593   175593 
  175592   175592   175592   175591   175591   175593   175594   175593 
  175593   175594   175594   175593   175591   175593   175594   175594 
  175593   175593   175593   175594   175594   175592   175592   175593 
  175592   175592   175595   175594   175593   175594   175593   175593 
  175594   175594   175593   175592   175594   175597   175596   175593 
  175595   175595   175591   175593   175595   175593   175593   175593 
  175594   175596   175594   175592   175594   175597   175594   175593 
  175596   175595   175594   175594   175592   175591   175594   175595 
  175593   175593   175593   175592   175594   175594   175594   175593 
  175592   175592   175592   175594   175596   175592   175590   175593 
  175594   175591   175592   175594   175591   175591   175594   175591 
  175589   175593   175594   175591   175594   175595   175594   175595 
  175595   175594   175593   175593   175594   175593   175592   175593 
  175592   175591   175593   175594   175594   175595   175593   175590 
  175592   175594   175593   175594   175593   175590   175593   175596 
  175593   175591   175595   175597   175592   175590   175594   175593 
  175590   175593   175594   175592   175592   175593   175592   175594 
  175595   175593   175592   175594   175594   175592   175592   175593 
  175592   175594   175595   175592   175591   175592   175593   175591 
  175592   175592   175592   175592   175592   175594   175594   175591 
  175592   175594   175594   175593   175595   175594   175594   175592 
  175590   175592   175593   175593   175593   175593   175593   175594 
  175593   175592   175592   175593   175596   175596   175593   175592 
  175594   175593   175591   175593   175594   175595   175595   175592 
  175592   175593   175592   175592   175593   175593   175594   175593 
  175592   175592   175592   175591   175592   175594   175593   175592 
  175595   175593   175591   175594   175594   175591   175591   175591 
  175594   175595   175594   175595   175594   175593   175595   175594 
  175593   175593   175593   175591   175589   175592   175593   175592 
  175593   175595   175595   175595   175594   175592   175592   175593 
  175593   175593   175595   175595   175592   175592   175594   175592 
  175591   175593   175593   175592   175595   175596   175594   175592 
  175593   175594   175594   175593   175594   175593   175592   175591 
  175593   175595   175594   175592   175593   175594   175593   175593 
  175592   175591   175591   175593   175596   175592   175589   175593 
  175594   175593   175595   175593   175591   175594   175593   175591 
  175593   175593   175592   175593   175594   175593   175593   175595 
  175593   175590   175592   175592   175591   175592   175593   175593 
  175591   175589   175590   175592   175592   175591   175592   175594 
  175593   175592   175591   175592   175593   175592   175593   175594 
  175592   175591   175592   175592   175591   175592   175594   175590 
  175590   175593   175594   175594   175593   175590   175591   175592 
  175591   175591   175593   175593   175592   175591   175593   175595 
  175594   175594   175593   175593   175593   175591   175590   175590 
  175592   175593   175590   175591   175593   175592   175593   175594 
  175592   175592   175595   175592   175589   175590   175591   175594 
  175595   175593   175594   175594   175592   175592   175591   175592 
  175593   175591   175591   175593   175593   175592   175591   175590 
  175592   175593   175591   175592   175593   175592   175591   175592 
  175593   175593   175594   175593   175592   175592   175592   175592 
  175591   175591   175592   175592   175592   175594   175593   175591 
  175593   175593   175592   175594   175593   175591   175592   175593 
  175594   175595   175596   175593   175590   175591   175592   175591 
  175592   175595   175595   175592   175591   175593   175593   175594 
  175593   175590   175590   175594   175595   175593   175591   175590 
  175591   175592   175592   175593   175592   175594   175594   175592 
  175592   175592   175591   175592   175591   175593   175593   175590 
  175591   175593   175595   175595   175592   175590   175593   175595 
  175591   175589   175594   175597   175594   175594   175595   175593 
  175592   175593   175595   175595   175594   175593   175593   175593 
  175593   175594   175593   175591   175593   175595   175593   175593 
  175593   175592   175592   175592   175592   175593   175592   175593 
  175593   175592   175592   175592   175591   175591   175594   175592 
  175591   175593   175591   175589   175591   175593   175595   175594 
  175591   175591   175594   175594   175593   175594   175595   175592 
  175591   175593   175593   175593   175592   175592   175592   175591 
  175591   175593   175592   175590   175592   175593   175591   175590 
  175591   175591   175592   175592   175592   175591   175590   175590 
  175591   175593   175593   175593   175592   175591   175594   175593 
  175591   175594   175596   175594   175591   175590   175591   175591 
  175592   175593   175593   175592   175592   175590   175590   175591 
  175589   175591   175593   175590   175591   175592   175591   175592 
  175592   175590   175590   175593   175592   175590   175591   175593 
  175592   175591   175591   175592   175592   175591   175592   175593 
  175592   175590   175592   175593   175593   175594   175595   175594 
  175591   175589   175593   175595   175593   175592   175592   175591 
  175593   175592   175592   175594   175593   175592   175592   175591 
  175590   175591   175590   175591   175593   175593   175593   175592 
  175591   175593   175595   175593   175591   175592   175591   175591 
  175594   175594   175591   175592   175593   175591   175591   175593 
  175592   175592   175592   175593   175593   175592   175592   175592 
  175592   175594   175595   175593   175591   175591   175592   175592 
  175591   175592   175594   175593   175592   175590   175590   175593 
  175593   175593   175594   175593   175593   175593   175593   175592 
  175592   175593   175594   175592   175592   175592   175592   175593 
  175592   175592   175594   175592   175593   175594   175591   175592 
  175595   175593   175591   175593   175592   175591   175593   175593 
  175590   175591   175592   175592   175593   175595   175592   175591 
  175591   175591   175592   175594   175595   175593   175591   175593 
  175594   175590   175589   175592   175593   175593   175590   175588 
  175592   175593   175590   175591   175594   175592   175591   175591 
  175592   175591   175589   175592   175594   175592   175592   175592 
  175590   175591   175591   175592   175593   175591   175591   175595 
  175592   175589   175591   175593   175594   175594   175594   175592 
  175591   175591   175593   175593   175592   175593   175594   175593 
  175593   175594   175593   175592   175592   175591   175590   175593 
  175596   175592   175589   175592   175591   175591   175592   175592 
  175592   175593   175593   175593   175593   175592   175590   175589 
  175591   175593   175594   175594   175594   175594   175594   175592 
  175593   175593   175592   175592   175595   175594   175590   175592 
  175595   175592   175592   175595   175594   175592   175593   175595 
  175594   175591   175592   175593   175594   175593   175592   175593 
  175591   175593   175595   175591   175593   175594   175592   175594 
  175594   175593   175596   175595   175593   175595   175596   175593 
  175591   175591   175593   175594   175592   175593   175593   175593 
  175593   175592   175592   175593   175594   175593   175593   175595 
  175596   175593   175593   175593   175592   175593   175593   175594 
  175594   175593   175592   175593   175592   175591   175592   175593 
  175591   175592   175593   175592   175592   175593   175592   175593 
  175594   175592   175591   175592   175594   175593   175592   175593 
  175594   175593   175592   175591   175591   175591   175592   175592 
  175592   175593   175593   175593   175594   175593   175592   175594 
  175594   175592   175593   175594   175591   175591   175593   175592 
  175592   175593   175592   175591   175593   175595   175593   175592 
  175594   175594   175594   175593   175592   175593   175593   175590 
  175590   175592   175594   175593   175592   175593   175593   175592 
  175594   175595   175593   175592   175593   175593   175593   175593 
  175593   175593   175593   175593   175593   175594   175593   175592 
  175593   175594   175593   175593   175593   175591   175589   175592 
  175595   175593   175592   175593   175594   175593   175592   175592 
  175593   175594   175593   175592   175593   175594   175592   175594 
  175595   175591   175593   175597   175594   175591   175594   175596 
  175592   175588   175592   175594   175590   175592   175593   175589 
  175589   175592   175595   175595   175591   175591   175595   175592 
  175589   175592   175594   175592   175591   175593   175594   175593 
  175593   175593   175592   175592   175593   175591   175592   175593 
  175591   175590   175593   175597   175594   175590   175593   175594 
  175591   175593   175594   175593   175594   175593   175591   175593 
  175593   175594   175595   175593   175593   175592   175593   175595 
  175593   175590   175592   175594   175591   175590   175593   175594 
  175592   175593   175593   175592   175593   175593   175591   175592 
  175593   175593   175593   175591   175591   175593   175592   175592 
  175592   175592   175593   175593   175592   175593   175594   175592 
  175591   175593   175593   175593   175593   175592   175593   175594 
  175594   175593   175594   175594   175595   175594   175591   175592 
  175594   175594   175594   175593   175592   175594   175593   175590 
  175591   175594   175594   175594   175592   175592   175593   175594 
  175594   175594   175592   175593   175594   175593   175594   175594 
  175593   175593   175594   175592   175592   175595   175593   175592 
  175594   175594   175593   175594   175593   175591   175594   175596 
  175595   175592   175592   175593   175594   175593   175593   175595 
  175592   175588   175592   175596   175593   175591   175592   175593 
  175594   175592   175591   175593   175595   175594   175594   175593 
  175592   175594   175594   175594   175594   175593   175593   175593 
  175592   175594   175594   175593   175594   175594   175593   175594 
  175595   175592   175592   175595   175595   175594   175593   175592 
  175592   175593   175594   175594   175593   175593   175594   175594 
  175595   175593   175592   175594   175593   175592   175595   175595 
  175592   175592   175595   175594   175593   175593   175593   175592 
  175592   175592   175593   175593   175593   175595   175593   175591 
  175591   175591   175591   175592   175591   175593   175595   175594 
  175594   175592   175590   175592   175596   175594   175592   175595 
  175595   175591   175593   175593   175590   175592   175595   175593 
  175592   175593   175593   175593   175594   175591   175591   175593 
  175592   175591   175593   175593   175593   175591   175589   175591 
  175593   175592   175593   175596   175594   175592   175594   175594 
  175592   175593   175596   175594   175593   175594   175593   175590 
  175591   175591   175591   175593   175594   175591   175591   175594 
  175597   175602   175616   175662   175771   175956   176189   176366 
  176243   175548   174519   174052   174511   174990   174992   175355 
  176269   176697   176378   176050   176006   176001   175906   175684 
  175283   175010   175231   175550   175548   175492   175556   175491 
  175210   175202   175707   176130   176050   175679   175263   175034 
  175425   175832   175376   175246   175931   176038   175635   175640 
  175864   175636   175137   175383   175800   175217   175109   175880 
  175508   174954   175741   176339   176316   176458   176094   175479 
  175445   175245   174982   175201   175141   174906   175279   175777 
  175809   175870   176075   176080   175928   175623   175555   175677 
  175363   175292   175708   175633   175386   175720   176026   175691 
  175432   175687   175772   175546   175345   175220   175210   175203 
  175258   175606   175897   175926   175985   175930   175683   175590 
  175621   175582   175579   175547   175364   175278   175314   175451 
  175653   175626   175759   176044   175747   175436   175644   175741 
  175720   175726   175566   175509   175393   175148   175377   175763 
  175734   175525   175336   175366   175635   175787   175872   175838 
  175668   175709   175668   175506   175515   175300   175057   175436 
  175849   175677   175622   175784   175597   175584   175798   175721 
  175681   175627   175411   175496   175668   175592   175661   175769 
  175597   175609   175752   175405   174995   175187   175574   175570 
  175505   175683   175754   175867   176056   175831   175564   175659 
  175646   175430   175411   175578   175648   175698   175869   175796 
  175506   175540   175626   175477   175437   175423   175324   175314 
  175416   175541   175504   175543   175878   176103   176095   175946 
  175649   175361   175202   175277   175527   175608   175467   175348 
  175374   175617   175772   175508   175436   175834   176021   175903 
  175686   175432   175458   175580   175513   175501   175583   175666 
  175801   175854   175541   175187   175397   175701   175542   175435 
  175542   175408   175352   175753   176006   175850   175697   175738 
  175880   175779   175420   175202   175278   175544   175645   175430 
  175374   175647   175787   175705   175588   175513   175630   175727 
  175637   175549   175434   175437   175560   175491   175450   175493 
  175476   175722   175979   175824   175675   175677   175634   175579 
  175540   175618   175613   175468   175551   175564   175421   175572 
  175650   175570   175767   175795   175480   175328   175312   175457 
  175814   175823   175586   175755   176012   175837   175499   175365 
  175311   175263   175396   175521   175606   175732   175612   175544 
  175747   175743   175686   175799   175783   175678   175629   175596 
  175538   175468   175496   175463   175351   175496   175603   175435 
  175458   175584   175546   175702   175921   175825   175833   176016 
  175876   175555   175321   175206   175284   175369   175526   175788 
  175702   175550   175645   175604   175567   175657   175642   175609 
  175714   175799   175607   175494   175691   175727   175635   175617 
  175520   175458   175403   175366   175664   175834   175563   175506 
  175621   175484   175492   175757   175679   175376   175494   175720 
  175616   175516   175494   175468   175589   175686   175589   175482 
  175564   175688   175635   175582   175595   175618   175705   175686 
  175600   175533   175378   175484   175822   175768   175496   175558 
  175724   175633   175664   175881   175768   175547   175438   175206 
  175125   175395   175724   175819   175722   175466   175158   175468 
  176064   175781   175136   175218   175573   175535   175498   175799 
  176152   176319   176088   175462   174997   174923   175104   175573 
  176065   176137   175975   175861   175517   175231   175588   176041 
  175860   175376   175347   175660   175563   175215   175269   175633 
  176021   176058   175605   175432   175457   175213   175252   175381 
  175356   175564   175812   176060   176049   175431   175029   175117 
  175227   175855   176675   176184   174978   174856   175550   175784 
  175397   175184   175764   176350   175945   175514   175849   175845 
  175279   175171   175808   176307   175512   174646   175374   176011 
  175614   175650   175997   175902   175523   175035   175056   175578 
  175504   174987   175286   176290   176590   175818   175148   175340 
  175618   175442   175714   176141   175545   175094   175576   175725 
  175371   175209   175376   175607   175714   175683   175329   175366 
  176142   176270   175684   175518   175809   175976   175392   174882 
  175434   175829   175725   175970   176010   175548   175366   175559 
  175491   175464   175764   175554   175303   175697   175728   175320 
  175376   175755   175749   175504   175537   175482   175243   175257 
  175553   176050   176166   175478   175053   175488   175941   176131 
  175955   175319   175170   175510   175444   175304   175565   175848 
  175729   175579   175770   175682   175377   175488   175560   175436 
  175527   175656   175842   175970   175582   175317   175552   175583 
  175581   175818   175829   175576   175350   175429   175700   175573 
  175343   175736   176087   175725   175350   175364   175430   175603 
  175869   175663   175223   175276   175585   175757   175779   175681 
  175512   175466   175749   175771   175417   175498   175764   175813 
  175794   175619   175568   175708   175657   175603   175704   175638 
  175439   175367   175361   175476   175601   175582   175674   175511 
  175138   175436   175908   175736   175458   175548   175635   175509 
  175574   175850   175853   175629   175468   175478   175651   175726 
  175773   175996   176016   175589   175081   175124   175542   175523 
  175455   175745   175847   175726   175436   175209   175483   175716 
