Origin Time       1998/08/20 15:42:00
Lat.              28.904
Long.             139.880
Depth. (km)       457
Mag.              7.1
Station Code      OKYH10
Station Lat.      35.2826
Station Long.     133.9263
Station Height(m) 295
Record Time       1998/08/20 15:44:42
Sampling Freq(Hz) 200Hz
Duration Time(s)  60
Dir.              2
Scale Factor      2000(gal)/8388608
Max. Acc. (gal)   0.201
Last Correction   1998/08/20 15:00:00
Memo.             
[...]
  -12836   -12836   -12833   -12828   -12824   -12821   -12819   -12818 
  -12815   -12812   -12810   -12811   -12816   -12824   -12830   -12831 
  -12828   -12823   -12821   -12821   -12822   -12818   -12810   -12803 
  -12803   -12804   -12804   -12806   -12808   -12806   -12799   -12794 
  -12796   -12799   -12798   -12792   -12790   -12793   -12800   -12803 
  -12803   -12800   -12793   -12785   -12777   -12775   -12781   -12790 
  -12794   -12793   -12790   -12785   -12779   -12773   -12768   -12768 
  -12774   -12782   -12783   -12777   -12772   -12772   -12776   -12782 
  -12789   -12792   -12786   -12774   -12762   -12755   -12758   -12766 
  -12772   -12772   -12768   -12764   -12764   -12765   -12765   -12760 
  -12752   -12749   -12752   -12762   -12773   -12778   -12774   -12765 
  -12760   -12760   -12762   -12765   -12767   -12767   -12766   -12765 
  -12763   -12763   -12764   -12761   -12752   -12741   -12735   -12736 
  -12739   -12741   -12742   -12744   -12745   -12741   -12737   -12736 
  -12735   -12733   -12732   -12731   -12727   -12721   -12718   -12719 
  -12724   -12727   -12729   -12733   -12739   -12745   -12744   -12737 
  -12726   -12719   -12721   -12727   -12731   -12728   -12719   -12711 
  -12708   -12711   -12712   -12710   -12706   -12699   -12691   -12684 
  -12681   -12682   -12682   -12681   -12679   -12677   -12675   -12675 
  -12677   -12677   -12673   -12669   -12668   -12669   -12670   -12670 
  -12667   -12664   -12660   -12659   -12658   -12657   -12654   -12650 
  -12646   -12647   -12649   -12648   -12644   -12642   -12646   -12656 
  -12666   -12668   -12659   -12646   -12637   -12634   -12638   -12644 
  -12647   -12644   -12636   -12633   -12638   -12646   -12647   -12640 
  -12631   -12634   -12648   -12659   -12659   -12649   -12637   -12628 
  -12627   -12635   -12646   -12655   -12656   -12648   -12641   -12642 
  -12648   -12650   -12642   -12630   -12622   -12624   -12631   -12640 
  -12643   -12643   -12646   -12651   -12651   -12644   -12632   -12620 
  -12617   -12627   -12641   -12645   -12632   -12610   -12595   -12597 
  -12611   -12625   -12634   -12637   -12639   -12641   -12640   -12638 
  -12636   -12637   -12639   -12638   -12626   -12614   -12613   -12624 
  -12638   -12650   -12654   -12653   -12651   -12650   -12653   -12660 
  -12663   -12659   -12647   -12638   -12639   -12648   -12655   -12650 
  -12634   -12623   -12625   -12639   -12656   -12667   -12670   -12666 
  -12660   -12658   -12660   -12661   -12655   -12646   -12645   -12657 
  -12672   -12676   -12667   -12653   -12644   -12644   -12652   -12661 
  -12662   -12658   -12656   -12658   -12654   -12643   -12635   -12635 
  -12640   -12645   -12647   -12644   -12636   -12629   -12627   -12633 
  -12641   -12649   -12648   -12636   -12622   -12620   -12631   -12644 
  -12650   -12648   -12642   -12639   -12638   -12637   -12636   -12636 
  -12635   -12633   -12631   -12633   -12635   -12634   -12629   -12627 
  -12630   -12637   -12647   -12659   -12663   -12659   -12651   -12645 
  -12643   -12644   -12644   -12646   -12650   -12655   -12660   -12664 
  -12663   -12660   -12659   -12661   -12661   -12657   -12649   -12645 
  -12648   -12653   -12652   -12648   -12649   -12654   -12661   -12661 
  -12657   -12649   -12642   -12634   -12629   -12625   -12623   -12629 
  -12640   -12647   -12647   -12643   -12641   -12643   -12647   -12651 
  -12655   -12659   -12662   -12663   -12663   -12661   -12658   -12658 
  -12661   -12662   -12660   -12661   -12668   -12675   -12674   -12668 
  -12664   -12663   -12664   -12666   -12668   -12674   -12685   -12694 
  -12701   -12705   -12709   -12709   -12705   -12698   -12689   -12687 
  -12697   -12714   -12726   -12724   -12710   -12693   -12685   -12689 
  -12704   -12720   -12728   -12727   -12722   -12721   -12727   -12734 
  -12738   -12737   -12730   -12724   -12729   -12743   -12757   -12763 
  -12763   -12761   -12757   -12752   -12753   -12756   -12755   -12749 
  -12748   -12755   -12763   -12770   -12772   -12768   -12763   -12761 
  -12765   -12771   -12776   -12777   -12779   -12783   -12791   -12801 
  -12808   -12811   -12808   -12801   -12796   -12797   -12805   -12815 
  -12816   -12808   -12799   -12798   -12808   -12818   -12820   -12815 
  -12811   -12809   -12809   -12813   -12818   -12823   -12827   -12835 
  -12843   -12847   -12844   -12835   -12827   -12823   -12821   -12823 
  -12831   -12843   -12849   -12845   -12833   -12821   -12814   -12814 
  -12822   -12832   -12838   -12839   -12838   -12839   -12840   -12839 
  -12837   -12835   -12834   -12832   -12830   -12831   -12832   -12831 
  -12833   -12839   -12843   -12844   -12845   -12843   -12838   -12828 
  -12821   -12822   -12830   -12840   -12846   -12848   -12850   -12855 
  -12862   -12858   -12844   -12834   -12835   -12840   -12841   -12834 
  -12824   -12817   -12813   -12817   -12829   -12839   -12840   -12830 
  -12814   -12798   -12789   -12789   -12794   -12799   -12801   -12801 
  -12798   -12792   -12787   -12783   -12777   -12774   -12776   -12780 
  -12783   -12784   -12781   -12777   -12771   -12763   -12761   -12766 
  -12769   -12763   -12752   -12744   -12747   -12757   -12757   -12744 
  -12729   -12723   -12726   -12729   -12725   -12719   -12719   -12720 
  -12717   -12710   -12698   -12684   -12675   -12673   -12675   -12676 
  -12674   -12668   -12659   -12647   -12635   -12628   -12628   -12633 
  -12637   -12636   -12630   -12622   -12618   -12619   -12620   -12615 
  -12606   -12597   -12594   -12591   -12584   -12576   -12572   -12573 
  -12576   -12573   -12564   -12556   -12549   -12545   -12539   -12530 
  -12519   -12508   -12498   -12488   -12482   -12484   -12489   -12491 
  -12488   -12484   -12482   -12481   -12478   -12472   -12464   -12457 
  -12452   -12450   -12452   -12452   -12446   -12437   -12427   -12419 
  -12411   -12406   -12405   -12408   -12409   -12410   -12410   -12408 
  -12405   -12403   -12400   -12396   -12392   -12387   -12382   -12379 
  -12378   -12374   -12368   -12367   -12373   -12381   -12381   -12376 
  -12367   -12354   -12344   -12341   -12346   -12354   -12362   -12365 
  -12364   -12363   -12364   -12366   -12370   -12375   -12379   -12379 
  -12376   -12373   -12372   -12370   -12366   -12367   -12378   -12393 
  -12405   -12407   -12400   -12391   -12386   -12392   -12404   -12411 
  -12408   -12404   -12404   -12409   -12417   -12425   -12434   -12440 
  -12445   -12447   -12448   -12447   -12444   -12445   -12447   -12449 
  -12454   -12461   -12470   -12479   -12489   -12498   -12502   -12500 
  -12503   -12512   -12524   -12538   -12551   -12554   -12549   -12541 
  -12541   -12552   -12567   -12578   -12585   -12590   -12595   -12600 
  -12602   -12604   -12606   -12606   -12607   -12614   -12629   -12647 
  -12663   -12674   -12682   -12686   -12685   -12686   -12692   -12697 
  -12700   -12703   -12707   -12712   -12720   -12729   -12736   -12742 
  -12750   -12761   -12771   -12773   -12767   -12767   -12781   -12801 
  -12811   -12810   -12806   -12808   -12820   -12835   -12848   -12857 
  -12861   -12865   -12872   -12879   -12885   -12891   -12896   -12904 
  -12914   -12920   -12918   -12911   -12907   -12908   -12915   -12921 
  -12924   -12928   -12937   -12953   -12966   -12973   -12972   -12968 
  -12965   -12973   -12990   -13008   -13017   -13018   -13019   -13025 
  -13035   -13046   -13050   -13047   -13042   -13040   -13040   -13043 
  -13050   -13062   -13074   -13080   -13083   -13086   -13086   -13085 
  -13088   -13100   -13117   -13133   -13142   -13146   -13146   -13143 
  -13138   -13134   -13135   -13138   -13141   -13146   -13153   -13154 
  -13148   -13141   -13139   -13144   -13153   -13164   -13171   -13174 
  -13171   -13163   -13161   -13170   -13185   -13190   -13184   -13177 
  -13178   -13185   -13190   -13191   -13192   -13195   -13202   -13207 
  -13210   -13208   -13203   -13200   -13196   -13197   -13206   -13217 
  -13218   -13215   -13210   -13206   -13206   -13211   -13217   -13217 
  -13215   -13213   -13213   -13208   -13196   -13186   -13184   -13186 
  -13187   -13186   -13184   -13180   -13175   -13174   -13178   -13184 
  -13192   -13199   -13198   -13186   -13172   -13164   -13163   -13165 
  -13169   -13169   -13161   -13149   -13141   -13140   -13139   -13130 
  -13120   -13112   -13106   -13100   -13096   -13095   -13092   -13084 
  -13071   -13056   -13043   -13036   -13032   -13027   -13018   -13009 
  -13004   -13004   -13004   -12999   -12990   -12980   -12970   -12960 
  -12951   -12945   -12941   -12935   -12928   -12926   -12928   -12930 
  -12925   -12915   -12905   -12898   -12893   -12890   -12887   -12877 
  -12862   -12852   -12853   -12857   -12854   -12846   -12839   -12833 
  -12826   -12820   -12814   -12808   -12801   -12793   -12789   -12787 
  -12780   -12768   -12755   -12747   -12743   -12739   -12733   -12728 
  -12728   -12735   -12743   -12745   -12743   -12736   -12723   -12711 
  -12707   -12710   -12713   -12707   -12689   -12673   -12669   -12676 
  -12686   -12695   -12698   -12696   -12692   -12687   -12678   -12664 
  -12653   -12647   -12642   -12638   -12635   -12636   -12642   -12655 
  -12666   -12666   -12658   -12650   -12646   -12645   -12648   -12649 
  -12644   -12635   -12629   -12633   -12646   -12661   -12666   -12658 
  -12650   -12646   -12643   -12635   -12628   -12625   -12626   -12629 
  -12632   -12633   -12633   -12636   -12639   -12638   -12631   -12623 
  -12619   -12622   -12628   -12631   -12633   -12633   -12632   -12629 
  -12626   -12624   -12621   -12618   -12617   -12623   -12635   -12648 
  -12658   -12661   -12656   -12643   -12627   -12618   -12625   -12645 
  -12665   -12670   -12659   -12645   -12634   -12627   -12627   -12635 
  -12646   -12650   -12647   -12644   -12641   -12639   -12639   -12643 
  -12648   -12652   -12653   -12652   -12652   -12655   -12657   -12653 
  -12647   -12645   -12650   -12662   -12674   -12677   -12671   -12660 
  -12650   -12648   -12649   -12649   -12650   -12655   -12662   -12664 
  -12657   -12651   -12653   -12659   -12659   -12651   -12642   -12636 
  -12633   -12629   -12627   -12630   -12634   -12634   -12630   -12628 
  -12632   -12640   -12645   -12646   -12642   -12636   -12627   -12617 
  -12610   -12610   -12614   -12616   -12617   -12620   -12621   -12614 
  -12601   -12589   -12584   -12579   -12573   -12566   -12564   -12566 
  -12567   -12564   -12556   -12544   -12532   -12524   -12521   -12522 
  -12521   -12518   -12515   -12515   -12521   -12530   -12537   -12540 
  -12539   -12533   -12520   -12506   -12495   -12492   -12492   -12490 
  -12483   -12474   -12462   -12451   -12444   -12445   -12450   -12453 
  -12452   -12448   -12443   -12437   -12432   -12428   -12426   -12424 
  -12422   -12417   -12409   -12396   -12386   -12383   -12387   -12390 
  -12388   -12380   -12367   -12348   -12332   -12326   -12330   -12336 
  -12337   -12331   -12324   -12317   -12313   -12314   -12320   -12327 
  -12327   -12316   -12301   -12287   -12275   -12264   -12255   -12251 
  -12254   -12257   -12259   -12260   -12261   -12262   -12261   -12256 
  -12244   -12231   -12224   -12226   -12228   -12227   -12221   -12213 
  -12203   -12198   -12200   -12206   -12207   -12202   -12192   -12187 
  -12188   -12193   -12198   -12204   -12208   -12209   -12206   -12204 
  -12202   -12198   -12193   -12188   -12185   -12185   -12184   -12185 
  -12189   -12200   -12208   -12207   -12199   -12195   -12202   -12217 
  -12227   -12229   -12229   -12229   -12227   -12224   -12223   -12226 
  -12229   -12230   -12232   -12240   -12249   -12252   -12252   -12252 
  -12254   -12258   -12265   -12273   -12280   -12279   -12272   -12268 
  -12270   -12279   -12294   -12310   -12322   -12327   -12330   -12339 
  -12351   -12358   -12360   -12358   -12355   -12353   -12355   -12366 
  -12380   -12391   -12396   -12399   -12402   -12407   -12416   -12427 
  -12439   -12451   -12458   -12461   -12467   -12478   -12489   -12497 
  -12500   -12499   -12498   -12500   -12510   -12524   -12541   -12557 
  -12574   -12591   -12603   -12607   -12606   -12605   -12609   -12619 
  -12627   -12633   -12635   -12635   -12636   -12647   -12664   -12679 
  -12687   -12690   -12694   -12704   -12717   -12730   -12742   -12753 
  -12762   -12771   -12783   -12798   -12808   -12812   -12813   -12817 
  -12826   -12839   -12855   -12867   -12874   -12879   -12888   -12899 
  -12912   -12921   -12926   -12927   -12926   -12926   -12932   -12940 
  -12951   -12965   -12981   -12994   -13002   -13004   -13004   -13007 
  -13019   -13038   -13056   -13068   -13076   -13081   -13088   -13098 
  -13185   -13188   -13191   -13193   -13198   -13207   -13221   -13237 
  -13248   -13253   -13258   -13267   -13276   -13281   -13283   -13286 
  -13294   -13307   -13320   -13331   -13340   -13349   -13360   -13369 
  -13375   -13379   -13381   -13380   -13381   -13386   -13393   -13400 
  -13408   -13419   -13428   -13433   -13434   -13433   -13438   -13451 
  -13463   -13471   -13475   -13477   -13480   -13483   -13480   -13472 
  -13468   -13474   -13488   -13504   -13519   -13529   -13528   -13519 
  -13512   -13509   -13512   -13521   -13528   -13529   -13523   -13518 
  -13517   -13522   -13530   -13534   -13534   -13535   -13538   -13543 
  -13548   -13551   -13553   -13555   -13556   -13559   -13564   -13569 
  -13570   -13566   -13560   -13552   -13548   -13552   -13559   -13564 
  -13569   -13572   -13569   -13559   -13548   -13539   -13538   -13544 
  -13554   -13562   -13566   -13566   -13560   -13549   -13541   -13539 
  -13540   -13539   -13536   -13531   -13527   -13523   -13522   -13528 
  -13534   -13534   -13526   -13516   -13512   -13512   -13517   -13521 
  -13521   -13513   -13500   -13489   -13486   -13488   -13491   -13490 
  -13483   -13469   -13456   -13450   -13450   -13451   -13451   -13444 
  -13431   -13417   -13411   -13412   -13414   -13412   -13407   -13403 
  -13402   -13399   -13391   -13378   -13366   -13357   -13351   -13345 
  -13338   -13327   -13316   -13311   -13309   -13306   -13304   -13303 
  -13298   -13287   -13270   -13255   -13251   -13252   -13248   -13235 
  -13221   -13213   -13213   -13217   -13221   -13219   -13208   -13188 
  -13167   -13156   -13153   -13154   -13154   -13151   -13145   -13135 
  -13124   -13116   -13110   -13100   -13086   -13071   -13059   -13053 
  -13049   -13045   -13039   -13030   -13021   -13013   -13008   -13003 
  -12994   -12984   -12977   -12970   -12962   -12951   -12938   -12922 
  -12911   -12911   -12919   -12924   -12918   -12903   -12888   -12879 
  -12878   -12881   -12881   -12878   -12873   -12870   -12864   -12855 
  -12848   -12845   -12841   -12831   -12820   -12811   -12805   -12804 
  -12804   -12799   -12790   -12780   -12775   -12773   -12771   -12768 
  -12763   -12757   -12750   -12744   -12735   -12725   -12717   -12715 
  -12718   -12724   -12726   -12721   -12713   -12707   -12704   -12698 
  -12690   -12685   -12687   -12697   -12707   -12708   -12699   -12683 
  -12668   -12660   -12664   -12672   -12671   -12663   -12655   -12651 
  -12648   -12642   -12633   -12623   -12617   -12613   -12612   -12614 
  -12619   -12622   -12618   -12609   -12604   -12608   -12614   -12612 
  -12606   -12603   -12605   -12604   -12600   -12598   -12596   -12593 
  -12589   -12587   -12586   -12585   -12582   -12576   -12571   -12572 
  -12577   -12581   -12579   -12573   -12568   -12567   -12566   -12565 
  -12562   -12560   -12564   -12572   -12577   -12574   -12571   -12572 
  -12579   -12589   -12596   -12596   -12587   -12570   -12555   -12549 
  -12551   -12555   -12561   -12568   -12577   -12583   -12585   -12581 
  -12574   -12568   -12563   -12563   -12566   -12567   -12563   -12558 
  -12554   -12551   -12550   -12552   -12554   -12552   -12546   -12537 
  -12531   -12532   -12535   -12536   -12539   -12542   -12543   -12539 
  -12531   -12523   -12520   -12519   -12519   -12522   -12528   -12535 
  -12535   -12531   -12528   -12526   -12528   -12530   -12531   -12525 
  -12518   -12516   -12520   -12527   -12534   -12538   -12540   -12542 
  -12542   -12539   -12535   -12536   -12542   -12551   -12556   -12553 
  -12543   -12532   -12526   -12527   -12530   -12535   -12540   -12542 
  -12541   -12538   -12536   -12528   -12515   -12506   -12505   -12508 
  -12511   -12514   -12513   -12505   -12493   -12486   -12487   -12494 
  -12500   -12503   -12505   -12506   -12503   -12492   -12481   -12476 
  -12477   -12477   -12472   -12465   -12464   -12467   -12463   -12453 
  -12442   -12438   -12441   -12445   -12445   -12440   -12433   -12428 
  -12427   -12431   -12436   -12435   -12427   -12418   -12417   -12423 
  -12432   -12435   -12427   -12414   -12403   -12400   -12401   -12405 
  -12408   -12406   -12400   -12393   -12387   -12385   -12385   -12385 
  -12383   -12381   -12380   -12383   -12388   -12390   -12385   -12376 
  -12366   -12360   -12363   -12369   -12370   -12365   -12359   -12355 
  -12355   -12357   -12358   -12357   -12354   -12348   -12345   -12346 
  -12346   -12346   -12347   -12346   -12342   -12338   -12333   -12326 
  -12318   -12313   -12316   -12327   -12337   -12342   -12341   -12338 
  -12333   -12327   -12320   -12313   -12307   -12306   -12311   -12320 
  -12328   -12330   -12330   -12329   -12331   -12335   -12339   -12339 
  -12336   -12332   -12331   -12336   -12344   -12348   -12343   -12334 
  -12331   -12335   -12342   -12350   -12359   -12366   -12368   -12366 
  -12363   -12362   -12362   -12368   -12379   -12387   -12388   -12384 
  -12378   -12376   -12380   -12388   -12393   -12395   -12393   -12391 
  -12395   -12404   -12412   -12414   -12414   -12418   -12425   -12429 
  -12427   -12422   -12421   -12428   -12441   -12449   -12449   -12451 
  -12464   -12477   -12480   -12478   -12479   -12487   -12497   -12505 
  -12508   -12507   -12505   -12505   -12507   -12513   -12522   -12528 
  -12529   -12529   -12529   -12528   -12526   -12526   -12530   -12539 
  -12549   -12559   -12564   -12569   -12574   -12576   -12577   -12579 
  -12585   -12591   -12591   -12586   -12588   -12601   -12612   -12616 
  -12619   -12624   -12627   -12627   -12626   -12624   -12626   -12634 
  -12640   -12641   -12642   -12646   -12653   -12662   -12668   -12672 
  -12678   -12682   -12684   -12682   -12678   -12677   -12680   -12685 
  -12689   -12692   -12695   -12699   -12701   -12703   -12713   -12729 
  -12738   -12731   -12715   -12703   -12704   -12715   -12725   -12730 
  -12729   -12724   -12719   -12715   -12716   -12723   -12729   -12732 
  -12735   -12742   -12748   -12750   -12750   -12749   -12751   -12758 
  -12766   -12771   -12771   -12769   -12764   -12761   -12765   -12770 
  -12770   -12766   -12762   -12763   -12767   -12773   -12776   -12780 
  -12787   -12796   -12802   -12805   -12805   -12800   -12790   -12780 
  -12774   -12778   -12788   -12794   -12789   -12778   -12775   -12782 
  -12794   -12803   -12809   -12809   -12806   -12804   -12807   -12812 
  -12813   -12811   -12811   -12809   -12806   -12808   -12818   -12826 
  -12823   -12812   -12805   -12805   -12812   -12818   -12820   -12813 
  -12800   -12792   -12795   -12807   -12815   -12818   -12819   -12821 
  -12822   -12819   -12813   -12808   -12807   -12808   -12808   -12805 
