Origin Time       1998/08/20 15:42:00
Lat.              28.904
Long.             139.880
Depth. (km)       457
Mag.              7.1
Station Code      OKYH10
Station Lat.      35.2826
Station Long.     133.9263
Station Height(m) 295
Record Time       1998/08/20 15:44:42
Sampling Freq(Hz) 200Hz
Duration Time(s)  60
Dir.              1
Scale Factor      2000(gal)/8388608
Max. Acc. (gal)   0.116
Last Correction   1998/08/20 15:00:00
Memo.             
[...]
  -10681   -10689   -10693   -10687   -10677   -10671   -10669   -10672 
  -10677   -10676   -10666   -10656   -10652   -10655   -10661   -10667 
  -10667   -10663   -10661   -10663   -10665   -10664   -10664   -10669 
  -10676   -10680   -10684   -10687   -10686   -10681   -10677   -10678 
  -10681   -10685   -10686   -10679   -10671   -10670   -10671   -10670 
  -10672   -10675   -10676   -10675   -10674   -10671   -10668   -10669 
  -10673   -10678   -10680   -10679   -10673   -10667   -10666   -10673 
  -10683   -10689   -10690   -10692   -10698   -10701   -10696   -10686 
  -10681   -10684   -10689   -10687   -10684   -10685   -10690   -10693 
  -10693   -10695   -10699   -10702   -10702   -10699   -10695   -10691 
  -10689   -10688   -10686   -10685   -10685   -10687   -10692   -10700 
  -10705   -10703   -10698   -10696   -10698   -10701   -10704   -10704 
  -10698   -10684   -10671   -10669   -10675   -10681   -10682   -10681 
  -10684   -10692   -10696   -10691   -10681   -10675   -10673   -10677 
  -10683   -10687   -10686   -10682   -10677   -10676   -10679   -10684 
  -10688   -10686   -10678   -10671   -10671   -10676   -10678   -10675 
  -10669   -10667   -10667   -10664   -10663   -10665   -10669   -10672 
  -10674   -10677   -10677   -10676   -10673   -10669   -10665   -10661 
  -10660   -10664   -10671   -10676   -10679   -10683   -10686   -10685 
  -10681   -10676   -10673   -10669   -10666   -10667   -10671   -10672 
  -10667   -10660   -10662   -10671   -10681   -10687   -10687   -10684 
  -10681   -10682   -10686   -10687   -10682   -10675   -10669   -10664 
  -10662   -10664   -10673   -10685   -10691   -10687   -10677   -10670 
  -10671   -10679   -10685   -10687   -10683   -10675   -10668   -10666 
  -10670   -10676   -10676   -10666   -10655   -10654   -10661   -10668 
  -10669   -10661   -10649   -10638   -10636   -10642   -10650   -10651 
  -10641   -10628   -10624   -10634   -10650   -10659   -10655   -10642 
  -10636   -10639   -10644   -10641   -10632   -10628   -10637   -10651 
  -10658   -10652   -10641   -10633   -10634   -10641   -10646   -10643 
  -10636   -10636   -10643   -10652   -10657   -10657   -10657   -10654 
  -10649   -10645   -10640   -10636   -10636   -10642   -10648   -10650 
  -10648   -10649   -10652   -10655   -10655   -10652   -10648   -10642 
  -10638   -10642   -10655   -10665   -10663   -10654   -10647   -10647 
  -10650   -10648   -10641   -10634   -10634   -10640   -10648   -10654 
  -10658   -10662   -10669   -10678   -10682   -10676   -10666   -10658 
  -10656   -10654   -10652   -10650   -10654   -10662   -10667   -10665 
  -10662   -10666   -10679   -10691   -10695   -10691   -10684   -10676 
  -10673   -10674   -10677   -10679   -10680   -10678   -10676   -10677 
  -10681   -10683   -10680   -10678   -10683   -10693   -10702   -10705 
  -10703   -10699   -10696   -10697   -10699   -10704   -10710   -10715 
  -10719   -10722   -10719   -10713   -10711   -10716   -10722   -10725 
  -10727   -10729   -10727   -10722   -10721   -10728   -10737   -10743 
  -10743   -10742   -10744   -10748   -10751   -10753   -10753   -10754 
  -10754   -10754   -10756   -10756   -10754   -10752   -10753   -10758 
  -10766   -10770   -10769   -10767   -10767   -10770   -10771   -10769 
  -10768   -10767   -10765   -10761   -10762   -10768   -10774   -10773 
  -10773   -10778   -10784   -10780   -10768   -10755   -10749   -10752 
  -10757   -10762   -10765   -10764   -10763   -10767   -10772   -10770 
  -10760   -10750   -10746   -10744   -10746   -10751   -10755   -10757 
  -10758   -10755   -10748   -10741   -10739   -10745   -10757   -10769 
  -10778   -10778   -10772   -10770   -10770   -10765   -10758   -10754 
  -10750   -10749   -10749   -10753   -10757   -10758   -10753   -10744 
  -10740   -10740   -10741   -10741   -10738   -10737   -10740   -10744 
  -10746   -10750   -10756   -10760   -10759   -10755   -10754   -10755 
  -10753   -10748   -10745   -10746   -10747   -10749   -10750   -10751 
  -10751   -10754   -10758   -10760   -10758   -10753   -10748   -10745 
  -10744   -10743   -10744   -10748   -10753   -10750   -10743   -10736 
  -10730   -10730   -10736   -10743   -10746   -10746   -10742   -10739 
  -10736   -10732   -10728   -10723   -10716   -10714   -10717   -10722 
  -10728   -10734   -10739   -10742   -10738   -10726   -10713   -10707 
  -10708   -10713   -10719   -10723   -10720   -10712   -10702   -10701 
  -10708   -10718   -10724   -10722   -10716   -10707   -10699   -10696 
  -10699   -10703   -10704   -10704   -10705   -10711   -10718   -10723 
  -10727   -10728   -10723   -10712   -10699   -10688   -10683   -10683 
  -10690   -10699   -10700   -10692   -10687   -10686   -10683   -10678 
  -10677   -10685   -10696   -10699   -10696   -10694   -10694   -10695 
  -10698   -10698   -10690   -10677   -10666   -10665   -10671   -10680 
  -10688   -10689   -10686   -10684   -10688   -10693   -10695   -10695 
  -10694   -10691   -10683   -10673   -10666   -10664   -10667   -10668 
  -10663   -10654   -10648   -10647   -10649   -10651   -10655   -10659 
  -10661   -10663   -10665   -10666   -10664   -10660   -10655   -10653 
  -10657   -10667   -10673   -10672   -10663   -10649   -10640   -10638 
  -10643   -10653   -10662   -10668   -10670   -10668   -10663   -10658 
  -10655   -10655   -10651   -10644   -10636   -10635   -10642   -10650 
  -10654   -10656   -10658   -10659   -10659   -10659   -10662   -10668 
  -10674   -10678   -10681   -10680   -10673   -10662   -10653   -10650 
  -10657   -10670   -10678   -10674   -10661   -10652   -10654   -10664 
  -10670   -10668   -10663   -10661   -10666   -10675   -10684   -10688 
  -10685   -10679   -10674   -10669   -10665   -10666   -10672   -10682 
  -10688   -10690   -10691   -10689   -10685   -10685   -10692   -10697 
  -10693   -10688   -10684   -10684   -10686   -10687   -10682   -10675 
  -10673   -10677   -10683   -10688   -10694   -10701   -10702   -10695 
  -10686   -10682   -10681   -10675   -10668   -10671   -10684   -10698 
  -10704   -10701   -10691   -10684   -10684   -10691   -10696   -10689 
  -10674   -10662   -10657   -10659   -10663   -10667   -10669   -10670 
  -10675   -10682   -10685   -10682   -10676   -10671   -10672   -10675 
  -10677   -10680   -10685   -10688   -10684   -10671   -10656   -10647 
  -10652   -10660   -10661   -10652   -10642   -10639   -10645   -10654 
  -10659   -10657   -10654   -10654   -10652   -10645   -10636   -10632 
  -10632   -10634   -10637   -10639   -10638   -10631   -10620   -10614 
  -10619   -10626   -10624   -10616   -10609   -10604   -10601   -10602 
  -10608   -10614   -10613   -10609   -10605   -10598   -10590   -10588 
  -10592   -10601   -10610   -10617   -10620   -10617   -10611   -10608 
  -10608   -10609   -10607   -10608   -10615   -10625   -10633   -10640 
  -10645   -10646   -10641   -10632   -10621   -10614   -10613   -10617 
  -10621   -10622   -10620   -10616   -10614   -10614   -10613   -10614 
  -10619   -10624   -10631   -10638   -10641   -10635   -10625   -10618 
  -10614   -10615   -10620   -10627   -10633   -10637   -10639   -10636 
  -10634   -10635   -10643   -10649   -10645   -10635   -10631   -10630 
  -10625   -10620   -10622   -10631   -10645   -10658   -10665   -10665 
  -10660   -10655   -10652   -10655   -10664   -10670   -10666   -10654 
  -10647   -10647   -10651   -10658   -10668   -10677   -10680   -10679 
  -10683   -10692   -10694   -10682   -10670   -10670   -10678   -10684 
  -10686   -10692   -10701   -10707   -10703   -10691   -10683   -10685 
  -10694   -10703   -10708   -10708   -10707   -10706   -10700   -10690 
  -10684   -10690   -10702   -10711   -10714   -10713   -10709   -10703 
  -10700   -10703   -10711   -10721   -10728   -10732   -10732   -10733 
  -10737   -10741   -10738   -10731   -10729   -10732   -10736   -10739 
  -10741   -10745   -10752   -10756   -10759   -10760   -10761   -10760 
  -10760   -10760   -10758   -10752   -10745   -10739   -10740   -10748 
  -10757   -10761   -10760   -10758   -10755   -10752   -10752   -10756 
  -10765   -10774   -10776   -10771   -10771   -10778   -10785   -10787 
  -10784   -10784   -10787   -10787   -10781   -10773   -10771   -10776 
  -10783   -10786   -10783   -10779   -10781   -10793   -10806   -10812 
  -10810   -10803   -10797   -10796   -10798   -10800   -10797   -10790 
  -10785   -10791   -10809   -10827   -10835   -10826   -10811   -10800 
  -10796   -10797   -10798   -10801   -10808   -10815   -10817   -10813 
  -10806   -10802   -10799   -10798   -10799   -10800   -10797   -10788 
  -10778   -10772   -10774   -10781   -10786   -10785   -10781   -10777 
  -10775   -10774   -10767   -10758   -10755   -10759   -10758   -10751 
  -10743   -10743   -10747   -10744   -10732   -10719   -10710   -10711 
  -10716   -10715   -10710   -10704   -10700   -10700   -10703   -10704 
  -10699   -10692   -10689   -10691   -10695   -10700   -10704   -10704 
  -10699   -10692   -10684   -10672   -10658   -10647   -10647   -10659 
  -10675   -10682   -10673   -10650   -10628   -10619   -10627   -10642 
  -10651   -10648   -10638   -10629   -10624   -10618   -10611   -10611 
  -10618   -10621   -10615   -10606   -10599   -10593   -10591   -10593 
  -10597   -10597   -10592   -10583   -10573   -10564   -10558   -10554 
  -10553   -10554   -10560   -10563   -10557   -10545   -10535   -10532 
  -10534   -10538   -10538   -10531   -10519   -10507   -10497   -10487 
  -10477   -10468   -10463   -10470   -10486   -10498   -10498   -10490 
  -10479   -10467   -10457   -10450   -10446   -10444   -10445   -10445 
  -10443   -10439   -10436   -10431   -10422   -10412   -10408   -10411 
  -10418   -10422   -10419   -10410   -10399   -10391   -10387   -10388 
  -10389   -10385   -10380   -10376   -10374   -10371   -10363   -10353 
  -10351   -10358   -10366   -10371   -10375   -10377   -10375   -10371 
  -10366   -10361   -10356   -10352   -10350   -10349   -10349   -10347 
  -10343   -10338   -10334   -10332   -10332   -10334   -10341   -10355 
  -10370   -10377   -10373   -10363   -10353   -10346   -10346   -10353 
  -10361   -10366   -10370   -10371   -10364   -10352   -10344   -10344 
  -10350   -10359   -10369   -10378   -10379   -10371   -10359   -10356 
  -10366   -10380   -10387   -10388   -10387   -10388   -10395   -10405 
  -10412   -10415   -10415   -10415   -10412   -10405   -10398   -10398 
  -10406   -10413   -10412   -10410   -10413   -10418   -10421   -10418 
  -10413   -10410   -10416   -10432   -10447   -10452   -10447   -10439 
  -10433   -10432   -10437   -10448   -10458   -10463   -10462   -10455 
  -10445   -10439   -10441   -10444   -10441   -10438   -10440   -10446 
  -10449   -10451   -10451   -10451   -10452   -10456   -10458   -10459 
  -10459   -10462   -10465   -10465   -10460   -10455   -10459   -10470 
  -10477   -10477   -10475   -10477   -10485   -10494   -10495   -10486 
  -10472   -10464   -10465   -10472   -10481   -10490   -10499   -10505 
  -10504   -10500   -10499   -10501   -10503   -10502   -10500   -10500 
  -10503   -10511   -10519   -10522   -10519   -10513   -10512   -10518 
  -10524   -10526   -10530   -10537   -10544   -10546   -10547   -10551 
  -10557   -10562   -10563   -10558   -10548   -10536   -10531   -10535 
  -10545   -10552   -10552   -10548   -10545   -10546   -10550   -10552 
  -10545   -10537   -10535   -10538   -10544   -10550   -10552   -10547 
  -10542   -10542   -10547   -10551   -10553   -10555   -10560   -10568 
  -10573   -10570   -10561   -10554   -10552   -10549   -10548   -10554 
  -10563   -10569   -10572   -10576   -10579   -10583   -10587   -10588 
  -10584   -10577   -10577   -10587   -10602   -10609   -10604   -10595 
  -10590   -10590   -10594   -10598   -10595   -10588   -10588   -10598 
  -10612   -10625   -10634   -10636   -10629   -10618   -10616   -10628 
  -10644   -10652   -10652   -10650   -10647   -10647   -10651   -10655 
  -10656   -10656   -10654   -10654   -10660   -10672   -10682   -10685 
  -10683   -10674   -10662   -10657   -10662   -10670   -10675   -10677 
  -10680   -10687   -10694   -10701   -10704   -10702   -10697   -10694 
  -10697   -10702   -10709   -10716   -10722   -10727   -10731   -10734 
  -10733   -10730   -10731   -10738   -10745   -10750   -10749   -10746 
  -10745   -10751   -10760   -10763   -10761   -10758   -10758   -10761 
  -10762   -10763   -10770   -10784   -10799   -10806   -10803   -10800 
  -10805   -10815   -10826   -10837   -10843   -10844   -10842   -10842 
  -10847   -10854   -10859   -10862   -10867   -10870   -10868   -10864 
  -10863   -10867   -10873   -10878   -10879   -10879   -10878   -10882 
  -10890   -10901   -10913   -10925   -10932   -10930   -10922   -10916 
  -10912   -10915   -10924   -10937   -10945   -10948   -10950   -10953 
  -10953   -10948   -10946   -10948   -10953   -10957   -10962   -10968 
  -10975   -10981   -10988   -11001   -11016   -11026   -11026   -11022 
  -11014   -11010   -11016   -11029   -11039   -11041   -11037   -11034 
  -11036   -11041   -11047   -11053   -11056   -11059   -11065   -11071 
  -11071   -11068   -11069   -11075   -11078   -11076   -11073   -11073 
  -11076   -11084   -11090   -11088   -11083   -11085   -11095   -11104 
  -11109   -11109   -11106   -11104   -11106   -11109   -11111   -11115 
  -11120   -11122   -11120   -11121   -11127   -11137   -11144   -11146 
  -11148   -11146   -11140   -11133   -11134   -11142   -11149   -11149 
  -11144   -11138   -11136   -11142   -11153   -11162   -11163   -11158 
  -11153   -11155   -11162   -11171   -11174   -11169   -11160   -11157 
  -11156   -11154   -11150   -11147   -11143   -11140   -11139   -11138 
  -11133   -11127   -11127   -11135   -11144   -11147   -11140   -11129 
  -11119   -11114   -11111   -11111   -11113   -11114   -11108   -11099 
  -11089   -11085   -11085   -11089   -11091   -11085   -11073   -11063 
  -11059   -11060   -11060   -11057   -11049   -11039   -11034   -11036 
  -11038   -11031   -11017   -11004   -10996   -10993   -10993   -10992 
  -10989   -10982   -10974   -10968   -10963   -10960   -10957   -10954 
  -10953   -10953   -10948   -10934   -10919   -10907   -10904   -10907 
  -10912   -10913   -10905   -10892   -10881   -10874   -10870   -10864 
  -10856   -10849   -10848   -10849   -10847   -10843   -10840   -10840 
  -10841   -10839   -10835   -10830   -10822   -10814   -10805   -10797 
  -10793   -10794   -10793   -10787   -10778   -10767   -10752   -10736 
  -10726   -10725   -10736   -10753   -10765   -10768   -10763   -10754 
  -10744   -10736   -10730   -10724   -10719   -10714   -10710   -10714 
  -10723   -10724   -10715   -10707   -10706   -10708   -10709   -10707 
  -10700   -10689   -10680   -10674   -10673   -10677   -10679   -10678 
  -10675   -10672   -10668   -10663   -10660   -10660   -10661   -10663 
  -10662   -10661   -10660   -10657   -10653   -10654   -10664   -10676 
  -10679   -10672   -10659   -10645   -10637   -10640   -10650   -10659 
  -10661   -10660   -10662   -10665   -10666   -10666   -10664   -10659 
  -10653   -10652   -10654   -10654   -10650   -10648   -10651   -10657 
  -10664   -10670   -10674   -10677   -10674   -10666   -10656   -10652 
  -10653   -10659   -10666   -10670   -10667   -10660   -10650   -10643 
  -10644   -10658   -10679   -10691   -10684   -10666   -10649   -10638 
  -10638   -10650   -10666   -10678   -10680   -10678   -10675   -10671 
  -10665   -10663   -10670   -10681   -10689   -10691   -10689   -10687 
  -10684   -10680   -10678   -10684   -10696   -10708   -10715   -10707 
  -10692   -10683   -10683   -10688   -10693   -10694   -10692   -10692 
  -10694   -10703   -10719   -10733   -10735   -10724   -10713   -10710 
  -10713   -10714   -10711   -10707   -10704   -10706   -10713   -10725 
  -10739   -10748   -10749   -10743   -10731   -10716   -10711   -10722 
  -10737   -10744   -10746   -10746   -10747   -10750   -10757   -10763 
  -10764   -10762   -10760   -10758   -10755   -10752   -10751   -10751 
  -10755   -10760   -10764   -10767   -10771   -10773   -10771   -10766 
  -10762   -10758   -10756   -10758   -10764   -10770   -10770   -10766 
  -10760   -10760   -10764   -10767   -10764   -10757   -10749   -10743 
  -10744   -10751   -10758   -10764   -10770   -10777   -10781   -10779 
  -10774   -10769   -10765   -10760   -10758   -10760   -10761   -10762 
  -10765   -10765   -10764   -10765   -10769   -10771   -10773   -10776 
  -10780   -10781   -10778   -10772   -10769   -10772   -10780   -10785 
  -10782   -10774   -10764   -10756   -10752   -10754   -10761   -10766 
  -10762   -10752   -10743   -10739   -10736   -10736   -10740   -10745 
  -10749   -10753   -10752   -10746   -10743   -10748   -10755   -10755 
  -10749   -10742   -10741   -10746   -10753   -10760   -10761   -10757 
  -10747   -10738   -10733   -10733   -10735   -10736   -10734   -10735 
  -10739   -10743   -10744   -10741   -10735   -10733   -10738   -10744 
  -10745   -10748   -10755   -10759   -10756   -10753   -10751   -10750 
  -10750   -10748   -10749   -10753   -10757   -10756   -10752   -10746 
  -10743   -10744   -10743   -10736   -10728   -10724   -10730   -10744 
  -10762   -10776   -10776   -10763   -10747   -10736   -10735   -10741 
  -10752   -10758   -10756   -10746   -10735   -10726   -10724   -10727 
  -10732   -10738   -10743   -10750   -10756   -10761   -10761   -10758 
  -10758   -10766   -10778   -10785   -10783   -10775   -10766   -10759 
  -10756   -10759   -10761   -10765   -10772   -10781   -10786   -10784 
  -10784   -10790   -10799   -10806   -10811   -10810   -10805   -10799 
  -10796   -10795   -10794   -10794   -10798   -10807   -10816   -10819 
  -10819   -10817   -10810   -10804   -10808   -10816   -10819   -10816 
  -10812   -10813   -10816   -10818   -10818   -10819   -10824   -10830 
  -10833   -10830   -10827   -10825   -10820   -10813   -10808   -10808 
  -10808   -10806   -10805   -10808   -10813   -10813   -10810   -10808 
  -10809   -10814   -10819   -10819   -10808   -10794   -10787   -10789 
  -10792   -10791   -10788   -10787   -10787   -10783   -10775   -10772 
  -10776   -10784   -10788   -10783   -10772   -10763   -10762   -10768 
  -10772   -10769   -10759   -10747   -10738   -10734   -10734   -10737 
  -10742   -10747   -10751   -10754   -10753   -10748   -10740   -10729 
  -10719   -10711   -10706   -10705   -10708   -10709   -10707   -10704 
  -10701   -10700   -10701   -10704   -10707   -10703   -10691   -10678 
  -10671   -10667   -10663   -10662   -10664   -10666   -10665   -10660 
  -10651   -10639   -10630   -10625   -10622   -10616   -10610   -10608 
  -10611   -10616   -10621   -10624   -10621   -10613   -10604   -10598 
  -10595   -10592   -10588   -10587   -10587   -10586   -10580   -10574 
  -10570   -10573   -10579   -10583   -10577   -10563   -10549   -10543 
  -10545   -10549   -10547   -10539   -10532   -10530   -10531   -10530 
  -10528   -10529   -10531   -10532   -10530   -10524   -10513   -10504 
  -10506   -10517   -10529   -10535   -10532   -10522   -10511   -10503 
  -10500   -10499   -10498   -10496   -10493   -10490   -10489   -10489 
  -10485   -10480   -10477   -10475   -10469   -10459   -10451   -10453 
  -10461   -10467   -10464   -10455   -10447   -10443   -10443   -10445 
  -10449   -10455   -10462   -10469   -10470   -10462   -10448   -10434 
  -10426   -10426   -10433   -10439   -10437   -10430   -10424   -10422 
