Origin Time       1998/08/20 15:42:00
Lat.              28.904
Long.             139.880
Depth. (km)       457
Mag.              7.1
Station Code      OKYH10
Station Lat.      35.2826
Station Long.     133.9263
Station Height(m) 495
Record Time       1998/08/20 15:44:42
Sampling Freq(Hz) 200Hz
Duration Time(s)  60
Dir.              5
Scale Factor      2000(gal)/8388608
Max. Acc. (gal)   0.224
Last Correction   1998/08/20 15:00:00
Memo.             
[...]
    7628     7591     7553     7525     7517     7524     7540     7564 
    7591     7611     7615     7608     7599     7592     7587     7587 
    7593     7603     7607     7593     7566     7541     7523     7511 
    7500     7496     7508     7532     7560     7590     7622     7656 
    7683     7700     7701     7682     7641     7585     7535     7509 
    7516     7546     7582     7610     7624     7620     7601     7571 
    7536     7511     7512     7542     7594     7653     7703     7737 
    7751     7746     7725     7693     7653     7613     7580     7561 
    7561     7581     7614     7644     7658     7657     7653     7648 
    7635     7605     7564     7523     7491     7473     7477     7507 
    7550     7592     7626     7654     7682     7703     7704     7683 
    7656     7637     7626     7622     7625     7634     7645     7650 
    7646     7643     7652     7685     7737     7787     7815     7810 
    7777     7724     7662     7603     7556     7527     7521     7541 
    7579     7618     7638     7631     7603     7567     7540     7533 
    7543     7561     7581     7607     7640     7683     7734     7784 
    7816     7817     7783     7720     7640     7562     7501     7480 
    7508     7576     7666     7756     7825     7862     7861     7826 
    7764     7686     7618     7574     7551     7543     7547     7557 
    7568     7586     7623     7681     7743     7784     7796     7791 
    7780     7764     7746     7730     7722     7724     7734     7751 
    7767     7775     7776     7779     7793     7809     7808     7783 
    7740     7690     7651     7639     7653     7682     7718     7751 
    7771     7773     7767     7765     7771     7781     7793     7801 
    7799     7781     7751     7718     7696     7696     7725     7773 
    7823     7856     7862     7846     7818     7780     7737     7697 
    7667     7643     7619     7593     7578     7585     7622     7681 
    7745     7796     7826     7835     7829     7817     7801     7789 
    7790     7806     7821     7823     7816     7810     7802     7783 
    7758     7740     7743     7762     7773     7759     7720     7673 
    7650     7674     7743     7831     7905     7943     7938     7894 
    7823     7746     7687     7664     7677     7706     7721     7708 
    7676     7646     7641     7677     7751     7839     7916     7957 
    7949     7893     7816     7743     7691     7664     7663     7677 
    7694     7707     7710     7703     7691     7689     7703     7728 
    7756     7774     7777     7773     7773     7790     7827     7872 
    7900     7890     7838     7763     7689     7638     7623     7643 
    7684     7730     7768     7793     7799     7777     7729     7673 
    7639     7642     7681     7734     7778     7800     7799     7782 
    7765     7758     7760     7766     7777     7795     7817     7834 
    7837     7837     7847     7868     7886     7884     7858     7814 
    7762     7708     7664     7637     7634     7653     7689     7729 
    7760     7774     7774     7766     7762     7764     7766     7767 
    7777     7803     7839     7872     7885     7876     7852     7828 
    7811     7800     7785     7756     7722     7691     7674     7675 
    7691     7711     7732     7753     7776     7798     7817     7823 
    7812     7783     7742     7700     7669     7657     7660     7672 
    7690     7708     7724     7740     7766     7799     7833     7860 
    7878     7889     7899     7906     7901     7878     7837     7783 
    7727     7680     7653     7642     7636     7632     7635     7651 
    7677     7704     7719     7724     7736     7764     7795     7811 
    7807     7795     7796     7824     7873     7917     7923     7882 
    7813     7748     7710     7694     7680     7656     7623     7592 
    7569     7557     7554     7550     7543     7550     7589     7656 
    7727     7772     7778     7763     7756     7776     7810     7838 
    7839     7805     7742     7674     7620     7584     7560     7541 
    7525     7519     7529     7551     7572     7588     7603     7627 
    7669     7728     7790     7833     7836     7799     7746     7712 
    7718     7752     7779     7767     7712     7632     7555     7499 
    7470     7457     7440     7414     7393     7393     7413     7448 
    7487     7523     7556     7592     7640     7696     7736     7737 
    7703     7668     7666     7701     7750     7780     7773     7735 
    7685     7637     7595     7555     7512     7460     7404     7349 
    7306     7283     7284     7304     7344     7405     7490     7585 
    7662     7701     7709     7713     7746     7808     7866     7884 
    7848     7764     7651     7533     7433     7361     7318     7310 
    7340     7402     7476     7535     7562     7556     7523     7472 
    7418     7369     7329     7301     7296     7330     7419     7567 
    7746     7904     7995     7994     7915     7796     7673     7565 
    7473     7392     7327     7291     7300     7351     7424     7490 
    7527     7525     7503     7491     7496     7505     7502     7482 
    7470     7495     7568     7667     7750     7792     7806     7820 
    7841     7844     7811     7751     7686     7625     7572     7522 
    7474     7431     7394     7363     7343     7344     7375     7432 
    7500     7561     7611     7661     7719     7770     7792     7777 
    7742     7716     7718     7742     7772     7792     7799     7790 
    7766     7736     7708     7682     7661     7648     7649     7672 
    7722     7788     7858     7909     7920     7888     7824     7747 
    7672     7605     7556     7532     7543     7598     7694     7811 
    7932     8036     8108     8138     8118     8051     7956     7851 
    7757     7688     7659     7681     7748     7837     7925     7991 
    8018     7999     7942     7867     7798     7758     7763     7814 
    7892     7977     8055     8119     8161     8169     8129     8035 
    7901     7761     7659     7620     7653     7747     7879     8024 
    8155     8251     8300     8296     8253     8197     8148     8114 
    8093     8069     8034     7988     7934     7881     7837     7814 
    7823     7860     7912     7958     7986     8005     8039     8101 
    8179     8243     8268     8257     8225     8184     8136     8080 
    8018     7960     7914     7880     7853     7833     7832     7861 
    7922     8010     8106     8183     8216     8195     8126     8033 
    7936     7858     7814     7808     7836     7876     7903     7920 
    7943     7982     8038     8101     8156     8187     8188     8173 
    8157     8141     8120     8086     8035     7970     7893     7808 
    7719     7631     7549     7482     7439     7436     7481     7568 
    7678     7789     7894     8002     8123     8241     8328     8358 
    8321     8231     8110     7979     7857     7758     7689     7643 
    7613     7603     7617     7648     7682     7701     7691     7667 
    7653     7662     7693     7729     7747     7738     7717     7706 
    7712     7723     7724     7702     7658     7609     7575     7571 
    7603     7663     7730     7785     7817     7817     7782     7713 
    7614     7499     7385     7297     7251     7253     7300     7373 
    7442     7500     7557     7622     7679     7702     7678     7624 
    7573     7547     7548     7560     7563     7549     7522     7502 
    7499     7501     7486     7443     7377     7308     7254     7231 
    7239     7266     7294     7311     7324     7346     7387     7439 
    7486     7518     7537     7543     7525     7471     7385     7294 
    7231     7212     7229     7264     7309     7362     7418     7461 
    7472     7446     7390     7320     7249     7186     7131     7086 
    7058     7058     7098     7175     7262     7332     7375     7395 
    7398     7384     7354     7320     7304     7315     7336     7338 
    7315     7276     7235     7206     7194     7193     7188     7170 
    7143     7115     7093     7075     7068     7080     7113     7163 
    7213     7252     7282     7313     7346     7377     7393     7387 
    7359     7312     7249     7183     7132     7110     7117     7135 
    7154     7176     7206     7240     7270     7284     7274     7250 
    7225     7206     7195     7187     7175     7160     7149     7153 
    7175     7208     7234     7233     7206     7177     7173     7202 
    7256     7320     7381     7423     7436     7424     7405     7393 
    7400     7418     7429     7409     7355     7284     7221     7186 
    7190     7234     7313     7418     7534     7629     7677     7666 
    7600     7495     7381     7293     7254     7272     7345     7453 
    7564     7641     7658     7616     7548     7486     7444     7423 
    7431     7476     7557     7649     7713     7719     7655     7539 
    7414     7318     7265     7264     7322     7447     7617     7786 
    7909     7965     7955     7906     7849     7796     7756     7727 
    7699     7670     7645     7624     7603     7574     7543     7526 
    7534     7569     7628     7693     7754     7801     7827     7825 
    7787     7718     7643     7594     7586     7612     7652     7698 
    7752     7810     7859     7882     7870     7841     7822     7826 
    7842     7851     7834     7792     7735     7675     7626     7599 
    7599     7619     7647     7685     7734     7790     7844     7894 
    7934     7955     7943     7887     7794     7691     7606     7561 
    7555     7574     7611     7663     7729     7804     7875     7925 
    7941     7924     7891     7855     7815     7767     7716     7671 
    7647     7641     7642     7640     7637     7640     7656     7687 
    7722     7749     7758     7756     7753     7754     7758     7763 
    7772     7788     7799     7793     7771     7733     7684     7635 
    7599     7585     7595     7617     7641     7671     7718     7775 
    7821     7840     7837     7822     7802     7778     7749     7716 
    7686     7667     7662     7665     7661     7654     7653     7669 
    7707     7755     7788     7796     7792     7798     7819     7835 
    7828     7795     7748     7707     7683     7671     7660     7644 
    7630     7636     7666     7707     7743     7763     7773     7782 
    7788     7794     7799     7793     7777     7758     7746     7739 
    7734     7735     7746     7760     7771     7775     7773     7769 
    7760     7741     7716     7692     7679     7694     7731     7770 
    7794     7800     7799     7803     7815     7826     7822     7799 
    7777     7776     7798     7830     7861     7881     7885     7875 
    7858     7841     7828     7825     7834     7852     7866     7869 
    7865     7863     7864     7867     7868     7860     7846     7836 
    7840     7858     7886     7913     7937     7966     7999     8025 
    8035     8030     8016     7997     7979     7970     7967     7964 
    7958     7949     7938     7927     7919     7918     7927     7944 
    7964     7980     7991     8003     8026     8054     8078     8088 
    8083     8069     8048     8027     8014     8010     8025     8058 
    8098     8131     8151     8160     8160     8150     8130     8107 
    8082     8059     8042     8032     8039     8067     8108     8145 
    8168     8179     8181     8178     8172     8172     8189     8224 
    8269     8304     8315     8303     8272     8233     8193     8165 
    8161     8179     8207     8234     8247     8238     8210     8176 
    8155     8149     8151     8155     8156     8151     8144     8138 
    8137     8138     8136     8133     8143     8164     8188     8211 
    8231     8242     8239     8228     8219     8211     8196     8171 
    8143     8128     8130     8142     8152     8155     8150     8137 
    8117     8093     8072     8048     8016     7989     7980     7994 
    8024     8056     8078     8088     8085     8074     8060     8052 
    8058     8072     8081     8081     8075     8073     8074     8072 
    8060     8031     7990     7951     7924     7904     7886     7871 
    7862     7860     7864     7879     7903     7925     7936     7930 
    7910     7885     7856     7825     7797     7775     7759     7755 
    7761     7772     7780     7788     7800     7809     7808     7795 
    7778     7763     7756     7753     7752     7752     7746     7736 
    7721     7708     7696     7676     7643     7606     7577     7560 
    7554     7557     7568     7578     7580     7578     7571     7559 
    7541     7516     7486     7463     7453     7455     7461     7467 
    7472     7474     7474     7479     7489     7497     7498     7487 
    7461     7426     7392     7368     7357     7352     7348     7343 
    7236     7247     7257     7265     7273     7284     7294     7303 
    7309     7308     7291     7252     7195     7134     7089     7067 
    7063     7064     7068     7072     7073     7070     7057     7033 
    7010     6997     6996     7006     7027     7055     7084     7110 
    7129     7137     7134     7123     7103     7074     7038     6996 
    6950     6900     6850     6810     6790     6790     6805     6825 
    6846     6861     6872     6879     6882     6885     6893     6908 
    6928     6954     6984     7007     7020     7026     7029     7021 
    6997     6959     6919     6880     6842     6803     6767     6745 
    6737     6739     6748     6765     6785     6803     6813     6817 
    6826     6847     6878     6903     6910     6898     6876     6856 
    6843     6834     6827     6822     6816     6807     6795     6778 
    6758     6746     6751     6775     6808     6840     6868     6890 
    6903     6911     6919     6932     6949     6961     6963     6959 
    6956     6954     6942     6912     6870     6831     6807     6795 
    6786     6778     6779     6795     6821     6848     6869     6886 
    6901     6917     6934     6953     6971     6985     6989     6987 
    6988     6992     7002     7015     7026     7031     7032     7032 
    7036     7043     7057     7071     7079     7077     7072     7068 
    7063     7053     7037     7024     7014     7007     7004     7007 
    7010     7013     7018     7035     7062     7092     7122     7146 
    7160     7172     7191     7219     7248     7272     7288     7294 
    7288     7274     7255     7235     7218     7203     7191     7181 
    7180     7195     7221     7245     7260     7267     7270     7280 
    7299     7320     7338     7352     7368     7389     7411     7428 
    7436     7437     7439     7450     7470     7491     7499     7498 
    7494     7490     7484     7478     7471     7462     7454     7446 
    7441     7438     7434     7435     7445     7467     7494     7514 
    7528     7546     7572     7602     7631     7654     7667     7675 
    7679     7678     7671     7661     7654     7647     7639     7631 
    7623     7618     7614     7612     7613     7616     7618     7621 
    7629     7642     7657     7675     7699     7728     7756     7780 
    7798     7812     7824     7834     7839     7837     7831     7825 
    7816     7802     7783     7762     7744     7729     7717     7709 
    7705     7708     7717     7728     7738     7748     7762     7780 
    7800     7817     7826     7830     7834     7838     7840     7841 
    7839     7835     7827     7819     7816     7821     7830     7837 
    7839     7844     7856     7876     7897     7909     7909     7900 
    7889     7880     7870     7849     7819     7788     7762     7743 
    7730     7721     7718     7723     7739     7760     7781     7803 
    7830     7859     7885     7902     7911     7915     7915     7909 
    7897     7882     7866     7852     7842     7830     7818     7808 
    7802     7792     7780     7773     7775     7785     7804     7827 
    7849     7868     7882     7892     7902     7907     7905     7900 
    7893     7884     7876     7870     7862     7852     7844     7849 
    7866     7882     7887     7883     7877     7871     7864     7854 
    7848     7845     7840     7833     7823     7811     7795     7781 
    7779     7789     7803     7811     7814     7823     7838     7851 
    7858     7862     7865     7865     7869     7884     7908     7930 
    7938     7929     7913     7899     7893     7891     7890     7888 
    7878     7858     7832     7807     7790     7787     7795     7808 
    7822     7833     7840     7839     7833     7830     7836     7842 
    7843     7844     7855     7878     7900     7914     7919     7917 
    7915     7916     7923     7930     7932     7926     7916     7906 
    7894     7885     7879     7878     7882     7888     7895     7906 
    7916     7924     7938     7957     7974     7986     7994     7998 
    7998     7998     8000     8001     7995     7984     7973     7963 
    7955     7946     7938     7931     7926     7928     7935     7948 
    7968     7989     8005     8014     8023     8035     8051     8067 
    8077     8083     8086     8087     8082     8070     8060     8055 
    8054     8047     8034     8024     8018     8012     8003     7993 
    7988     7989     7992     7999     8012     8028     8046     8066 
    8088     8103     8107     8107     8112     8120     8125     8126 
    8126     8125     8116     8098     8075     8053     8038     8034 
    8042     8052     8053     8044     8034     8033     8041     8048 
    8051     8054     8060     8068     8071     8067     8057     8050 
    8054     8066     8080     8095     8109     8118     8115     8105 
    8097     8093     8090     8079     8064     8049     8034     8019 
    8008     8007     8015     8027     8039     8047     8047     8042 
    8040     8039     8036     8033     8032     8030     8025     8013 
    7991     7963     7935     7915     7904     7898     7893     7893 
    7902     7920     7940     7959     7976     7984     7982     7977 
    7979     7988     7995     7992     7982     7971     7956     7936 
    7916     7899     7885     7871     7863     7866     7877     7886 
    7886     7877     7871     7867     7862     7854     7845     7834 
    7821     7808     7796     7782     7767     7757     7751     7747 
    7745     7749     7762     7781     7798     7807     7809     7809 
    7806     7803     7805     7809     7810     7804     7792     7774 
    7750     7724     7706     7704     7714     7724     7725     7720 
    7719     7721     7719     7713     7704     7692     7681     7673 
    7667     7657     7646     7639     7639     7643     7651     7660 
    7668     7672     7671     7666     7664     7667     7679     7696 
    7709     7712     7707     7698     7689     7678     7665     7649 
    7634     7622     7610     7602     7600     7605     7618     7636 
    7647     7650     7647     7641     7633     7626     7621     7619 
    7617     7612     7607     7604     7602     7598     7592     7589 
    7587     7581     7571     7566     7567     7574     7583     7589 
    7594     7604     7619     7635     7652     7666     7674     7676 
    7672     7660     7639     7617     7600     7587     7572     7556 
    7540     7526     7517     7517     7521     7526     7533     7546 
