Origin Time       1998/08/20 15:42:00
Lat.              28.904
Long.             139.880
Depth. (km)       457
Mag.              7.1
Station Code      OKYH10
Station Lat.      35.2826
Station Long.     133.9263
Station Height(m) 495
Record Time       1998/08/20 15:44:42
Sampling Freq(Hz) 200Hz
Duration Time(s)  60
Dir.              4
Scale Factor      2000(gal)/8388608
Max. Acc. (gal)   0.160
Last Correction   1998/08/20 15:00:00
Memo.             
[...]
  -46548   -46596   -46628   -46635   -46620   -46594   -46565   -46537 
  -46517   -46503   -46493   -46486   -46480   -46461   -46429   -46400 
  -46384   -46378   -46383   -46400   -46424   -46455   -46490   -46524 
  -46558   -46594   -46623   -46642   -46655   -46663   -46661   -46641 
  -46601   -46546   -46486   -46429   -46372   -46319   -46279   -46262 
  -46275   -46319   -46381   -46448   -46515   -46582   -46637   -46668 
  -46681   -46687   -46681   -46659   -46613   -46539   -46450   -46370 
  -46309   -46277   -46284   -46324   -46380   -46432   -46467   -46474 
  -46466   -46465   -46482   -46514   -46553   -46586   -46606   -46612 
  -46603   -46572   -46517   -46445   -46366   -46292   -46235   -46207 
  -46207   -46230   -46270   -46321   -46380   -46440   -46496   -46549 
  -46600   -46647   -46673   -46662   -46613   -46533   -46438   -46345 
  -46269   -46221   -46213   -46239   -46280   -46324   -46366   -46402 
  -46435   -46472   -46515   -46557   -46598   -46626   -46631   -46621 
  -46606   -46582   -46540   -46483   -46417   -46353   -46311   -46298 
  -46305   -46319   -46328   -46320   -46301   -46288   -46297   -46331 
  -46389   -46463   -46545   -46624   -46688   -46724   -46723   -46686 
  -46615   -46519   -46414   -46317   -46229   -46156   -46110   -46098 
  -46122   -46182   -46275   -46391   -46519   -46644   -46753   -46835 
  -46881   -46888   -46858   -46796   -46699   -46579   -46455   -46346 
  -46253   -46178   -46117   -46068   -46043   -46053   -46101   -46189 
  -46315   -46469   -46628   -46766   -46859   -46885   -46840   -46746 
  -46631   -46519   -46426   -46359   -46308   -46268   -46238   -46222 
  -46221   -46246   -46297   -46370   -46459   -46545   -46605   -46630 
  -46622   -46587   -46538   -46492   -46459   -46448   -46458   -46471 
  -46472   -46460   -46438   -46407   -46369   -46332   -46300   -46283 
  -46297   -46343   -46404   -46465   -46521   -46563   -46587   -46600 
  -46606   -46604   -46593   -46566   -46517   -46456   -46397   -46344 
  -46305   -46296   -46319   -46362   -46414   -46461   -46496   -46522 
  -46540   -46548   -46545   -46533   -46511   -46486   -46466   -46454 
  -46450   -46455   -46471   -46496   -46523   -46541   -46533   -46493 
  -46443   -46401   -46375   -46365   -46365   -46364   -46363   -46376 
  -46407   -46449   -46486   -46506   -46505   -46496   -46490   -46486 
  -46486   -46494   -46508   -46531   -46562   -46599   -46634   -46662 
  -46678   -46671   -46633   -46568   -46488   -46401   -46320   -46253 
  -46202   -46173   -46171   -46194   -46242   -46321   -46427   -46541 
  -46645   -46722   -46770   -46792   -46785   -46741   -46667   -46582 
  -46503   -46440   -46396   -46366   -46342   -46326   -46321   -46328 
  -46343   -46359   -46368   -46368   -46366   -46368   -46379   -46400 
  -46422   -46433   -46434   -46441   -46465   -46494   -46513   -46513 
  -46492   -46457   -46416   -46375   -46342   -46329   -46340   -46372 
  -46415   -46454   -46477   -46484   -46482   -46481   -46494   -46517 
  -46532   -46531   -46517   -46497   -46473   -46456   -46453   -46457 
  -46456   -46448   -46434   -46421   -46412   -46398   -46370   -46339 
  -46326   -46338   -46379   -46453   -46556   -46667   -46758   -46798 
  -46774   -46699   -46592   -46475   -46371   -46298   -46253   -46230 
  -46227   -46243   -46272   -46314   -46366   -46424   -46490   -46562 
  -46619   -46643   -46635   -46605   -46570   -46552   -46562   -46591 
  -46620   -46637   -46629   -46585   -46505   -46394   -46266   -46153 
  -46087   -46082   -46136   -46241   -46376   -46512   -46628   -46704 
  -46729   -46709   -46657   -46594   -46544   -46517   -46506   -46501 
  -46498   -46485   -46456   -46421   -46398   -46397   -46418   -46457 
  -46502   -46542   -46572   -46585   -46571   -46532   -46475   -46406 
  -46332   -46264   -46208   -46171   -46170   -46207   -46272   -46354 
  -46443   -46527   -46595   -46642   -46668   -46679   -46684   -46679 
  -46658   -46625   -46588   -46547   -46499   -46447   -46386   -46317 
  -46246   -46178   -46119   -46083   -46078   -46105   -46168   -46268 
  -46383   -46492   -46588   -46662   -46704   -46709   -46682   -46629 
  -46567   -46513   -46477   -46456   -46448   -46456   -46477   -46511 
  -46547   -46566   -46564   -46552   -46535   -46515   -46496   -46475 
  -46442   -46392   -46334   -46284   -46259   -46265   -46289   -46322 
  -46361   -46402   -46440   -46473   -46501   -46514   -46514   -46511 
  -46515   -46526   -46543   -46558   -46563   -46557   -46538   -46506 
  -46471   -46437   -46406   -46379   -46358   -46340   -46318   -46297 
  -46285   -46291   -46322   -46374   -46431   -46483   -46523   -46539 
  -46532   -46518   -46503   -46488   -46486   -46507   -46544   -46582 
  -46605   -46596   -46548   -46474   -46388   -46302   -46232   -46195 
  -46187   -46201   -46228   -46258   -46282   -46305   -46332   -46362 
  -46393   -46426   -46460   -46500   -46545   -46584   -46604   -46608 
  -46605   -46599   -46589   -46573   -46545   -46503   -46457   -46412 
  -46373   -46344   -46326   -46316   -46317   -46323   -46323   -46310 
  -46291   -46271   -46260   -46270   -46298   -46325   -46333   -46322 
  -46306   -46307   -46331   -46367   -46406   -46453   -46510   -46570 
  -46622   -46651   -46651   -46625   -46581   -46527   -46473   -46432 
  -46401   -46372   -46351   -46343   -46343   -46342   -46344   -46347 
  -46355   -46377   -46411   -46445   -46471   -46489   -46499   -46506 
  -46512   -46510   -46495   -46475   -46457   -46451   -46460   -46475 
  -46483   -46487   -46501   -46532   -46563   -46574   -46557   -46514 
  -46462   -46423   -46406   -46405   -46415   -46437   -46470   -46508 
  -46535   -46536   -46518   -46490   -46455   -46422   -46404   -46410 
  -46436   -46480   -46534   -46586   -46623   -46638   -46628   -46600 
  -46572   -46554   -46546   -46543   -46534   -46512   -46488   -46477 
  -46491   -46523   -46558   -46578   -46571   -46544   -46514   -46495 
  -46495   -46512   -46533   -46557   -46584   -46608   -46617   -46600 
  -46557   -46503   -46468   -46475   -46519   -46584   -46647   -46691 
  -46704   -46685   -46642   -46591   -46552   -46534   -46531   -46534 
  -46533   -46519   -46489   -46451   -46414   -46384   -46366   -46359 
  -46356   -46361   -46378   -46406   -46437   -46477   -46537   -46616 
  -46702   -46773   -46808   -46801   -46760   -46695   -46626   -46575 
  -46547   -46532   -46512   -46476   -46422   -46362   -46313   -46286 
  -46290   -46337   -46422   -46519   -46598   -46643   -46649   -46629 
  -46599   -46572   -46560   -46564   -46573   -46568   -46546   -46516 
  -46486   -46465   -46457   -46468   -46495   -46533   -46569   -46591 
  -46595   -46587   -46577   -46581   -46596   -46599   -46572   -46518 
  -46456   -46406   -46382   -46386   -46407   -46441   -46487   -46534 
  -46567   -46577   -46561   -46526   -46493   -46480   -46487   -46504 
  -46519   -46522   -46517   -46518   -46525   -46529   -46527   -46513 
  -46480   -46439   -46420   -46436   -46476   -46522   -46555   -46564 
  -46547   -46508   -46447   -46372   -46305   -46273   -46303   -46399 
  -46535   -46661   -46743   -46758   -46708   -46614   -46512   -46432 
  -46393   -46399   -46431   -46460   -46475   -46478   -46481   -46490 
  -46506   -46524   -46535   -46533   -46513   -46476   -46437   -46410 
  -46404   -46420   -46464   -46522   -46567   -46576   -46549   -46496 
  -46437   -46387   -46362   -46372   -46416   -46470   -46510   -46528 
  -46524   -46505   -46481   -46461   -46441   -46424   -46418   -46423 
  -46434   -46442   -46435   -46417   -46406   -46416   -46443   -46480 
  -46518   -46546   -46553   -46543   -46514   -46475   -46439   -46412 
  -46383   -46342   -46295   -46257   -46243   -46255   -46277   -46310 
  -46368   -46444   -46514   -46556   -46569   -46556   -46526   -46495 
  -46477   -46472   -46468   -46453   -46422   -46389   -46371   -46367 
  -46369   -46370   -46367   -46359   -46354   -46362   -46388   -46432 
  -46483   -46521   -46541   -46552   -46561   -46565   -46556   -46530 
  -46488   -46446   -46411   -46379   -46348   -46325   -46308   -46293 
  -46284   -46283   -46289   -46310   -46354   -46411   -46461   -46491 
  -46502   -46504   -46515   -46536   -46553   -46555   -46551   -46548 
  -46548   -46551   -46545   -46521   -46487   -46463   -46453   -46444 
  -46422   -46388   -46355   -46334   -46323   -46312   -46298   -46284 
  -46284   -46310   -46362   -46424   -46479   -46521   -46559   -46601 
  -46647   -46681   -46684   -46656   -46612   -46569   -46540   -46531 
  -46541   -46552   -46544   -46506   -46443   -46383   -46350   -46345 
  -46356   -46374   -46391   -46406   -46421   -46433   -46438   -46440 
  -46450   -46476   -46512   -46543   -46549   -46528   -46508   -46507 
  -46518   -46525   -46526   -46523   -46512   -46495   -46474   -46451 
  -46432   -46416   -46400   -46390   -46391   -46393   -46391   -46379 
  -46355   -46332   -46331   -46360   -46406   -46456   -46494   -46503 
  -46477   -46439   -46414   -46417   -46449   -46492   -46521   -46523 
  -46501   -46469   -46442   -46427   -46414   -46391   -46360   -46332 
  -46318   -46316   -46314   -46299   -46275   -46263   -46276   -46310 
  -46356   -46392   -46399   -46380   -46358   -46356   -46383   -46424 
  -46463   -46491   -46509   -46509   -46487   -46450   -46410   -46377 
  -46362   -46366   -46387   -46416   -46433   -46409   -46340   -46265 
  -46234   -46258   -46303   -46329   -46321   -46295   -46284   -46300 
  -46332   -46372   -46410   -46435   -46450   -46467   -46487   -46494 
  -46474   -46425   -46362   -46318   -46317   -46347   -46380   -46390 
  -46365   -46316   -46271   -46253   -46266   -46302   -46336   -46353 
  -46362   -46380   -46408   -46439   -46452   -46426   -46356   -46278 
  -46240   -46263   -46333   -46415   -46479   -46513   -46529   -46541 
  -46552   -46559   -46543   -46481   -46376   -46265   -46189   -46176 
  -46223   -46291   -46344   -46375   -46401   -46436   -46478   -46510 
  -46514   -46492   -46471   -46476   -46509   -46550   -46577   -46571 
  -46532   -46479   -46430   -46391   -46361   -46332   -46303   -46283 
  -46283   -46303   -46336   -46376   -46410   -46437   -46469   -46508 
  -46541   -46551   -46527   -46480   -46438   -46432   -46465   -46520 
  -46581   -46626   -46632   -46595   -46529   -46454   -46390   -46355 
  -46350   -46371   -46409   -46449   -46479   -46500   -46513   -46523 
  -46534   -46553   -46578   -46598   -46605   -46608   -46618   -46639 
  -46659   -46654   -46620   -46566   -46497   -46416   -46333   -46265 
  -46236   -46259   -46320   -46401   -46496   -46595   -46674   -46708 
  -46696   -46648   -46579   -46511   -46459   -46430   -46431   -46473 
  -46551   -46644   -46725   -46773   -46777   -46746   -46702   -46659 
  -46619   -46581   -46542   -46503   -46477   -46472   -46483   -46497 
  -46496   -46475   -46447   -46425   -46411   -46410   -46434   -46493 
  -46583   -46687   -46789   -46868   -46911   -46908   -46860   -46776 
  -46682   -46601   -46546   -46519   -46507   -46495   -46479   -46467 
  -46470   -46496   -46544   -46606   -46666   -46707   -46722   -46711 
  -46684   -46652   -46616   -46585   -46571   -46565   -46555   -46546 
  -46545   -46550   -46555   -46554   -46539   -46515   -46497   -46492 
  -46497   -46510   -46528   -46549   -46573   -46604   -46635   -46655 
  -46653   -46621   -46576   -46547   -46550   -46575   -46597   -46602 
  -46588   -46560   -46526   -46491   -46456   -46431   -46422   -46426 
  -46441   -46461   -46476   -46491   -46508   -46525   -46534   -46526 
  -46503   -46470   -46437   -46409   -46386   -46362   -46345   -46342 
  -46360   -46402   -46459   -46505   -46526   -46530   -46532   -46544 
  -46566   -46580   -46571   -46531   -46474   -46418   -46369   -46324 
  -46279   -46231   -46199   -46198   -46227   -46280   -46348   -46410 
  -46453   -46476   -46485   -46487   -46490   -46491   -46482   -46454 
  -46413   -46364   -46312   -46265   -46226   -46199   -46193   -46201 
  -46211   -46219   -46226   -46239   -46264   -46298   -46335   -46376 
  -46418   -46449   -46453   -46424   -46372   -46308   -46240   -46173 
  -46112   -46061   -46032   -46030   -46059   -46120   -46203   -46291 
  -46371   -46429   -46449   -46423   -46352   -46247   -46126   -46014 
  -45937   -45913   -45943   -46009   -46076   -46126   -46168   -46206 
  -46241   -46272   -46293   -46293   -46270   -46226   -46171   -46125 
  -46102   -46107   -46132   -46170   -46217   -46252   -46260   -46238 
  -46191   -46128   -46065   -46013   -45977   -45963   -45969   -45993 
  -46033   -46080   -46128   -46171   -46205   -46226   -46232   -46217 
  -46178   -46118   -46057   -46022   -46019   -46038   -46074   -46117 
  -46160   -46204   -46235   -46250   -46258   -46264   -46263   -46239 
  -46187   -46112   -46030   -45962   -45924   -45913   -45927   -45977 
  -46055   -46140   -46213   -46259   -46274   -46277   -46273   -46262 
  -46242   -46202   -46139   -46071   -46024   -46028   -46086   -46181 
  -46285   -46361   -46387   -46366   -46304   -46221   -46156   -46128 
  -46127   -46136   -46135   -46121   -46110   -46124   -46172   -46245 
  -46317   -46372   -46399   -46405   -46401   -46372   -46295   -46177 
  -46047   -45951   -45940   -46013   -46132   -46252   -46333   -46362 
  -46355   -46330   -46301   -46287   -46300   -46331   -46360   -46359 
  -46314   -46215   -46074   -45933   -45827   -45794   -45858   -46000 
  -46174   -46332   -46434   -46471   -46469   -46463   -46471   -46495 
  -46523   -46538   -46519   -46451   -46341   -46210   -46100   -46050 
  -46051   -46080   -46126   -46178   -46225   -46269   -46312   -46358 
  -46402   -46417   -46374   -46266   -46114   -45973   -45902   -45954 
  -46137   -46402   -46664   -46835   -46845   -46695   -46453   -46211 
  -46054   -46025   -46103   -46227   -46350   -46446   -46506   -46524 
  -46495   -46429   -46342   -46249   -46164   -46086   -46015   -45971 
  -45971   -46030   -46146   -46286   -46419   -46529   -46602   -46636 
  -46637   -46605   -46533   -46419   -46287   -46173   -46104   -46090 
  -46128   -46196   -46279   -46366   -46431   -46456   -46435   -46371 
  -46293   -46239   -46230   -46267   -46329   -46380   -46398   -46379 
  -46340   -46301   -46275   -46277   -46309   -46350   -46382   -46400 
  -46405   -46408   -46415   -46412   -46393   -46360   -46319   -46288 
  -46284   -46302   -46330   -46358   -46387   -46410   -46419   -46413 
  -46395   -46367   -46341   -46328   -46330   -46356   -46406   -46463 
  -46509   -46529   -46523   -46505   -46488   -46477   -46468   -46455 
  -46443   -46433   -46421   -46417   -46428   -46441   -46448   -46452 
  -46452   -46452   -46450   -46434   -46402   -46362   -46327   -46305 
  -46289   -46280   -46294   -46341   -46417   -46495   -46548   -46579 
  -46601   -46626   -46659   -46686   -46687   -46661   -46620   -46578 
  -46544   -46519   -46499   -46480   -46459   -46439   -46426   -46433 
  -46467   -46512   -46544   -46560   -46566   -46570   -46575   -46577 
  -46571   -46560   -46549   -46549   -46566   -46598   -46630   -46642 
  -46627   -46596   -46567   -46561   -46591   -46650   -46716   -46775 
  -46820   -46842   -46845   -46834   -46813   -46788   -46762   -46735 
  -46710   -46694   -46690   -46684   -46668   -46642   -46603   -46558 
  -46526   -46516   -46524   -46549   -46585   -46627   -46678   -46741 
  -46808   -46863   -46888   -46873   -46822   -46767   -46739   -46741 
  -46763   -46796   -46828   -46851   -46869   -46885   -46894   -46885 
  -46854   -46810   -46776   -46764   -46769   -46781   -46793   -46795 
  -46785   -46775   -46773   -46777   -46785   -46801   -46817   -46825 
  -46830   -46840   -46860   -46887   -46913   -46932   -46945   -46955 
  -46961   -46955   -46935   -46905   -46876   -46862   -46860   -46862 
  -46870   -46890   -46917   -46941   -46961   -46978   -46991   -47001 
  -47000   -46975   -46929   -46881   -46843   -46818   -46807   -46805 
  -46812   -46831   -46865   -46907   -46954   -46997   -47027   -47048 
  -47063   -47070   -47066   -47053   -47034   -47009   -46985   -46969 
  -46955   -46941   -46927   -46911   -46892   -46879   -46879   -46891 
  -46912   -46932   -46941   -46939   -46938   -46949   -46969   -46997 
  -47030   -47058   -47079   -47089   -47078   -47043   -46997   -46955 
  -46926   -46913   -46909   -46912   -46920   -46933   -46939   -46931 
  -46913   -46884   -46846   -46815   -46806   -46819   -46846   -46882 
  -46915   -46941   -46957   -46964   -46967   -46971   -46969   -46953 
  -46919   -46871   -46820   -46784   -46774   -46781   -46785   -46784 
  -46779   -46774   -46773   -46781   -46792   -46803   -46809   -46803 
  -46787   -46770   -46753   -46732   -46708   -46685   -46664   -46650 
  -46646   -46643   -46638   -46637   -46640   -46644   -46653   -46670 
  -46692   -46717   -46738   -46743   -46728   -46702   -46673   -46645 
  -46619   -46592   -46558   -46528   -46514   -46513   -46515   -46520 
  -46528   -46533   -46534   -46535   -46537   -46539   -46546   -46555 
  -46563   -46571   -46574   -46564   -46542   -46520   -46505   -46505 
  -46519   -46532   -46532   -46522   -46514   -46512   -46520   -46533 
  -46543   -46551   -46559   -46561   -46549   -46525   -46498   -46467 
  -46433   -46402   -46377   -46361   -46359   -46373   -46404   -46447 
  -46490   -46517   -46528   -46527   -46519   -46506   -46489   -46467 
  -46449   -46440   -46439   -46441   -46449   -46462   -46470   -46470 
  -46464   -46446   -46411   -46370   -46337   -46318   -46317   -46333 
  -46571   -46579   -46576   -46562   -46544   -46525   -46508   -46494 
  -46478   -46454   -46430   -46409   -46387   -46360   -46333   -46307 
  -46287   -46283   -46297   -46327   -46370   -46415   -46453   -46480 
  -46500   -46517   -46535   -46550   -46554   -46549   -46542   -46535 
  -46525   -46517   -46517   -46519   -46516   -46504   -46483   -46451 
  -46411   -46370   -46333   -46304   -46286   -46279   -46284   -46302 
  -46321   -46333   -46344   -46352   -46354   -46353   -46361   -46377 
  -46399   -46427   -46457   -46480   -46499   -46513   -46524   -46532 
  -46539   -46544   -46551   -46561   -46562   -46548   -46530   -46518 
  -46504   -46491   -46488   -46493   -46494   -46481   -46452   -46415 
  -46386   -46371   -46367   -46371   -46381   -46393   -46407   -46427 
  -46454   -46490   -46539   -46596   -46647   -46679   -46694   -46695 
  -46691   -46685   -46671   -46650   -46626   -46601   -46568   -46531 
  -46490   -46444   -46394   -46349   -46311   -46278   -46257   -46257 
  -46278   -46317   -46366   -46415   -46463   -46518   -46582   -46647 
  -46704   -46743   -46763   -46771   -46774   -46767   -46752   -46736 
  -46719   -46687   -46636   -46566   -46482   -46398   -46326   -46270 
  -46226   -46194   -46174   -46171   -46195   -46245   -46307   -46371 
  -46435   -46498   -46563   -46636   -46712   -46777   -46830   -46869 
  -46884   -46876   -46855   -46827   -46792   -46751   -46702   -46643 
  -46572   -46494   -46417   -46350   -46300   -46266   -46244   -46238 
  -46249   -46273   -46308   -46348   -46389   -46432   -46482   -46532 
  -46580   -46624   -46664   -46696   -46716   -46722   -46723   -46722 
