Origin Time       1998/08/20 15:42:00
Lat.              28.904
Long.             139.880
Depth. (km)       457
Mag.              7.1
Station Code      OKYH10
Station Lat.      35.2826
Station Long.     133.9263
Station Height(m) 495
Record Time       1998/08/20 15:44:42
Sampling Freq(Hz) 200Hz
Duration Time(s)  60
Dir.              6
Scale Factor      2000(gal)/8388608
Max. Acc. (gal)   0.208
Last Correction   1998/08/20 15:00:00
Memo.             
[...]
   28776    28843    28900    28939    28965    28983    28992    28986 
   28961    28914    28849    28779    28717    28672    28644    28627 
   28623    28637    28672    28728    28804    28895    28987    29059 
   29089    29071    29022    28957    28890    28834    28799    28783 
   28778    28778    28775    28768    28761    28764    28777    28794 
   28806    28810    28810    28812    28821    28840    28871    28911 
   28953    28991    29021    29033    29013    28952    28855    28735 
   28608    28499    28431    28419    28468    28570    28704    28844 
   28970    29067    29125    29143    29127    29080    29006    28912 
   28809    28709    28621    28556    28519    28516    28549    28608 
   28682    28756    28821    28876    28924    28960    28980    28982 
   28971    28954    28939    28926    28904    28863    28812    28757 
   28700    28648    28617    28618    28648    28692    28736    28774 
   28811    28856    28917    28988    29050    29084    29081    29047 
   28992    28919    28834    28750    28681    28639    28623    28622 
   28628    28644    28675    28725    28789    28856    28912    28950 
   28972    28982    28982    28972    28948    28913    28867    28814 
   28758    28710    28677    28657    28648    28644    28644    28652 
   28672    28708    28760    28826    28904    28992    29078    29136 
   29147    29107    29027    28921    28807    28701    28619    28567 
   28550    28564    28599    28643    28691    28748    28813    28878 
   28939    28990    29025    29032    29008    28959    28899    28842 
   28796    28756    28715    28672    28638    28624    28635    28665 
   28704    28749    28797    28839    28866    28878    28882    28883 
   28881    28874    28860    28837    28805    28773    28756    28758 
   28781    28812    28836    28837    28811    28767    28719    28682 
   28666    28671    28695    28734    28790    28862    28938    29003 
   29045    29058    29036    28976    28886    28777    28672    28593 
   28555    28556    28586    28639    28709    28789    28871    28948 
   29012    29053    29066    29043    28985    28900    28805    28720 
   28662    28636    28641    28682    28746    28810    28857    28884 
   28893    28888    28878    28867    28857    28850    28846    28846 
   28853    28868    28885    28891    28883    28864    28844    28827 
   28809    28791    28775    28767    28770    28783    28805    28839 
   28879    28911    28926    28930    28931    28933    28932    28926 
   28913    28890    28853    28808    28766    28742    28744    28776 
   28835    28909    28973    29006    29004    28974    28926    28875 
   28831    28802    28789    28793    28826    28893    28982    29067 
   29117    29107    29034    28919    28792    28680    28605    28574 
   28580    28623    28703    28809    28918    29010    29070    29095 
   29085    29050    28999    28936    28866    28804    28758    28725 
   28703    28688    28691    28721    28776    28842    28904    28954 
   28990    28999    28969    28914    28863    28840    28842    28858 
   28879    28906    28935    28950    28934    28884    28813    28746 
   28706    28705    28740    28791    28846    28897    28945    28997 
   29058    29117    29156    29156    29106    29004    28863    28716 
   28600    28544    28555    28622    28726    28847    28964    29066 
   29142    29180    29176    29135    29068    28983    28894    28811 
   28742    28688    28658    28652    28672    28716    28782    28860 
   28941    29015    29065    29076    29049    29002    28956    28920 
   28889    28866    28854    28852    28854    28854    28847    28829 
   28806    28784    28774    28779    28805    28848    28897    28937 
   28967    28992    29014    29028    29028    29002    28940    28847 
   28747    28667    28626    28627    28661    28722    28801    28887 
   28964    29020    29046    29042    29015    28979    28947    28917 
   28884    28846    28809    28780    28759    28746    28743    28754 
   28775    28804    28845    28897    28946    28978    28986    28977 
   28959    28939    28920    28901    28879    28854    28829    28810 
   28800    28803    28816    28830    28839    28838    28825    28804 
   28780    28760    28753    28768    28804    28848    28890    28918 
   28920    28893    28846    28803    28777    28762    28751    28746 
   28746    28746    28743    28741    28743    28752    28770    28792 
   28813    28834    28851    28859    28858    28854    28849    28843 
   28837    28828    28814    28797    28776    28754    28732    28709 
   28688    28680    28690    28707    28722    28735    28753    28780 
   28812    28845    28877    28904    28924    28934    28929    28904 
   28858    28799    28740    28693    28665    28658    28672    28701 
   28737    28771    28801    28824    28844    28867    28891    28909 
   28915    28914    28910    28899    28873    28836    28795    28751 
   28704    28654    28614    28595    28606    28646    28701    28757 
   28807    28854    28897    28931    28946    28937    28915    28885 
   28846    28797    28740    28684    28638    28609    28595    28600 
   28627    28668    28719    28778    28834    28877    28903    28915 
   28914    28898    28870    28841    28816    28790    28763    28743 
   28739    28745    28749    28742    28728    28716    28712    28721 
   28741    28764    28785    28803    28822    28843    28864    28876 
   28867    28833    28773    28700    28629    28579    28559    28570 
   28612    28680    28760    28832    28880    28898    28891    28862 
   28819    28766    28714    28680    28677    28707    28758    28811 
   28852    28869    28859    28829    28790    28746    28698    28658 
   28635    28637    28666    28719    28789    28854    28894    28906 
   28893    28863    28823    28782    28744    28716    28697    28690 
   28698    28717    28737    28755    28771    28781    28784    28783 
   28782    28787    28801    28815    28821    28815    28795    28764 
   28736    28724    28734    28761    28798    28832    28851    28849 
   28823    28776    28723    28686    28675    28693    28732    28786 
   28842    28889    28918    28924    28910    28880    28843    28810 
   28786    28774    28772    28781    28796    28811    28824    28840 
   28860    28886    28911    28919    28899    28859    28819    28800 
   28815    28860    28913    28947    28950    28928    28894    28869 
   28871    28899    28945    28989    29012    29007    28977    28935 
   28884    28825    28763    28719    28712    28738    28781    28834 
   28895    28961    29024    29077    29111    29113    29072    28996 
   28904    28810    28725    28666    28647    28671    28725    28787 
   28840    28872    28883    28887    28909    28963    29037    29097 
   29113    29072    28990    28895    28815    28767    28754    28773 
   28811    28849    28871    28872    28862    28852    28850    28857 
   28875    28906    28947    28992    29032    29060    29069    29060 
   29032    28987    28924    28847    28766    28697    28661    28674 
   28734    28824    28922    29012    29081    29114    29110    29078 
   29033    28985    28947    28926    28920    28920    28920    28917 
   28911    28901    28889    28881    28885    28899    28917    28931 
   28937    28935    28929    28924    28924    28934    28955    28986 
   29020    29046    29054    29044    29021    28994    28965    28939 
   28914    28889    28862    28838    28824    28832    28862    28910 
   28962    29000    29015    29016    29010    28997    28975    28944 
   28911    28890    28889    28906    28928    28943    28940    28915 
   28877    28840    28813    28801    28802    28809    28822    28854 
   28908    28969    29017    29036    29023    28988    28943    28899 
   28859    28827    28800    28783    28781    28791    28803    28809 
   28806    28799    28798    28813    28844    28888    28933    28971 
   28998    29014    29019    29008    28980    28941    28882    28802 
   28716    28647    28622    28653    28727    28815    28891    28943 
   28974    28988    28984    28965    28937    28916    28910    28913 
   28918    28914    28887    28834    28776    28740    28741    28777 
   28824    28852    28851    28836    28829    28839    28867    28902 
   28933    28949    28949    28936    28916    28888    28854    28821 
   28800    28797    28807    28812    28793    28750    28705    28685 
   28706    28766    28848    28924    28975    29001    29008    28992 
   28953    28895    28831    28775    28741    28736    28752    28775 
   28792    28800    28799    28797    28800    28812    28834    28859 
   28876    28888    28897    28911    28931    28951    28953    28924 
   28871    28808    28751    28711    28706    28742    28803    28865 
   28914    28947    28965    28972    28965    28947    28924    28898 
   28875    28857    28841    28822    28804    28797    28802    28817 
   28842    28867    28884    28893    28902    28922    28952    28979 
   28991    28984    28957    28918    28880    28857    28849    28843 
   28832    28825    28837    28874    28920    28946    28938    28912 
   28893    28893    28904    28905    28882    28849    28840    28878 
   28956    29043    29107    29133    29125    29093    29043    28981 
   28910    28837    28766    28707    28678    28701    28783    28902 
   29025    29129    29206    29265    29309    29321    29272    29148 
   28960    28746    28562    28466    28491    28615    28774    28903 
   28983    29031    29077    29125    29146    29113    29028    28930 
   28865    28852    28868    28881    28872    28849    28828    28823 
   28829    28842    28863    28891    28915    28935    28968    29028 
   29098    29135    29107    29020    28919    28852    28846    28894 
   28967    29027    29056    29056    29044    29029    29007    28969 
   28920    28881    28877    28914    28975    29031    29066    29079 
   29080    29075    29062    29053    29059    29083    29110    29123 
   29114    29085    29048    29002    28942    28868    28789    28725 
   28702    28730    28805    28906    29015    29127    29231    29307 
   29347    29354    29334    29280    29175    29017    28833    28667 
   28553    28504    28512    28573    28694    28866    29056    29227 
   29353    29420    29428    29378    29285    29167    29046    28936 
   28847    28783    28744    28729    28742    28775    28809    28829 
   28844    28883    28974    29110    29259    29386    29467    29500 
   29481    29392    29229    29010    28781    28591    28470    28426 
   28457    28550    28681    28826    28970    29102    29215    29311 
   29401    29483    29535    29529    29439    29271    29070    28888 
   28748    28646    28576    28547    28574    28653    28769    28895 
   29012    29111    29187    29240    29279    29310    29333    29342 
   29332    29292    29217    29107    28975    28840    28721    28627 
   28565    28552    28607    28730    28899    29077    29227    29321 
   29347    29313    29249    29187    29138    29100    29065    29028 
   28989    28953    28924    28906    28889    28874    28872    28886 
   28915    28957    29008    29064    29121    29168    29197    29207 
   29203    29192    29177    29161    29151    29143    29126    29084 
   29010    28916    28823    28753    28725    28745    28800    28875 
   28962    29058    29158    29254    29336    29390    29398    29355 
   29271    29167    29065    28976    28899    28833    28784    28759 
   28755    28768    28799    28852    28920    28990    29055    29123 
   29205    29302    29393    29448    29437    29350    29205    29039 
   28891    28784    28715    28672    28648    28645    28673    28733 
   28825    28945    29082    29211    29309    29364    29369    29324 
   29230    29099    28957    28833    28752    28727    28748    28791 
   28832    28859    28870    28875    28881    28891    28902    28911 
   28918    28928    28950    28991    29047    29104    29143    29144 
   29091    28985    28848    28715    28611    28536    28487    28471 
   28496    28564    28666    28785    28907    29013    29084    29111 
   29093    29037    28959    28868    28773    28683    28599    28526 
   28473    28452    28471    28521    28577    28625    28662    28695 
   28737    28783    28822    28847    28849    28826    28789    28751 
   28715    28679    28641    28604    28572    28545    28526    28513 
   28498    28487    28488    28504    28535    28571    28609    28653 
   28703    28752    28793    28815    28815    28788    28723    28623 
   28503    28390    28317    28297    28319    28362    28408    28445 
   28482    28526    28585    28664    28746    28803    28818    28775 
   28677    28552    28441    28382    28387    28425    28454    28445 
   28396    28341    28316    28338    28394    28451    28490    28527 
   28575    28633    28683    28685    28629    28544    28470    28436 
   28439    28453    28451    28416    28351    28283    28234    28222 
   28259    28329    28400    28439    28426    28384    28363    28396 
   28495    28629    28743    28796    28772    28678    28540    28383 
   28230    28116    28063    28076    28147    28239    28316    28363 
   28382    28404    28466    28578    28720    28846    28914    28908 
   28822    28666    28470    28276    28120    28023    27977    27971 
   28005    28081    28209    28385    28575    28731    28814    28802 
   28711    28580    28463    28412    28435    28494    28543    28539 
   28464    28338    28197    28084    28030    28043    28115    28233 
   28372    28518    28652    28745    28787    28778    28724    28645 
   28555    28466    28397    28350    28319    28296    28273    28257 
   28258    28280    28323    28376    28419    28456    28502    28554 
   28605    28636    28641    28635    28620    28592    28552    28497 
   28436    28373    28313    28271    28260    28281    28340    28432 
   28526    28598    28633    28625    28590    28545    28507    28484 
   28474    28478    28498    28526    28561    28603    28631    28632 
   28602    28544    28486    28450    28439    28445    28456    28471 
   28501    28545    28598    28653    28688    28698    28689    28669 
   28649    28636    28629    28626    28618    28604    28588    28575 
   28563    28554    28545    28537    28537    28548    28576    28619 
   28670    28727    28779    28811    28820    28811    28793    28769 
   28736    28684    28617    28545    28484    28454    28462    28508 
   28574    28638    28696    28750    28801    28856    28910    28945 
   28944    28902    28834    28762    28694    28637    28600    28583 
   28580    28588    28606    28640    28687    28732    28768    28791 
   28806    28824    28839    28843    28833    28817    28808    28812 
   28818    28815    28793    28751    28689    28612    28546    28528 
   28569    28656    28764    28864    28938    28982    28995    28978 
   28941    28892    28846    28812    28796    28792    28790    28782 
   28773    28766    28767    28775    28785    28801    28824    28842 
   28858    28879    28915    28965    29020    29062    29079    29064 
   29016    28947    28878    28829    28807    28806    28820    28846 
   28879    28916    28949    28975    29003    29041    29089    29133 
   29160    29164    29145    29103    29048    28991    28943    28914 
   28903    28906    28923    28953    28995    29044    29091    29123 
   29139    29145    29150    29155    29159    29159    29151    29128 
   29096    29064    29040    29027    29020    29015    29020    29040 
   29070    29100    29122    29137    29145    29148    29155    29171 
   29191    29202    29199    29188    29175    29155    29126    29098 
   29085    29086    29094    29103    29118    29139    29164    29186 
   29201    29213    29226    29237    29243    29240    29232    29223 
   29221    29222    29216    29199    29171    29145    29126    29117 
   29116    29128    29147    29171    29201    29240    29280    29308 
   29319    29316    29304    29288    29271    29250    29227    29203 
   29178    29156    29143    29140    29145    29157    29183    29219 
   29254    29286    29313    29324    29315    29291    29261    29237 
   29224    29221    29223    29217    29199    29179    29174    29190 
   29218    29241    29249    29240    29224    29216    29222    29238 
   29257    29269    29271    29266    29258    29245    29220    29190 
   29164    29147    29144    29155    29170    29183    29192    29200 
   29212    29230    29250    29272    29291    29293    29275    29248 
   29220    29194    29173    29165    29170    29183    29200    29214 
   29219    29219    29217    29214    29204    29183    29155    29130 
   29117    29117    29125    29138    29157    29175    29183    29175 
   29149    29111    29072    29045    29037    29046    29057    29061 
   29060    29059    29056    29048    29041    29039    29042    29050 
   29058    29061    29055    29044    29031    29022    29016    29010 
   29002    28990    28973    28951    28931    28923    28928    28936 
   28944    28950    28953    28952    28947    28939    28933    28928 
   28921    28907    28885    28862    28846    28838    28836    28835 
   28804    28792    28792    28805    28824    28843    28854    28848 
   28831    28816    28812    28815    28816    28810    28797    28777 
   28761    28760    28774    28796    28818    28837    28845    28838 
   28816    28786    28759    28742    28737    28747    28765    28785 
   28801    28811    28819    28824    28826    28828    28826    28817 
   28794    28758    28717    28685    28670    28671    28678    28686 
   28693    28706    28725    28744    28755    28756    28750    28743 
   28735    28728    28726    28733    28743    28743    28733    28717 
   28698    28677    28660    28652    28654    28659    28663    28663 
   28660    28656    28656    28661    28671    28685    28698    28705 
   28699    28682    28668    28669    28680    28695    28706    28711 
   28715    28719    28723    28722    28717    28713    28709    28699 
   28690    28687    28688    28682    28667    28650    28641    28642 
   28642    28630    28610    28592    28583    28587    28603    28628 
   28658    28683    28700    28708    28710    28706    28697    28683 
   28668    28651    28638    28633    28640    28652    28663    28668 
   28671    28676    28685    28691    28688    28678    28660    28637 
   28618    28611    28615    28620    28619    28614    28611    28609 
   28603    28595    28590    28591    28599    28610    28620    28627 
   28635    28643    28651    28658    28664    28668    28665    28653 
   28639    28631    28632    28636    28634    28631    28632    28633 
   28627    28615    28603    28595    28593    28601    28619    28640 
   28661    28681    28698    28710    28717    28717    28714    28711 
   28706    28698    28684    28664    28644    28632    28624    28620 
   28616    28617    28626    28640    28657    28672    28686    28697 
   28702    28700    28693    28687    28683    28683    28682    28677 
