Origin Time       1998/08/20 15:42:00
Lat.              28.904
Long.             139.880
Depth. (km)       457
Mag.              7.1
Station Code      OKYH10
Station Lat.      35.2826
Station Long.     133.9263
Station Height(m) 295
Record Time       1998/08/20 15:44:42
Sampling Freq(Hz) 200Hz
Duration Time(s)  60
Dir.              3
Scale Factor      2000(gal)/8388608
Max. Acc. (gal)   0.097
Last Correction   1998/08/20 15:00:00
Memo.             
[...]
  -17844   -17841   -17837   -17832   -17832   -17840   -17854   -17865 
  -17865   -17858   -17852   -17850   -17849   -17846   -17839   -17835 
  -17835   -17840   -17848   -17856   -17861   -17857   -17848   -17842 
  -17843   -17849   -17857   -17862   -17866   -17869   -17871   -17868 
  -17860   -17850   -17849   -17858   -17870   -17879   -17886   -17890 
  -17890   -17885   -17881   -17879   -17885   -17894   -17897   -17893 
  -17886   -17882   -17879   -17874   -17867   -17863   -17867   -17874 
  -17880   -17882   -17877   -17870   -17867   -17873   -17880   -17881 
  -17874   -17863   -17854   -17853   -17858   -17863   -17866   -17865 
  -17859   -17851   -17845   -17845   -17847   -17848   -17849   -17851 
  -17850   -17850   -17852   -17850   -17847   -17849   -17857   -17868 
  -17879   -17882   -17877   -17871   -17867   -17866   -17872   -17881 
  -17888   -17888   -17888   -17890   -17889   -17884   -17876   -17867 
  -17861   -17863   -17869   -17872   -17872   -17873   -17875   -17874 
  -17867   -17858   -17854   -17852   -17852   -17855   -17860   -17866 
  -17872   -17875   -17877   -17878   -17877   -17873   -17869   -17868 
  -17867   -17869   -17875   -17881   -17884   -17882   -17878   -17879 
  -17885   -17887   -17881   -17873   -17871   -17868   -17861   -17850 
  -17845   -17852   -17864   -17873   -17872   -17866   -17860   -17861 
  -17872   -17884   -17890   -17889   -17886   -17888   -17888   -17886 
  -17887   -17891   -17895   -17895   -17891   -17886   -17879   -17871 
  -17869   -17877   -17886   -17887   -17885   -17883   -17883   -17884 
  -17890   -17899   -17903   -17895   -17879   -17865   -17858   -17856 
  -17858   -17862   -17870   -17876   -17876   -17874   -17873   -17873 
  -17871   -17869   -17870   -17874   -17877   -17877   -17875   -17873 
  -17877   -17888   -17898   -17897   -17886   -17876   -17874   -17881 
  -17888   -17886   -17874   -17857   -17846   -17847   -17859   -17871 
  -17878   -17882   -17885   -17883   -17875   -17863   -17857   -17858 
  -17860   -17858   -17854   -17853   -17856   -17860   -17859   -17853 
  -17847   -17843   -17844   -17848   -17852   -17858   -17866   -17873 
  -17873   -17862   -17847   -17836   -17832   -17832   -17830   -17825 
  -17821   -17823   -17832   -17839   -17836   -17827   -17824   -17832 
  -17842   -17844   -17832   -17815   -17802   -17800   -17807   -17817 
  -17822   -17819   -17814   -17812   -17815   -17821   -17823   -17819 
  -17813   -17811   -17815   -17820   -17821   -17815   -17807   -17802 
  -17805   -17815   -17825   -17830   -17828   -17820   -17812   -17810 
  -17815   -17822   -17826   -17826   -17824   -17821   -17820   -17826 
  -17838   -17844   -17839   -17827   -17820   -17822   -17829   -17833 
  -17832   -17831   -17833   -17837   -17838   -17838   -17837   -17833 
  -17827   -17822   -17820   -17825   -17832   -17836   -17834   -17832 
  -17829   -17823   -17814   -17808   -17803   -17801   -17800   -17800 
  -17796   -17789   -17783   -17785   -17794   -17805   -17813   -17813 
  -17808   -17803   -17803   -17803   -17800   -17796   -17795   -17796 
  -17796   -17795   -17795   -17796   -17797   -17795   -17792   -17794 
  -17802   -17807   -17803   -17793   -17786   -17782   -17780   -17781 
  -17789   -17798   -17803   -17801   -17798   -17799   -17799   -17796 
  -17791   -17791   -17797   -17810   -17821   -17824   -17822   -17817 
  -17810   -17805   -17806   -17809   -17811   -17814   -17817   -17819 
  -17816   -17814   -17816   -17825   -17839   -17854   -17862   -17859 
  -17848   -17835   -17827   -17828   -17832   -17835   -17831   -17823 
  -17815   -17811   -17813   -17817   -17819   -17818   -17817   -17817 
  -17818   -17819   -17825   -17835   -17846   -17853   -17850   -17842 
  -17833   -17826   -17826   -17834   -17846   -17852   -17848   -17838 
  -17832   -17835   -17842   -17847   -17843   -17834   -17827   -17827 
  -17831   -17834   -17835   -17835   -17839   -17842   -17839   -17831 
  -17826   -17833   -17848   -17862   -17865   -17862   -17863   -17866 
  -17865   -17860   -17854   -17855   -17862   -17869   -17868   -17864 
  -17861   -17864   -17873   -17881   -17884   -17881   -17877   -17873 
  -17871   -17871   -17873   -17877   -17883   -17887   -17888   -17891 
  -17898   -17907   -17910   -17910   -17907   -17903   -17896   -17887 
  -17878   -17877   -17883   -17890   -17894   -17897   -17898   -17901 
  -17905   -17904   -17896   -17888   -17885   -17885   -17889   -17893 
  -17894   -17887   -17883   -17890   -17900   -17902   -17898   -17893 
  -17894   -17898   -17898   -17891   -17879   -17871   -17869   -17870 
  -17875   -17882   -17885   -17882   -17878   -17878   -17882   -17888 
  -17895   -17903   -17905   -17901   -17895   -17892   -17888   -17884 
  -17883   -17884   -17887   -17891   -17897   -17901   -17901   -17896 
  -17892   -17895   -17904   -17916   -17922   -17922   -17917   -17912 
  -17908   -17903   -17897   -17895   -17899   -17906   -17909   -17902 
  -17890   -17884   -17889   -17900   -17907   -17905   -17900   -17900 
  -17903   -17903   -17899   -17894   -17892   -17892   -17894   -17899 
  -17904   -17907   -17903   -17897   -17893   -17898   -17910   -17918 
  -17919   -17916   -17912   -17911   -17915   -17918   -17917   -17912 
  -17909   -17910   -17910   -17908   -17904   -17907   -17916   -17923 
  -17924   -17920   -17913   -17907   -17907   -17910   -17915   -17918 
  -17918   -17915   -17914   -17914   -17912   -17908   -17906   -17909 
  -17914   -17918   -17921   -17919   -17915   -17915   -17915   -17912 
  -17909   -17908   -17911   -17917   -17921   -17922   -17924   -17927 
  -17930   -17927   -17919   -17913   -17912   -17912   -17908   -17903 
  -17902   -17908   -17917   -17922   -17920   -17913   -17906   -17902 
  -17906   -17914   -17919   -17917   -17910   -17905   -17907   -17909 
  -17908   -17908   -17912   -17916   -17911   -17902   -17902   -17911 
  -17917   -17914   -17910   -17907   -17903   -17897   -17891   -17882 
  -17873   -17871   -17876   -17879   -17870   -17856   -17849   -17851 
  -17856   -17859   -17856   -17847   -17838   -17832   -17831   -17829 
  -17823   -17822   -17829   -17841   -17847   -17844   -17836   -17824 
  -17817   -17818   -17822   -17821   -17813   -17801   -17794   -17794 
  -17797   -17798   -17797   -17797   -17799   -17803   -17811   -17816 
  -17814   -17806   -17799   -17802   -17813   -17826   -17831   -17824 
  -17809   -17797   -17795   -17801   -17807   -17805   -17796   -17785 
  -17781   -17786   -17796   -17805   -17807   -17805   -17806   -17810 
  -17812   -17807   -17802   -17803   -17807   -17807   -17805   -17805 
  -17812   -17820   -17821   -17814   -17806   -17801   -17795   -17788 
  -17781   -17777   -17777   -17778   -17777   -17772   -17769   -17772 
  -17781   -17786   -17781   -17769   -17760   -17759   -17769   -17780 
  -17783   -17782   -17781   -17780   -17778   -17777   -17779   -17783 
  -17784   -17778   -17766   -17757   -17758   -17763   -17769   -17773 
  -17771   -17765   -17761   -17762   -17760   -17755   -17751   -17753 
  -17761   -17765   -17762   -17755   -17751   -17751   -17751   -17750 
  -17747   -17741   -17738   -17742   -17749   -17752   -17749   -17742 
  -17737   -17734   -17734   -17735   -17737   -17741   -17748   -17753 
  -17753   -17753   -17756   -17758   -17756   -17749   -17742   -17742 
  -17748   -17756   -17760   -17756   -17747   -17743   -17748   -17758 
  -17768   -17779   -17789   -17790   -17783   -17774   -17771   -17774 
  -17778   -17780   -17782   -17785   -17790   -17797   -17803   -17805 
  -17805   -17807   -17811   -17813   -17812   -17811   -17814   -17817 
  -17814   -17808   -17802   -17802   -17810   -17821   -17829   -17828 
  -17821   -17814   -17809   -17804   -17796   -17791   -17795   -17809 
  -17826   -17835   -17827   -17813   -17805   -17806   -17811   -17810 
  -17804   -17800   -17806   -17816   -17827   -17837   -17843   -17846 
  -17848   -17848   -17843   -17831   -17819   -17818   -17830   -17845 
  -17853   -17854   -17850   -17848   -17850   -17852   -17853   -17858 
  -17863   -17862   -17858   -17856   -17855   -17852   -17846   -17842 
  -17846   -17855   -17862   -17860   -17853   -17848   -17850   -17856 
  -17857   -17853   -17845   -17839   -17842   -17854   -17866   -17865 
  -17852   -17840   -17838   -17842   -17846   -17844   -17843   -17845 
  -17846   -17844   -17842   -17844   -17849   -17851   -17850   -17847 
  -17846   -17846   -17843   -17836   -17833   -17836   -17840   -17839 
  -17831   -17821   -17814   -17811   -17810   -17814   -17822   -17832 
  -17837   -17833   -17828   -17828   -17832   -17832   -17825   -17814 
  -17802   -17798   -17804   -17813   -17821   -17822   -17814   -17802 
  -17793   -17796   -17807   -17811   -17800   -17784   -17778   -17784 
  -17791   -17792   -17790   -17792   -17799   -17806   -17807   -17806 
  -17805   -17805   -17804   -17804   -17803   -17799   -17794   -17791 
  -17787   -17782   -17778   -17779   -17780   -17778   -17768   -17753 
  -17747   -17751   -17756   -17757   -17755   -17754   -17754   -17752 
  -17746   -17741   -17736   -17735   -17737   -17738   -17733   -17723 
  -17713   -17706   -17706   -17712   -17721   -17732   -17739   -17739 
  -17733   -17727   -17724   -17723   -17726   -17732   -17736   -17734 
  -17730   -17733   -17742   -17752   -17757   -17751   -17740   -17732 
  -17729   -17730   -17733   -17736   -17740   -17746   -17752   -17757 
  -17761   -17760   -17752   -17743   -17737   -17739   -17749   -17756 
  -17754   -17744   -17736   -17737   -17744   -17749   -17748   -17740 
  -17731   -17726   -17725   -17724   -17720   -17714   -17709   -17709 
  -17709   -17703   -17690   -17678   -17677   -17684   -17688   -17683 
  -17673   -17663   -17655   -17653   -17660   -17669   -17670   -17663 
  -17658   -17661   -17671   -17679   -17681   -17677   -17669   -17665 
  -17667   -17673   -17678   -17680   -17678   -17675   -17675   -17678 
  -17681   -17678   -17673   -17671   -17675   -17680   -17684   -17686 
  -17683   -17678   -17677   -17681   -17686   -17689   -17690   -17690 
  -17691   -17693   -17695   -17697   -17699   -17700   -17698   -17692 
  -17685   -17685   -17691   -17701   -17708   -17707   -17703   -17704 
  -17708   -17708   -17707   -17710   -17712   -17708   -17704   -17702 
  -17700   -17696   -17689   -17679   -17673   -17676   -17687   -17698 
  -17702   -17703   -17704   -17703   -17698   -17696   -17702   -17714 
  -17722   -17718   -17708   -17702   -17702   -17704   -17702   -17698 
  -17690   -17684   -17685   -17695   -17706   -17709   -17699   -17685 
  -17678   -17682   -17688   -17690   -17689   -17690   -17692   -17695 
  -17701   -17704   -17704   -17702   -17702   -17705   -17711   -17717 
  -17722   -17725   -17722   -17715   -17711   -17715   -17721   -17720 
  -17709   -17697   -17694   -17701   -17705   -17701   -17693   -17687 
  -17691   -17702   -17710   -17709   -17704   -17703   -17707   -17711 
  -17711   -17706   -17696   -17685   -17679   -17676   -17674   -17672 
  -17673   -17673   -17677   -17686   -17693   -17689   -17679   -17675 
  -17680   -17686   -17689   -17688   -17684   -17682   -17683   -17683 
  -17684   -17689   -17696   -17698   -17693   -17691   -17693   -17695 
  -17695   -17699   -17707   -17711   -17704   -17690   -17681   -17681 
  -17686   -17688   -17688   -17689   -17691   -17694   -17699   -17704 
  -17704   -17696   -17687   -17684   -17689   -17695   -17701   -17706 
  -17708   -17706   -17698   -17689   -17686   -17695   -17711   -17723 
  -17729   -17729   -17722   -17711   -17702   -17703   -17714   -17727 
  -17735   -17737   -17736   -17733   -17731   -17732   -17733   -17734 
  -17738   -17744   -17749   -17751   -17752   -17750   -17752   -17757 
  -17763   -17765   -17764   -17764   -17767   -17771   -17771   -17767 
  -17765   -17772   -17786   -17794   -17797   -17805   -17816   -17823 
  -17824   -17829   -17838   -17848   -17852   -17850   -17849   -17856 
  -17867   -17875   -17876   -17874   -17874   -17875   -17880   -17888 
  -17895   -17897   -17898   -17904   -17914   -17921   -17927   -17934 
  -17941   -17945   -17945   -17948   -17958   -17975   -17989   -17997 
  -17997   -17993   -17988   -17985   -17984   -17984   -17985   -17988 
  -17996   -18004   -18012   -18023   -18035   -18042   -18041   -18035 
  -18029   -18027   -18031   -18036   -18039   -18042   -18049   -18058 
  -18061   -18057   -18050   -18048   -18052   -18060   -18069   -18078 
  -18086   -18088   -18086   -18086   -18087   -18085   -18083   -18084 
  -18087   -18090   -18091   -18089   -18092   -18103   -18119   -18130 
  -18130   -18121   -18114   -18117   -18128   -18137   -18139   -18140 
  -18141   -18144   -18152   -18166   -18180   -18186   -18183   -18178 
  -18178   -18185   -18191   -18195   -18197   -18197   -18192   -18186 
  -18189   -18203   -18219   -18230   -18232   -18227   -18218   -18207 
  -18202   -18206   -18219   -18229   -18229   -18224   -18221   -18223 
  -18224   -18222   -18216   -18210   -18208   -18213   -18222   -18232 
  -18237   -18233   -18222   -18212   -18211   -18220   -18227   -18226 
  -18222   -18219   -18214   -18208   -18207   -18211   -18214   -18213 
  -18211   -18216   -18225   -18237   -18245   -18246   -18239   -18230 
  -18225   -18226   -18232   -18237   -18238   -18238   -18240   -18242 
  -18241   -18237   -18232   -18225   -18221   -18223   -18231   -18239 
  -18240   -18241   -18245   -18248   -18243   -18232   -18224   -18226 
  -18230   -18231   -18227   -18224   -18224   -18227   -18232   -18236 
  -18240   -18240   -18233   -18225   -18222   -18221   -18221   -18220 
  -18222   -18223   -18221   -18217   -18213   -18208   -18203   -18198 
  -18196   -18198   -18199   -18196   -18192   -18193   -18194   -18191 
  -18183   -18174   -18170   -18171   -18175   -18174   -18167   -18158 
  -18154   -18156   -18158   -18157   -18152   -18144   -18138   -18137 
  -18139   -18140   -18139   -18139   -18141   -18141   -18135   -18129 
  -18125   -18123   -18119   -18110   -18094   -18079   -18077   -18088 
  -18101   -18105   -18099   -18088   -18079   -18075   -18074   -18074 
  -18073   -18071   -18067   -18062   -18062   -18065   -18069   -18066 
  -18060   -18052   -18048   -18049   -18050   -18046   -18037   -18025 
  -18018   -18017   -18017   -18018   -18020   -18019   -18009   -17995 
  -17983   -17977   -17977   -17982   -17987   -17989   -17986   -17979 
  -17975   -17977   -17982   -17989   -17991   -17983   -17966   -17950 
  -17942   -17944   -17954   -17964   -17965   -17961   -17958   -17957 
  -17952   -17942   -17929   -17919   -17915   -17922   -17939   -17953 
  -17954   -17943   -17927   -17913   -17908   -17909   -17914   -17922 
  -17929   -17935   -17935   -17930   -17923   -17919   -17917   -17914 
  -17908   -17900   -17896   -17896   -17901   -17906   -17902   -17889 
  -17874   -17867   -17870   -17877   -17875   -17862   -17848   -17842 
  -17839   -17835   -17830   -17826   -17825   -17826   -17827   -17827 
  -17828   -17824   -17813   -17796   -17779   -17767   -17764   -17770 
  -17774   -17766   -17754   -17746   -17745   -17746   -17749   -17750 
  -17747   -17739   -17732   -17731   -17728   -17721   -17712   -17706 
  -17705   -17703   -17697   -17689   -17687   -17690   -17694   -17698 
  -17701   -17697   -17684   -17667   -17654   -17647   -17644   -17644 
  -17647   -17652   -17657   -17658   -17656   -17655   -17657   -17663 
  -17664   -17654   -17640   -17627   -17618   -17615   -17618   -17621 
  -17618   -17613   -17608   -17604   -17598   -17588   -17572   -17561 
  -17560   -17570   -17586   -17597   -17595   -17584   -17575   -17571 
  -17576   -17585   -17589   -17583   -17573   -17564   -17559   -17560 
  -17558   -17553   -17549   -17553   -17562   -17568   -17565   -17554 
  -17541   -17533   -17532   -17534   -17536   -17539   -17537   -17534 
  -17535   -17543   -17555   -17565   -17565   -17555   -17541   -17529 
  -17522   -17517   -17514   -17513   -17513   -17516   -17523   -17534 
  -17544   -17548   -17540   -17523   -17508   -17502   -17507   -17518 
  -17528   -17533   -17530   -17526   -17528   -17532   -17535   -17538 
  -17540   -17538   -17533   -17527   -17520   -17515   -17515   -17519 
  -17524   -17526   -17525   -17522   -17520   -17521   -17526   -17533 
  -17541   -17543   -17542   -17540   -17543   -17551   -17559   -17561 
  -17555   -17543   -17534   -17529   -17529   -17534   -17539   -17545 
  -17548   -17550   -17548   -17545   -17543   -17543   -17550   -17559 
  -17565   -17565   -17563   -17560   -17557   -17552   -17544   -17538 
  -17540   -17552   -17568   -17583   -17592   -17595   -17594   -17591 
  -17587   -17584   -17586   -17591   -17595   -17598   -17600   -17599 
  -17597   -17603   -17616   -17629   -17639   -17647   -17655   -17659 
  -17661   -17665   -17673   -17685   -17694   -17695   -17688   -17679 
  -17674   -17672   -17678   -17691   -17703   -17707   -17705   -17705 
  -17715   -17730   -17746   -17755   -17754   -17749   -17753   -17769 
  -17785   -17786   -17778   -17770   -17769   -17773   -17783   -17796 
  -17805   -17809   -17812   -17818   -17825   -17828   -17826   -17827 
  -17853   -17851   -17857   -17869   -17879   -17882   -17879   -17876 
  -17874   -17874   -17873   -17869   -17863   -17860   -17861   -17866 
  -17873   -17881   -17885   -17882   -17878   -17882   -17892   -17902 
  -17903   -17898   -17895   -17899   -17906   -17911   -17910   -17905 
  -17899   -17898   -17905   -17915   -17918   -17915   -17911   -17908 
  -17905   -17905   -17909   -17917   -17927   -17936   -17938   -17932 
  -17924   -17922   -17930   -17942   -17947   -17939   -17924   -17914 
  -17918   -17929   -17943   -17953   -17959   -17959   -17953   -17945 
  -17940   -17940   -17945   -17948   -17946   -17942   -17942   -17948 
  -17957   -17963   -17966   -17965   -17965   -17967   -17970   -17970 
  -17969   -17971   -17974   -17977   -17978   -17975   -17969   -17965 
  -17968   -17975   -17984   -17991   -17987   -17977   -17969   -17966 
  -17965   -17963   -17959   -17958   -17962   -17971   -17985   -17995 
  -17993   -17982   -17969   -17965   -17967   -17969   -17971   -17972 
  -17976   -17986   -17995   -17995   -17983   -17968   -17963   -17971 
  -17985   -17996   -18002   -18004   -18007   -18013   -18021   -18025 
  -18014   -17994   -17979   -17979   -17990   -18004   -18014   -18017 
  -18016   -18015   -18017   -18017   -18012   -18003   -17995   -17987 
  -17989   -18004   -18025   -18037   -18040   -18041   -18044   -18044 
  -18040   -18035   -18031   -18032   -18033   -18027   -18018   -18013 
  -18014   -18016   -18017   -18021   -18028   -18032   -18030   -18025 
  -18020   -18016   -18015   -18016   -18017   -18018   -18018   -18016 
  -18015   -18015   -18014   -18013   -18011   -18012   -18015   -18014 
  -18010   -18008   -18008   -18009   -18010   -18009   -18011   -18015 
  -18020   -18018   -18010   -18001   -17993   -17991   -17994   -17998 
  -18002   -18005   -18006   -18003   -18002   -18006   -18008   -18008 
  -18006   -17999   -17990   -17985   -17984   -17984   -17982   -17981 
  -17983   -17984   -17983   -17980   -17975   -17973   -17974   -17978 
  -17981   -17982   -17982   -17983   -17985   -17985   -17985   -17988 
