Origin Time       2016/09/25 22:56:00
Lat.              35.372
Long.             134.733
Depth. (km)       7
Mag.              2.9
Station Code      KYTH03
Station Lat.      35.313
Station Long.     135.1334
Station Height(m) 40
Record Time       2016/09/25 22:56:17
Sampling Freq(Hz) 100Hz
Duration Time(s)  120
Dir.              4
Scale Factor      3920(gal)/6170801
Max. Acc. (gal)   1.030
Last Correction   2016/09/25 22:56:02
Memo.             
[...]
    -927     -921     -928     -939     -943     -935     -925     -927 
    -932     -940     -940     -929     -922     -927     -940     -945 
    -932     -922     -928     -938     -941     -935     -929     -926 
    -931     -940     -939     -930     -922     -924     -937     -942 
    -935     -923     -921     -934     -941     -935     -924     -919 
    -929     -940     -940     -931     -920     -925     -939     -943 
    -934     -924     -924     -933     -940     -940     -929     -921 
    -928     -937     -941     -935     -925     -925     -935     -941 
    -936     -928     -923     -928     -939     -938     -930     -925 
    -925     -934     -939     -933     -927     -925     -928     -937 
    -940     -931     -923     -926     -936     -940     -934     -925 
    -923     -930     -937     -940     -929     -921     -929     -937 
    -937     -932     -924     -923     -932     -939     -936     -926 
    -920     -925     -936     -938     -927     -922     -926     -933 
    -938     -932     -922     -923     -933     -941     -936     -925 
    -923     -929     -938     -937     -929     -924     -924     -934 
    -938     -933     -928     -922     -929     -936     -935     -932 
    -923     -924     -935     -938     -933     -922     -921     -931 
    -938     -938     -928     -923     -930     -935     -939     -933 
    -924     -924     -929     -941     -939     -923     -921     -930 
    -941     -940     -928     -921     -925     -936     -940     -931 
    -925     -925     -931     -937     -934     -929     -926     -929 
    -938     -937     -931     -925     -925     -938     -941     -930 
    -925     -925     -931     -936     -937     -933     -924     -927 
    -937     -941     -935     -923     -924     -934     -939     -938 
    -927     -920     -929     -938     -942     -933     -921     -927 
    -936     -939     -934     -924     -925     -931     -937     -938 
    -931     -924     -924     -932     -939     -936     -928     -922 
    -927     -940     -940     -933     -924     -923     -936     -942 
    -935     -924     -920     -932     -942     -937     -927     -921 
    -927     -937     -939     -933     -925     -928     -936     -936 
    -934     -925     -921     -933     -941     -936     -927     -922 
    -927     -933     -937     -933     -924     -926     -933     -937 
    -935     -928     -926     -929     -935     -937     -930     -925 
    -927     -932     -937     -935     -931     -928     -928     -937 
    -940     -932     -923     -925     -935     -941     -935     -925 
    -923     -933     -939     -936     -928     -922     -931     -941 
    -936     -929     -925     -929     -936     -935     -933     -928 
    -923     -931     -939     -937     -929     -921     -923     -934 
    -940     -934     -925     -924     -931     -941     -939     -926 
    -922     -929     -937     -941     -933     -925     -927     -933 
    -940     -938     -927     -922     -929     -941     -941     -932 
    -925     -923     -933     -943     -936     -925     -923     -932 
    -940     -937     -930     -922     -924     -935     -938     -932 
    -922     -923     -934     -938     -936     -928     -923     -929 
    -936     -939     -931     -925     -927     -930     -940     -939 
    -926     -922     -927     -937     -939     -929     -922     -923 
    -937     -940     -929     -926     -926     -934     -940     -935 
    -929     -923     -927     -938     -937     -932     -923     -924 
    -937     -938     -934     -927     -922     -931     -935     -937 
    -936     -926     -927     -936     -941     -935     -923     -925 
    -933     -938     -938     -927     -923     -933     -938     -938 
    -931     -925     -926     -933     -939     -934     -928     -927 
    -930     -940     -938     -929     -927     -925     -931     -940 
    -938     -931     -924     -928     -937     -937     -931     -925 
    -927     -938     -940     -932     -922     -923     -936     -943 
    -936     -923     -922     -934     -938     -937     -932     -924 
    -929     -936     -938     -935     -924     -925     -934     -935 
    -938     -930     -923     -931     -935     -940     -934     -922 
    -923     -930     -943     -941     -926     -922     -926     -940 
    -943     -930     -925     -926     -936     -943     -934     -927 
    -924     -932     -944     -939     -926     -920     -926     -939 
    -943     -934     -921     -922     -936     -942     -937     -927 
    -921     -930     -940     -940     -931     -922     -927     -937 
    -943     -937     -923     -924     -933     -939     -941     -929 
    -921     -927     -937     -941     -931     -920     -923     -935 
    -943     -936     -925     -924     -931     -938     -937     -929 
    -924     -926     -936     -942     -934     -925     -924     -932 
    -941     -938     -926     -922     -928     -940     -940     -931 
    -924     -926     -938     -942     -933     -924     -924     -934 
    -944     -938     -927     -923     -930     -939     -938     -930 
    -926     -927     -933     -939     -936     -925     -921     -929 
    -939     -938     -928     -922     -926     -937     -941     -932 
    -927     -926     -930     -940     -938     -929     -924     -927 
    -938     -940     -932     -927     -926     -932     -939     -936 
    -928     -924     -927     -935     -939     -931     -923     -927 
    -934     -937     -934     -928     -925     -930     -939     -938 
    -927     -921     -926     -935     -938     -933     -925     -925 
    -933     -939     -935     -926     -927     -931     -935     -936 
    -929     -928     -931     -933     -937     -932     -926     -927 
    -930     -937     -937     -927     -921     -926     -939     -941 
    -930     -923     -925     -935     -940     -935     -927     -922 
    -929     -937     -937     -930     -922     -927     -936     -939 
    -937     -926     -922     -933     -939     -936     -928     -921 
    -927     -937     -937     -932     -924     -923     -934     -944 
    -938     -926     -921     -931     -943     -941     -929     -924 
    -929     -936     -940     -933     -924     -927     -932     -938 
    -938     -925     -923     -930     -937     -940     -930     -921 
    -926     -937     -940     -933     -926     -924     -932     -942 
    -936     -926     -925     -931     -941     -938     -929     -927 
    -925     -932     -942     -936     -928     -924     -927     -937 
    -940     -931     -921     -925     -934     -937     -936     -926 
    -922     -930     -938     -941     -929     -918     -927     -937 
    -938     -932     -924     -924     -931     -939     -934     -923 
    -925     -930     -936     -939     -929     -923     -925     -935 
    -941     -931     -924     -923     -931     -939     -934     -929 
    -925     -927     -935     -936     -929     -921     -926     -937 
    -940     -935     -921     -922     -937     -939     -934     -931 
    -927     -927     -935     -941     -934     -927     -926     -931 
    -939     -937     -924     -921     -927     -936     -941     -931 
    -923     -925     -933     -939     -934     -927     -924     -930 
    -936     -935     -932     -921     -922     -940     -940     -931 
    -925     -924     -933     -938     -934     -926     -921     -928 
    -936     -938     -931     -922     -924     -933     -939     -935 
    -921     -921     -931     -939     -941     -926     -921     -932 
    -938     -937     -928     -920     -924     -934     -940     -932 
    -924     -925     -929     -936     -937     -928     -926     -927 
    -934     -940     -933     -925     -925     -932     -940     -937 
    -929     -925     -927     -937     -936     -928     -925     -927 
    -938     -938     -930     -929     -925     -930     -936     -933 
    -933     -926     -925     -935     -937     -934     -925     -923 
    -932     -937     -936     -928     -922     -930     -938     -938 
    -928     -920     -924     -932     -938     -935     -922     -922 
    -930     -937     -939     -927     -921     -926     -935     -938 
    -930     -926     -926     -930     -939     -934     -927     -927 
    -929     -936     -936     -931     -930     -925     -930     -939 
    -935     -924     -919     -928     -939     -937     -929     -920 
    -922     -935     -940     -936     -921     -920     -935     -940 
    -934     -926     -921     -927     -937     -941     -932     -921 
    -923     -933     -941     -935     -922     -923     -933     -941 
    -938     -927     -920     -927     -939     -940     -929     -920 
    -923     -935     -941     -936     -925     -922     -931     -940 
    -939     -927     -918     -925     -938     -943     -934     -922 
    -921     -931     -940     -938     -926     -919     -927     -938 
    -939     -928     -917     -917     -932     -948     -937     -899 
    -875     -916    -1018    -1101    -1069     -903     -756     -717 
    -764    -1045    -1271     -978     -845    -1028     -736     -750 
   -1296    -1027     -623     -929     -912     -730    -1071    -1240 
    -979     -863     -886     -820     -864     -995     -992     -958 
    -880     -775     -888    -1038    -1042    -1033     -922     -799 
    -856     -944    -1002    -1018     -913     -823     -886     -991 
   -1014     -971     -900     -825     -820     -958    -1085    -1040 
    -965     -952     -894     -840     -897     -913     -837     -884 
    -973     -934     -958    -1065    -1064    -1007     -948     -843 
    -782     -839     -929     -959     -938     -897     -877     -933 
   -1007    -1014    -1001     -977     -899     -837     -867     -930 
    -972    -1009     -963     -839     -805     -883     -973    -1031 
   -1016     -942     -914     -949     -983     -994     -939     -848 
    -851     -890     -865     -884     -924     -929     -999    -1038 
    -975     -936     -915     -908     -952     -988     -959     -894 
    -866     -873     -887     -910     -936     -969     -971     -951 
    -958     -931     -895     -944     -979     -943     -942     -950 
    -895     -867     -918     -955     -951     -972     -972     -907 
    -873     -909     -941     -960     -984     -961     -904     -892 
    -899     -915     -954     -956     -932     -945     -960     -938 
    -908     -908     -919     -932     -970     -981     -921     -855 
    -878     -958     -985     -960     -934     -908     -901     -913 
    -934     -944     -940     -953     -946     -908     -902     -921 
    -929     -956     -990     -963     -899     -891     -932     -937 
    -923     -953     -933     -860     -921    -1015     -951     -919 
    -995     -949     -853     -903     -939     -886     -931    -1002 
    -964     -943     -937     -888     -916     -948     -899     -939 
    -996     -903     -875     -956     -921     -879     -965    -1003 
    -960     -953     -940     -903     -906     -912     -928     -982 
    -960     -890     -900     -897     -864     -925    -1000     -991 
    -985     -979     -912     -878     -925     -947     -932     -935 
    -932     -909     -910     -938     -933     -878     -899     -992 
    -971     -922     -962     -939     -902     -976    -1004     -940 
    -919     -919     -880     -854     -879     -922     -959     -992 
    -996     -959     -903     -879     -926     -953     -939     -967 
    -962     -891     -875     -922     -950     -938     -949     -974 
    -932     -884     -899     -911     -894     -927    -1020    -1044 
    -975     -936     -920     -888     -901     -930     -927     -922 
    -906     -891     -916     -926     -922     -956     -969     -954 
    -950     -926     -920     -934     -929     -962     -966     -898 
    -899     -948     -933     -917     -937     -934     -928     -950 
    -961     -948     -922     -904     -913     -929     -944     -951 
    -939     -923     -915     -935     -951     -926     -926     -964 
    -953     -914     -923     -906     -872     -947    -1001     -943 
    -963     -984     -885     -866     -920     -897     -910     -974 
    -964     -942     -966     -937     -887     -925     -953     -930 
    -952     -965     -939     -926     -886     -864     -937     -991 
    -970     -953     -912     -851     -894     -996    -1019     -984 
    -929     -873     -869     -906     -943     -972     -960     -911 
    -894     -908     -923     -971    -1014    -1001     -964     -913 
    -879     -896     -916     -928     -926     -899     -927     -980 
    -952     -941     -956     -888     -862     -954    -1000     -988 
    -979     -913     -840     -832     -882     -999    -1059    -1004 
    -948     -881     -828     -891     -995    -1050    -1016     -881 
    -785     -831     -934    -1003    -1029     -994     -901     -854 
    -876     -905     -971    -1024     -976     -930     -909     -866 
    -902     -964     -923     -924     -995     -948     -852     -848 
    -867     -904     -999    -1082    -1129    -1149    -1156    -1206 
   -1190     -978     -721     -516     -378     -518     -857     -968 
    -953    -1135    -1278    -1243    -1301    -1414    -1317     -994 
    -662     -471     -248       62      123      -93     -221     -329 
    -766    -1285    -1516    -1764    -2231    -2551    -2531    -2245 
   -1714    -1016     -357      116      393      413      139     -173 
    -349     -542     -810    -1189    -1754    -2229    -2324    -2077 
   -1522     -875     -537     -478     -440     -408     -279      -12 
     -14     -432     -921    -1398    -1833    -1817    -1372    -1089 
   -1053     -938     -807     -774     -708     -638     -668     -755 
    -910    -1132    -1291    -1279    -1120     -997     -959     -797 
    -610     -702     -837     -782     -879    -1127    -1096     -926 
    -976    -1118    -1195    -1249    -1228    -1047     -764     -562 
    -524     -540     -588     -758     -913     -864     -821    -1026 
   -1251    -1323    -1377    -1295     -967     -746     -770     -730 
    -579     -563     -716     -866     -952    -1076    -1236    -1299 
   -1251    -1166    -1060     -966     -917     -831     -674     -545 
    -508     -630     -885    -1025    -1038    -1119    -1175    -1136 
   -1176    -1236    -1112     -904     -820     -765     -630     -642 
    -865     -985     -955    -1013    -1059     -936     -879     -965 
    -918     -808     -868     -918     -852     -871     -952     -961 
    -971    -1011    -1029    -1003     -939     -932     -972     -912 
    -867    -1000    -1073     -943     -855     -809     -717     -818 
   -1023    -1071    -1127    -1164     -971     -807     -860     -890 
    -853     -868     -874     -830     -793     -838     -967    -1042 
   -1048    -1117    -1145     -993     -881     -909     -881     -862 
    -995    -1088     -998     -860     -825     -890     -907     -846 
    -825     -831     -856     -959    -1018     -988    -1010    -1026 
    -963     -907     -829     -739     -813    -1003    -1069     -974 
    -885     -898     -948    -1002    -1123    -1217    -1103     -933 
    -915     -885     -761     -735     -798     -764     -701     -789 
    -916     -943     -981    -1057    -1056    -1050    -1134    -1130 
    -988     -956    -1010     -958     -911     -950     -904     -796 
    -845     -930     -849     -799     -880     -864     -778     -830 
    -955    -1007    -1064    -1154    -1116     -992     -951     -953 
    -943     -930     -862     -783     -766     -800     -868     -927 
    -958    -1030    -1119    -1081     -975     -942     -879     -789 
    -842     -920     -892     -882     -883     -842     -882     -985 
   -1007     -937     -888     -923     -947     -932    -1014    -1108 
   -1066    -1027     -977     -793     -699     -812     -917     -924 
    -941     -971     -949     -956    -1004     -969     -920     -961 
   -1002    -1014     -999     -899     -788     -804     -910     -976 
    -971     -933     -880     -853     -904     -983     -994     -954 
    -953     -979     -938     -860     -877     -955     -977     -968 
    -982     -975     -941     -940     -955     -945     -938     -916 
    -879     -916     -957     -895     -859     -943    -1003     -951 
    -894     -891     -832     -738     -790     -950     -991     -955 
   -1031    -1111    -1041     -951     -961     -969     -913     -901 
    -932     -888     -806     -772     -829     -966    -1025     -984 
    -968     -962     -936     -936     -955     -958     -959     -979 
   -1013    -1017     -910     -783     -806     -874     -870     -886 
    -953     -999    -1003    -1022    -1029     -953     -902     -940 
    -937     -902     -944     -972     -900     -853     -870     -840 
    -804     -871     -971    -1016    -1042    -1029     -942     -912 
    -962     -900     -784     -803     -876     -932     -969     -953 
    -942     -966     -996    -1042    -1062    -1056    -1019     -896 
    -821     -884     -868     -793     -915    -1014     -866     -815 
    -940     -972     -991    -1062    -1025     -919     -900     -946 
    -941     -879     -812     -809     -902     -963     -939     -962 
   -1006     -953     -898     -961    -1021     -981     -932     -885 
    -836     -873     -934     -918     -905     -965     -990     -934 
    -928     -985     -994     -989    -1021     -978     -845     -789 
    -822     -850     -899     -951     -947     -961     -995     -981 
   -1005    -1076    -1028     -896     -812     -789     -870     -979 
    -969     -907     -872     -859     -877     -910     -971    -1004 
    -945     -927     -993    -1014    -1000     -982     -917     -883 
    -928     -934     -909     -940     -915     -831     -856     -911 
    -907     -958    -1004     -940     -890     -935     -995    -1006 
    -991     -957     -891     -861     -898     -930     -925     -925 
    -914     -848     -844     -931     -938     -928    -1009    -1025 
    -997    -1037    -1016     -923     -883     -864     -838     -829 
    -847     -922     -987     -972     -951     -977     -995     -966 
    -944     -969     -945     -849     -803     -850     -952    -1039 
    -996     -897     -893     -900     -858     -904     -989     -961 
    -918     -960    -1012    -1029     -970     -849     -812     -862 
    -882     -923    -1017    -1032     -973     -978     -981     -888 
    -854     -918     -907     -823     -819     -904     -982    -1012 
   -1002     -968     -952     -975    -1019    -1018     -950     -877 
    -817     -797     -873     -945     -926     -898     -884     -869 
    -918    -1010    -1050    -1032    -1008     -984     -943     -888 
    -869     -922     -976     -961     -938     -947     -921     -875 
    -898     -919     -849     -807     -887     -991    -1031    -1021 
    -999     -977     -957     -950     -960     -962     -903     -812 
    -818     -905     -942     -956     -959     -887     -844     -918 
   -1009    -1054    -1072    -1010     -882     -826     -853     -900 
