Origin Time       2016/09/25 22:56:00
Lat.              35.372
Long.             134.733
Depth. (km)       7
Mag.              2.9
Station Code      KYTH03
Station Lat.      35.313
Station Long.     135.1334
Station Height(m) -260
Record Time       2016/09/25 22:56:17
Sampling Freq(Hz) 100Hz
Duration Time(s)  120
Dir.              1
Scale Factor      2940(gal)/6170270
Max. Acc. (gal)   0.197
Last Correction   2016/09/25 22:56:02
Memo.             
[...]
   31048    31047    31048    31049    31048    31049    31050    31047 
   31046    31047    31048    31049    31050    31050    31050    31050 
   31049    31048    31047    31047    31047    31046    31046    31049 
   31049    31046    31046    31048    31048    31047    31045    31047 
   31048    31048    31051    31051    31047    31047    31047    31048 
   31047    31047    31048    31049    31048    31048    31048    31047 
   31049    31050    31048    31048    31050    31049    31049    31049 
   31047    31048    31048    31048    31049    31048    31047    31048 
   31047    31046    31048    31048    31047    31046    31048    31048 
   31048    31049    31049    31047    31046    31047    31048    31047 
   31047    31048    31047    31048    31048    31046    31047    31049 
   31048    31048    31048    31046    31046    31048    31049    31047 
   31047    31048    31047    31047    31048    31047    31047    31047 
   31047    31048    31049    31049    31047    31046    31047    31048 
   31048    31049    31048    31048    31048    31048    31047    31048 
   31048    31048    31049    31048    31048    31048    31048    31048 
   31048    31048    31046    31046    31049    31049    31048    31048 
   31050    31049    31048    31047    31048    31049    31049    31048 
   31047    31048    31048    31049    31049    31048    31049    31050 
   31048    31047    31049    31050    31049    31048    31048    31049 
   31049    31046    31047    31049    31047    31047    31049    31049 
   31048    31050    31050    31049    31048    31048    31048    31048 
   31048    31048    31048    31051    31050    31048    31048    31049 
   31048    31048    31050    31051    31049    31047    31047    31047 
   31048    31049    31047    31048    31050    31049    31046    31047 
   31049    31048    31048    31050    31049    31047    31046    31047 
   31047    31047    31047    31048    31049    31048    31049    31048 
   31047    31048    31048    31048    31047    31046    31049    31050 
   31049    31049    31050    31049    31048    31046    31046    31048 
   31047    31046    31048    31049    31049    31050    31049    31048 
   31049    31049    31049    31048    31046    31046    31047    31049 
   31048    31048    31049    31047    31045    31048    31048    31047 
   31046    31045    31046    31048    31048    31046    31046    31048 
   31050    31050    31050    31049    31049    31049    31048    31049 
   31050    31049    31047    31047    31048    31050    31049    31047 
   31048    31048    31049    31048    31048    31051    31049    31046 
   31047    31047    31048    31050    31048    31048    31049    31049 
   31049    31049    31048    31047    31049    31051    31050    31047 
   31048    31049    31049    31049    31049    31047    31048    31049 
   31049    31049    31049    31049    31048    31048    31048    31048 
   31048    31048    31047    31048    31047    31047    31049    31049 
   31048    31048    31047    31046    31046    31048    31048    31048 
   31050    31049    31047    31049    31049    31047    31046    31047 
   31048    31048    31049    31049    31048    31048    31048    31048 
   31048    31050    31050    31049    31048    31047    31047    31048 
   31050    31050    31049    31048    31049    31050    31049    31048 
   31048    31047    31048    31050    31050    31047    31047    31049 
   31049    31048    31048    31050    31048    31047    31049    31050 
   31049    31050    31050    31048    31047    31049    31050    31049 
   31049    31049    31048    31048    31048    31047    31047    31049 
   31049    31049    31049    31048    31048    31049    31050    31048 
   31045    31047    31048    31048    31048    31047    31048    31048 
   31048    31048    31049    31050    31049    31048    31049    31050 
   31050    31049    31049    31049    31049    31048    31048    31049 
   31048    31046    31046    31047    31048    31048    31049    31050 
   31048    31048    31050    31050    31049    31048    31048    31049 
   31049    31048    31049    31049    31049    31048    31049    31050 
   31049    31049    31048    31047    31047    31048    31048    31048 
   31050    31050    31047    31047    31049    31047    31048    31048 
   31047    31048    31049    31049    31049    31047    31047    31048 
   31049    31049    31049    31048    31048    31050    31049    31047 
   31048    31049    31048    31048    31047    31047    31048    31048 
   31048    31049    31048    31047    31048    31048    31048    31048 
   31047    31046    31047    31049    31050    31048    31047    31049 
   31050    31048    31047    31048    31049    31049    31048    31047 
   31047    31048    31048    31048    31049    31048    31047    31049 
   31048    31048    31051    31050    31048    31048    31048    31048 
   31049    31049    31048    31048    31050    31049    31047    31049 
   31050    31049    31047    31047    31048    31048    31047    31048 
   31050    31049    31048    31049    31049    31048    31048    31050 
   31049    31047    31048    31049    31048    31048    31048    31050 
   31050    31049    31048    31048    31050    31050    31048    31048 
   31051    31048    31046    31049    31050    31048    31048    31049 
   31048    31047    31049    31050    31049    31048    31049    31049 
   31048    31049    31048    31048    31050    31051    31049    31048 
   31049    31048    31048    31049    31049    31048    31048    31048 
   31047    31048    31048    31049    31049    31048    31048    31048 
   31048    31048    31047    31046    31048    31049    31048    31047 
   31048    31049    31048    31049    31049    31048    31048    31049 
   31048    31048    31048    31048    31048    31049    31050    31050 
   31048    31047    31048    31049    31049    31048    31048    31047 
   31048    31048    31048    31050    31049    31048    31051    31050 
   31046    31047    31049    31049    31050    31051    31050    31047 
   31049    31050    31047    31046    31047    31048    31049    31049 
   31049    31049    31047    31046    31047    31047    31048    31050 
   31048    31047    31048    31048    31049    31048    31047    31047 
   31048    31049    31048    31049    31050    31049    31048    31050 
   31049    31048    31049    31049    31049    31049    31048    31049 
   31048    31047    31049    31049    31048    31049    31050    31048 
   31048    31050    31051    31049    31049    31049    31049    31049 
   31049    31051    31049    31047    31050    31052    31050    31049 
   31048    31047    31049    31049    31049    31050    31050    31049 
   31048    31048    31048    31047    31048    31048    31049    31050 
   31050    31049    31049    31049    31049    31050    31048    31048 
   31050    31050    31050    31049    31049    31049    31049    31048 
   31049    31049    31049    31050    31050    31048    31048    31050 
   31049    31048    31050    31050    31050    31048    31046    31047 
   31050    31050    31050    31050    31051    31050    31049    31049 
   31050    31049    31049    31048    31047    31048    31048    31048 
   31049    31050    31049    31048    31049    31050    31049    31046 
   31046    31050    31050    31048    31050    31050    31049    31049 
   31048    31048    31050    31049    31049    31050    31049    31049 
   31049    31048    31048    31049    31048    31048    31048    31049 
   31050    31049    31047    31048    31049    31047    31049    31050 
   31049    31048    31049    31049    31048    31048    31049    31050 
   31048    31048    31049    31050    31048    31047    31048    31049 
   31049    31047    31049    31050    31048    31048    31050    31049 
   31048    31049    31048    31046    31047    31049    31049    31047 
   31047    31048    31049    31048    31047    31048    31049    31048 
   31050    31049    31047    31048    31049    31049    31049    31048 
   31050    31050    31048    31048    31048    31046    31048    31050 
   31050    31049    31049    31049    31049    31048    31048    31048 
   31048    31048    31049    31049    31048    31048    31049    31050 
   31049    31048    31048    31049    31049    31049    31050    31051 
   31050    31050    31049    31050    31051    31049    31047    31048 
   31050    31050    31051    31050    31049    31049    31049    31049 
   31049    31049    31049    31049    31048    31047    31048    31049 
   31049    31047    31047    31047    31048    31050    31049    31048 
   31048    31048    31049    31049    31049    31049    31049    31048 
   31050    31050    31047    31046    31049    31049    31047    31046 
   31048    31050    31049    31048    31048    31048    31048    31047 
   31046    31048    31048    31047    31047    31048    31049    31049 
   31048    31047    31048    31050    31049    31048    31049    31048 
   31049    31050    31048    31046    31048    31048    31046    31048 
   31050    31052    31055    31059    31066    31070    31063    31041 
   31014    31009    31028    31049    31046    31020    31035    31079 
   31067    31074    31109    31038    31002    31067    31046    31022 
   31052    31023    31036    31088    31075    31060    31039    31024 
   31059    31061    31038    31033    31011    31025    31066    31068 
   31056    31043    31053    31085    31081    31052    31035    31025 
   31034    31044    31032    31026    31035    31036    31050    31079 
   31064    31039    31063    31073    31058    31060    31054    31035 
   31045    31059    31043    31032    31037    31034    31042    31055 
   31051    31052    31057    31052    31052    31057    31045    31029 
   31041    31052    31042    31049    31061    31049    31049    31061 
   31055    31044    31047    31048    31043    31042    31044    31046 
   31054    31048    31036    31044    31050    31050    31061    31060 
   31037    31032    31058    31063    31044    31046    31053    31050 
   31053    31056    31056    31058    31046    31034    31044    31053 
   31053    31050    31039    31039    31051    31056    31056    31055 
   31049    31038    31035    31043    31051    31047    31043    31048 
   31050    31055    31062    31051    31041    31048    31052    31051 
   31054    31057    31047    31039    31052    31056    31048    31050 
   31044    31040    31048    31046    31039    31046    31052    31051 
   31052    31050    31046    31055    31060    31049    31049    31055 
   31052    31048    31047    31048    31051    31054    31049    31044 
   31046    31040    31039    31054    31058    31050    31045    31047 
   31054    31055    31051    31054    31049    31038    31047    31054 
   31045    31042    31045    31041    31039    31046    31051    31049 
   31047    31062    31066    31051    31052    31055    31044    31048 
   31053    31043    31047    31051    31044    31048    31046    31035 
   31047    31054    31045    31048    31052    31050    31050    31050 
   31052    31047    31042    31045    31050    31054    31049    31045 
   31050    31055    31060    31056    31041    31035    31041    31053 
   31055    31045    31051    31054    31040    31047    31058    31044 
   31041    31045    31042    31051    31053    31049    31049    31044 
   31047    31054    31047    31041    31050    31057    31049    31049 
   31053    31050    31050    31052    31049    31045    31041    31043 
   31048    31052    31049    31039    31038    31048    31054    31053 
   31046    31047    31056    31048    31042    31050    31044    31045 
   31057    31051    31049    31055    31047    31045    31046    31039 
   31047    31053    31044    31042    31050    31057    31055    31043 
   31036    31046    31052    31044    31047    31051    31051    31058 
   31055    31052    31056    31050    31046    31046    31042    31048 
   31043    31033    31046    31054    31045    31048    31051    31044 
   31042    31047    31053    31058    31050    31044    31054    31049 
   31044    31058    31059    31044    31046    31056    31046    31034 
   31043    31051    31047    31047    31049    31048    31046    31048 
   31048    31047    31049    31049    31054    31062    31056    31052 
   31053    31043    31040    31046    31050    31045    31037    31045 
   31050    31047    31054    31056    31047    31053    31058    31051 
   31051    31054    31058    31051    31034    31036    31052    31048 
   31040    31049    31048    31040    31055    31060    31042    31041 
   31052    31049    31051    31053    31052    31057    31053    31050 
   31050    31041    31040    31046    31049    31045    31038    31048 
   31053    31044    31044    31044    31046    31054    31056    31056 
   31050    31045    31055    31058    31048    31044    31043    31040 
   31050    31059    31043    31038    31057    31060    31048    31038 
   31038    31045    31042    31044    31053    31051    31061    31076 
   31069    31048    31035    31042    31047    31037    31041    31043 
   31029    31044    31063    31057    31064    31062    31042    31052 
   31062    31055    31052    31038    31030    31011    30954    30936 
   30973    30998    31027    31075    31096    31097    31106    31092 
   31053    31028    31020    31015    31002    30989    30983    30973 
   30975    31016    31095    31172    31249    31363    31431    31392 
   31318    31223    31107    31015    30922    30835    30774    30711 
   30665    30636    30645    30787    30975    31078    31160    31228 
   31258    31298    31251    31175    31261    31318    31177    31041 
   31039    31061    30983    30933    31019    31047    30968    30948 
   30972    30952    30943    31021    31085    31025    30992    31060 
   31085    31089    31121    31095    31073    31110    31086    31047 
   31056    31019    31015    31071    31038    31010    31059    31028 
   30977    31027    31043    31008    31077    31140    31058    31024 
   31098    31089    31029    31027    31021    30992    30999    31008 
   30993    31008    31030    31049    31098    31103    31082    31120 
   31119    31057    31065    31095    31057    31032    31056    31055 
   31032    31018    31026    31078    31108    31054    31011    31032 
   31031    31007    31024    31035    31012    31008    31029    31054 
   31061    31064    31082    31064    31041    31067    31071    31065 
   31078    31047    31019    31051    31069    31053    31049    31049 
   31048    31069    31061    31035    31060    31081    31056    31036 
   31034    31036    31024    31007    31015    31025    31030    31061 
   31080    31053    31058    31095    31072    31021    31018    31035 
   31028    31013    31035    31082    31085    31058    31061    31092 
   31085    31031    31039    31088    31049    31013    31050    31038 
   31007    31050    31071    31036    31047    31080    31041    30980 
   31005    31056    31039    31039    31068    31038    31027    31061 
   31052    31049    31084    31080    31042    31037    31058    31050 
   31036    31065    31073    31042    31026    31034    31048    31031 
   31004    31034    31067    31055    31047    31043    31050    31062 
   31052    31049    31053    31060    31067    31048    31046    31044 
   31016    31041    31068    31046    31064    31078    31044    31064 
   31073    31025    31052    31082    31023    31022    31088    31080 
   31034    31025    31029    31038    31041    31023    31020    31030 
   31023    31029    31048    31062    31069    31066    31058    31064 
   31076    31053    31020    31039    31054    31036    31035    31033 
   31026    31043    31048    31041    31045    31046    31051    31052 
   31042    31052    31059    31052    31064    31080    31093    31087 
   31049    31027    31037    31058    31068    31049    31025    31039 
   31056    31026    31015    31056    31074    31064    31067    31055 
   31037    31069    31088    31040    31015    31038    31044    31046 
   31058    31047    31032    31041    31058    31079    31077    31039 
   31031    31056    31052    31039    31047    31053    31047    31051 
   31057    31050    31054    31057    31033    31022    31028    31027 
   31023    31024    31037    31043    31038    31049    31055    31052 
   31057    31045    31031    31053    31073    31059    31052    31057 
   31047    31038    31041    31048    31054    31053    31050    31048 
   31047    31055    31059    31050    31050    31058    31058    31045 
   31019    31027    31053    31043    31055    31069    31034    31028 
   31051    31049    31045    31048    31062    31067    31040    31041 
   31067    31044    31018    31047    31056    31046    31053    31029 
   31013    31050    31064    31058    31062    31054    31061    31075 
   31059    31056    31054    31022    31024    31045    31045    31059 
   31056    31016    31021    31062    31058    31036    31052    31062 
   31056    31059    31041    31021    31047    31072    31061    31057 
   31065    31068    31054    31034    31048    31061    31054    31056 
   31034    31003    31022    31052    31055    31052    31048    31057 
   31066    31059    31048    31029    31037    31085    31088    31040 
   31025    31046    31049    31047    31055    31044    31040    31048 
   31030    31029    31047    31043    31049    31051    31033    31040 
   31054    31054    31052    31041    31029    31042    31056    31052 
   31068    31078    31042    31037    31075    31069    31041    31052 
   31052    31032    31052    31061    31035    31037    31068    31091 
   31077    31038    31035    31054    31052    31039    31035    31055 
   31058    31026    31027    31053    31039    31026    31031    31021 
   31027    31054    31059    31052    31047    31053    31083    31076 
   31034    31045    31088    31078    31048    31045    31027    31019 
   31047    31044    31024    31044    31067    31055    31048    31063 
   31057    31044    31055    31059    31064    31070    31041    31028 
   31047    31044    31041    31044    31028    31016    31023    31061 
   31091    31053    31011    31039    31073    31049    31032    31062 
   31062    31039    31045    31051    31051    31055    31064    31072 
   31050    31034    31047    31034    31011    31042    31075    31051 
   31032    31042    31054    31060    31051    31043    31052    31051 
   31040    31057    31076    31049    31032    31035    31022    31046 
   31085    31060    31020    31031    31069    31085    31056    31027 
   31045    31053    31012    31001    31055    31084    31039    31019 
   31069    31088    31064    31083    31091    31040    31034    31050 
   31022    31023    31051    31057    31052    31022    31026    31062 
   31050    31035    31052    31062    31057    31049    31050    31057 
   31059    31058    31043    31040    31058    31054    31052    31061 
   31032    31010    31028    31039    31039    31052    31061    31057 
   31055    31070    31077    31069    31051    31037    31044    31043 
   31026    31041    31055    31028    31022    31044    31050    31046 
   31041    31043    31049    31037    31032    31055    31072    31057 
   31026    31024    31052    31071    31071    31060    31052    31055 
   31049    31037    31044    31060    31058    31033    31035    31055 
