Origin Time       2016/09/25 22:56:00
Lat.              35.372
Long.             134.733
Depth. (km)       7
Mag.              2.9
Station Code      KYTH03
Station Lat.      35.313
Station Long.     135.1334
Station Height(m) 40
Record Time       2016/09/25 22:56:17
Sampling Freq(Hz) 100Hz
Duration Time(s)  120
Dir.              6
Scale Factor      3920(gal)/6170801
Max. Acc. (gal)   0.278
Last Correction   2016/09/25 22:56:02
Memo.             
  -31852   -31847   -31850   -31860   -31858   -31851   -31853   -31853 
  -31852   -31858   -31857   -31850   -31851   -31853   -31861   -31857 
  -31847   -31854   -31853   -31849   -31858   -31856   -31850   -31848 
  -31850   -31860   -31861   -31850   -31842   -31849   -31859   -31862 
  -31856   -31846   -31843   -31855   -31863   -31861   -31849   -31841 
  -31855   -31863   -31860   -31855   -31847   -31854   -31856   -31860 
  -31860   -31843   -31849   -31857   -31859   -31860   -31845   -31849 
  -31854   -31853   -31863   -31856   -31849   -31850   -31853   -31862 
  -31860   -31850   -31847   -31852   -31858   -31855   -31853   -31850 
  -31845   -31854   -31859   -31854   -31850   -31848   -31852   -31860 
  -31862   -31853   -31846   -31850   -31859   -31859   -31852   -31855 
  -31854   -31850   -31858   -31861   -31853   -31847   -31850   -31856 
  -31857   -31858   -31851   -31845   -31854   -31862   -31861   -31853 
  -31847   -31850   -31859   -31861   -31853   -31850   -31850   -31857 
  -31861   -31852   -31855   -31850   -31846   -31862   -31858   -31850 
  -31853   -31847   -31854   -31859   -31853   -31854   -31848   -31851 
  -31861   -31855   -31851   -31850   -31852   -31861   -31860   -31854 
  -31846   -31847   -31859   -31857   -31856   -31848   -31843   -31856 
  -31858   -31858   -31853   -31844   -31850   -31857   -31863   -31857 
  -31842   -31846   -31854   -31860   -31862   -31850   -31842   -31847 
  -31861   -31864   -31849   -31848   -31851   -31850   -31858   -31862 
  -31853   -31845   -31850   -31858   -31856   -31852   -31853   -31854 
  -31854   -31854   -31858   -31852   -31845   -31855   -31859   -31855 
  -31851   -31845   -31851   -31860   -31858   -31850   -31848   -31853 
  -31854   -31858   -31859   -31848   -31848   -31855   -31857   -31854 
  -31848   -31852   -31854   -31855   -31860   -31853   -31847   -31853 
  -31855   -31854   -31854   -31852   -31847   -31850   -31858   -31857 
  -31850   -31847   -31850   -31853   -31859   -31858   -31845   -31846 
  -31859   -31856   -31853   -31855   -31850   -31848   -31859   -31862 
  -31852   -31844   -31850   -31857   -31853   -31860   -31853   -31840 
  -31855   -31861   -31853   -31850   -31846   -31850   -31852   -31857 
  -31858   -31841   -31847   -31859   -31854   -31853   -31850   -31849 
  -31851   -31855   -31859   -31847   -31850   -31856   -31852   -31857 
  -31851   -31848   -31851   -31850   -31857   -31855   -31852   -31849 
  -31842   -31856   -31862   -31854   -31846   -31840   -31855   -31862 
  -31854   -31851   -31845   -31851   -31861   -31854   -31853   -31848 
  -31845   -31860   -31861   -31855   -31848   -31841   -31853   -31860 
  -31858   -31853   -31846   -31851   -31854   -31857   -31860   -31849 
  -31847   -31852   -31858   -31860   -31848   -31848   -31851   -31847 
  -31860   -31859   -31846   -31849   -31852   -31860   -31862   -31849 
  -31845   -31851   -31859   -31858   -31850   -31850   -31850   -31853 
  -31855   -31854   -31854   -31847   -31855   -31858   -31847   -31854 
  -31850   -31849   -31861   -31852   -31853   -31853   -31848   -31859 
  -31855   -31855   -31856   -31845   -31852   -31859   -31856   -31854 
  -31846   -31851   -31854   -31854   -31860   -31849   -31847   -31856 
  -31855   -31860   -31855   -31844   -31851   -31858   -31861   -31852 
  -31846   -31853   -31851   -31856   -31860   -31846   -31844   -31855 
  -31859   -31853   -31849   -31853   -31850   -31853   -31864   -31855 
  -31843   -31848   -31858   -31859   -31856   -31855   -31847   -31849 
  -31858   -31856   -31855   -31852   -31848   -31853   -31857   -31861 
  -31855   -31843   -31852   -31860   -31859   -31857   -31845   -31846 
  -31856   -31862   -31861   -31844   -31845   -31855   -31854   -31860 
  -31855   -31842   -31846   -31857   -31861   -31854   -31851   -31851 
  -31846   -31855   -31863   -31857   -31847   -31844   -31855   -31861 
  -31855   -31850   -31844   -31849   -31860   -31860   -31850   -31847 
  -31854   -31856   -31854   -31857   -31851   -31845   -31852   -31857 
  -31857   -31852   -31848   -31851   -31852   -31858   -31858   -31847 
  -31851   -31857   -31854   -31854   -31847   -31849   -31855   -31856 
  -31859   -31850   -31843   -31853   -31858   -31855   -31850   -31850 
  -31847   -31852   -31862   -31851   -31845   -31852   -31853   -31854 
  -31854   -31857   -31850   -31844   -31860   -31858   -31853   -31852 
  -31843   -31855   -31858   -31855   -31854   -31843   -31855   -31858 
  -31853   -31860   -31845   -31844   -31858   -31859   -31858   -31844 
  -31848   -31856   -31852   -31862   -31851   -31845   -31858   -31854 
  -31858   -31857   -31851   -31854   -31845   -31858   -31863   -31842 
  -31850   -31858   -31855   -31861   -31854   -31847   -31848   -31859 
  -31863   -31849   -31850   -31851   -31849   -31859   -31858   -31852 
  -31847   -31849   -31864   -31857   -31847   -31852   -31849   -31852 
  -31854   -31854   -31854   -31847   -31855   -31858   -31850   -31856 
  -31851   -31850   -31855   -31857   -31864   -31851   -31841   -31855 
  -31857   -31861   -31856   -31842   -31855   -31860   -31858   -31858 
  -31846   -31851   -31855   -31856   -31861   -31846   -31848   -31860 
  -31856   -31860   -31854   -31849   -31853   -31850   -31861   -31860 
  -31851   -31854   -31849   -31857   -31862   -31855   -31853   -31846 
  -31857   -31862   -31854   -31855   -31851   -31854   -31856   -31855 
  -31858   -31845   -31846   -31860   -31860   -31856   -31849   -31850 
  -31854   -31856   -31865   -31856   -31844   -31854   -31859   -31859 
  -31852   -31851   -31857   -31851   -31858   -31862   -31848   -31853 
  -31856   -31854   -31859   -31852   -31849   -31849   -31852   -31860 
  -31853   -31850   -31851   -31848   -31855   -31861   -31853   -31843 
  -31851   -31862   -31854   -31847   -31849   -31849   -31857   -31859 
  -31850   -31850   -31853   -31855   -31857   -31858   -31856   -31848 
  -31847   -31859   -31861   -31856   -31852   -31846   -31852   -31861 
  -31859   -31850   -31842   -31852   -31863   -31858   -31853   -31847 
  -31847   -31858   -31860   -31858   -31850   -31845   -31858   -31865 
  -31858   -31852   -31843   -31847   -31862   -31860   -31855   -31848 
  -31840   -31856   -31865   -31856   -31850   -31845   -31853   -31862 
  -31856   -31855   -31850   -31847   -31859   -31860   -31855   -31849 
  -31849   -31855   -31857   -31859   -31853   -31848   -31852   -31853 
  -31858   -31850   -31847   -31855   -31852   -31858   -31857   -31845 
  -31851   -31856   -31856   -31857   -31851   -31850   -31855   -31855 
  -31860   -31859   -31846   -31849   -31857   -31856   -31856   -31852 
  -31849   -31852   -31860   -31860   -31849   -31847   -31855   -31861 
  -31855   -31848   -31848   -31849   -31860   -31863   -31851   -31854 
  -31851   -31847   -31865   -31863   -31851   -31847   -31845   -31860 
  -31861   -31856   -31854   -31842   -31850   -31860   -31860   -31858 
  -31849   -31850   -31853   -31856   -31860   -31851   -31851   -31855 
  -31854   -31860   -31853   -31848   -31856   -31854   -31857   -31855 
  -31849   -31854   -31855   -31854   -31856   -31851   -31852   -31853 
  -31853   -31861   -31854   -31846   -31854   -31859   -31858   -31854 
  -31851   -31853   -31855   -31859   -31859   -31849   -31850   -31857 
  -31859   -31857   -31852   -31851   -31849   -31856   -31864   -31854 
  -31850   -31851   -31854   -31860   -31856   -31854   -31849   -31848 
  -31864   -31862   -31855   -31851   -31848   -31860   -31862   -31856 
  -31854   -31847   -31855   -31863   -31855   -31853   -31849   -31847 
  -31857   -31865   -31858   -31844   -31848   -31854   -31853   -31860 
  -31853   -31849   -31851   -31849   -31861   -31859   -31845   -31848 
  -31855   -31860   -31854   -31848   -31853   -31851   -31858   -31861 
  -31850   -31848   -31850   -31859   -31861   -31851   -31854   -31849 
  -31851   -31863   -31853   -31851   -31849   -31855   -31864   -31853 
  -31851   -31848   -31848   -31858   -31862   -31858   -31845   -31848 
  -31854   -31855   -31862   -31853   -31845   -31850   -31857   -31860 
  -31855   -31854   -31849   -31848   -31860   -31858   -31852   -31852 
  -31854   -31854   -31854   -31856   -31854   -31850   -31856   -31861 
  -31853   -31849   -31851   -31856   -31857   -31853   -31852   -31847 
  -31856   -31859   -31850   -31857   -31851   -31844   -31855   -31858 
  -31855   -31845   -31849   -31858   -31851   -31854   -31853   -31847 
  -31853   -31852   -31855   -31854   -31847   -31852   -31851   -31857 
  -31860   -31843   -31849   -31854   -31853   -31865   -31852   -31847 
  -31850   -31853   -31863   -31851   -31846   -31847   -31848   -31866 
  -31859   -31846   -31848   -31849   -31856   -31855   -31853   -31853 
  -31845   -31858   -31862   -31849   -31851   -31849   -31850   -31860 
  -31856   -31850   -31842   -31847   -31865   -31856   -31851   -31851 
  -31842   -31857   -31864   -31853   -31852   -31843   -31852   -31861 
  -31854   -31855   -31847   -31848   -31856   -31855   -31858   -31848 
  -31843   -31852   -31854   -31861   -31856   -31845   -31847   -31851 
  -31862   -31855   -31841   -31848   -31848   -31852   -31859   -31851 
  -31847   -31845   -31855   -31863   -31850   -31848   -31847   -31850 
  -31863   -31854   -31849   -31847   -31850   -31860   -31853   -31853 
  -31850   -31845   -31862   -31856   -31843   -31851   -31852   -31851 
  -31852   -31857   -31860   -31843   -31846   -31860   -31854   -31854 
  -31850   -31847   -31851   -31854   -31859   -31849   -31844   -31853 
  -31852   -31856   -31855   -31848   -31848   -31851   -31857   -31855 
  -31849   -31850   -31851   -31855   -31857   -31854   -31847   -31848 
  -31855   -31854   -31852   -31848   -31848   -31854   -31859   -31858 
  -31847   -31843   -31851   -31858   -31861   -31852   -31846   -31848 
  -31851   -31863   -31861   -31846   -31844   -31850   -31857   -31857 
  -31854   -31851   -31846   -31851   -31862   -31865   -31865   -31869 
  -31890   -31918   -31922   -31876   -31745   -31605   -31639   -31873 
  -32137   -32168   -31844   -31575   -31730   -31781   -31766   -32219 
  -32060   -31414   -31792   -32012   -31687   -32123   -32182   -31601 
  -31679   -31845   -31750   -31949   -32123   -31928   -31646   -31640 
  -31838   -31905   -31909   -31966   -31918   -31770   -31755   -31898 
  -31902   -31833   -31845   -31799   -31843   -31946   -31896   -31835 
  -31857   -31875   -31793   -31780   -31900   -31882   -31820   -31866 
  -31865   -31827   -31828   -31847   -31851   -31851   -31896   -31903 
  -31855   -31859   -31858   -31796   -31807   -31885   -31871   -31844 
  -31887   -31868   -31822   -31846   -31863   -31852   -31858   -31862 
  -31852   -31879   -31903   -31814   -31760   -31848   -31880   -31867 
  -31906   -31881   -31829   -31826   -31828   -31848   -31889   -31910 
  -31854   -31762   -31775   -31843   -31906   -31957   -31902   -31832 
  -31806   -31786   -31857   -31931   -31902   -31876   -31839   -31766 
  -31812   -31907   -31893   -31870   -31863   -31848   -31845   -31802 
  -31797   -31873   -31896   -31863   -31874   -31879   -31821   -31781 
  -31790   -31857   -31954   -31939   -31829   -31813   -31859   -31832 
  -31833   -31901   -31901   -31856   -31845   -31851   -31846   -31838 
  -31850   -31857   -31859   -31884   -31854   -31796   -31845   -31894 
  -31864   -31849   -31840   -31840   -31871   -31867   -31838   -31838 
  -31858   -31865   -31856   -31858   -31879   -31854   -31801   -31812 
  -31856   -31888   -31904   -31879   -31844   -31838   -31845   -31849 
  -31857   -31872   -31874   -31826   -31795   -31846   -31885   -31884 
  -31885   -31863   -31831   -31817   -31834   -31866   -31877   -31879 
  -31862   -31822   -31816   -31853   -31894   -31880   -31859   -31888 
  -31828   -31766   -31859   -31899   -31843   -31869   -31897   -31842 
  -31825   -31848   -31817   -31847   -31910   -31849   -31818   -31890 
  -31884   -31818   -31824   -31857   -31857   -31880   -31902   -31870 
  -31848   -31831   -31813   -31869   -31910   -31848   -31831   -31878 
  -31869   -31847   -31816   -31798   -31876   -31921   -31873   -31875 
  -31870   -31776   -31766   -31860   -31892   -31895   -31886   -31836 
  -31831   -31859   -31874   -31876   -31849   -31847   -31879   -31855 
  -31829   -31870   -31860   -31825   -31869   -31864   -31846   -31884 
  -31853   -31825   -31858   -31846   -31819   -31844   -31892   -31894 
  -31829   -31792   -31847   -31916   -31907   -31860   -31871   -31885 
  -31803   -31755   -31841   -31909   -31915   -31907   -31853   -31830 
  -31845   -31830   -31836   -31841   -31836   -31878   -31898   -31873 
  -31839   -31807   -31813   -31867   -31893   -31845   -31850   -31901 
  -31829   -31776   -31850   -31881   -31866   -31869   -31868   -31848 
  -31833   -31870   -31881   -31829   -31840   -31864   -31839   -31876 
  -31913   -31834   -31794   -31882   -31901   -31835   -31831   -31830 
  -31843   -31885   -31853   -31846   -31880   -31854   -31833   -31836 
  -31866   -31881   -31826   -31824   -31866   -31860   -31877   -31871 
  -31808   -31829   -31867   -31828   -31889   -31962   -31853   -31802 
  -31867   -31826   -31796   -31865   -31875   -31871   -31911   -31863 
  -31790   -31834   -31869   -31831   -31839   -31879   -31883   -31880 
  -31866   -31834   -31842   -31848   -31823   -31888   -31957   -31863 
  -31788   -31814   -31821   -31854   -31896   -31895   -31884   -31829 
  -31789   -31849   -31914   -31905   -31852   -31805   -31794   -31815 
  -31854   -31890   -31921   -31924   -31855   -31794   -31814   -31844 
  -31863   -31868   -31859   -31863   -31857   -31882   -31912   -31828 
  -31768   -31833   -31853   -31836   -31909   -31955   -31902   -31845 
  -31780   -31771   -31853   -31879   -31898   -31937   -31869   -31795 
  -31785   -31809   -31886   -31921   -31876   -31834   -31791   -31776 
  -31861   -31948   -31936   -31891   -31829   -31768   -31819   -31890 
  -31862   -31874   -31935   -31878   -31772   -31781   -31849   -31883 
  -31923   -31901   -31823   -31846   -31850   -31781   -31828   -31911 
  -31911   -31922   -31895   -31783   -31758   -31845   -31889   -31891 
  -31912   -31941   -31935   -31833   -31766   -31860   -31913   -31875 
  -31912   -31886   -31750   -31760   -31869   -31886   -31859   -31831 
  -31776   -31757   -31874   -32056   -32114   -31988   -31811   -31708 
  -31628   -31598   -31744   -31942   -31946   -31759   -31601   -31625 
  -31763   -31839   -31897   -32055   -32142   -32037   -31887   -31813 
  -31881   -32064   -32112   -31924   -31723   -31637   -31602   -31675 
  -31895   -32007   -31989   -31989   -31839   -31675   -31851   -32155 
  -32154   -31885   -31761   -31803   -31730   -31666   -31796   -31937 
  -31858   -31696   -31731   -31859   -31860   -31817   -31849   -31913 
  -31912   -31823   -31768   -31860   -32008   -32010   -31872   -31786 
  -31818   -31885   -31935   -31977   -31951   -31839   -31749   -31687 
  -31713   -31883   -31900   -31693   -31667   -31855   -31906   -31882 
  -32031   -32118   -31923   -31773   -31841   -31890   -31830   -31790 
  -31843   -31859   -31768   -31747   -31856   -31901   -31863   -31924 
  -31960   -31842   -31812   -31879   -31856   -31827   -31858   -31856 
  -31793   -31773   -31846   -31887   -31870   -31880   -31871   -31828 
  -31809   -31856   -31962   -31994   -31909   -31785   -31669   -31702 
  -31878   -31928   -31851   -31851   -31890   -31868   -31848   -31934 
  -31994   -31840   -31739   -31891   -31929   -31783   -31788   -31886 
  -31867   -31827   -31827   -31830   -31875   -31858   -31792   -31852 
  -31878   -31805   -31843   -31877   -31821   -31851   -31910   -31883 
  -31861   -31828   -31752   -31795   -31910   -31903   -31896   -31947 
  -31896   -31830   -31828   -31796   -31804   -31897   -31953   -31932 
  -31861   -31783   -31802   -31882   -31856   -31800   -31895   -31965 
  -31865   -31771   -31759   -31808   -31845   -31823   -31887   -31965 
  -31875   -31782   -31818   -31871   -31903   -31945   -31930   -31860 
  -31833   -31813   -31825   -31912   -31949   -31902   -31794   -31683 
  -31724   -31846   -31913   -31943   -31915   -31827   -31764   -31768 
  -31819   -31872   -31897   -31935   -31944   -31837   -31758   -31823 
  -31866   -31837   -31877   -31956   -31939   -31868   -31822   -31803 
  -31822   -31853   -31849   -31850   -31890   -31863   -31744   -31769 
  -31924   -31898   -31784   -31824   -31883   -31849   -31823   -31903 
  -32004   -31970   -31865   -31806   -31814   -31869   -31856   -31802 
  -31853   -31905   -31835   -31766   -31794   -31870   -31893   -31860 
  -31876   -31901   -31842   -31811   -31859   -31883   -31888   -31903 
  -31881   -31871   -31864   -31818   -31819   -31860   -31861   -31846 
  -31845   -31830   -31801   -31831   -31894   -31909   -31905   -31877 
  -31804   -31788   -31845   -31872   -31854   -31837   -31842   -31851 
  -31834   -31828   -31875   -31919   -31879   -31828   -31873   -31928 
  -31890   -31817   -31803   -31835   -31846   -31861   -31873   -31855 
  -31850   -31841   -31816   -31816   -31852   -31879   -31867   -31854 
  -31850   -31838   -31851   -31896   -31907   -31848   -31790   -31818 
  -31870   -31863   -31871   -31900   -31862   -31809   -31816   -31855 
  -31859   -31856   -31882   -31856   -31818   -31856   -31864   -31828 
  -31867   -31919   -31867   -31813   -31867   -31875   -31834   -31880 
  -31871   -31794   -31810   -31866   -31889   -31888   -31883   -31850 
  -31803   -31834   -31883   -31874   -31875   -31876   -31824   -31742 
  -31730   -31844   -31935   -31913   -31898   -31903   -31851   -31797 
  -31815   -31837   -31823   -31844   -31894   -31889   -31841   -31839 
  -31858   -31804   -31786   -31892   -31953   -31897   -31853   -31873 
  -31885   -31840   -31795   -31812   -31859   -31869   -31844   -31861 
  -31900   -31870   -31809   -31808   -31855   -31843   -31781   -31831 
  -31965   -31964   -31853   -31851   -31880   -31778   -31759   -31892 
  -31904   -31841   -31875   -31898   -31857   -31819   -31812   -31835 
  -31857   -31853   -31843   -31885   -31924   -31860   -31759   -31761 
  -31859   -31907   -31856   -31849   -31908   -31884   -31808   -31830 
  -31905   -31892   -31813   -31784   -31834   -31884   -31873   -31862 
  -31857   -31838   -31877   -31891   -31829   -31826   -31871   -31892 
  -31878   -31859   -31860   -31821   -31797   -31818   -31803   -31838 
  -31941   -31943   -31840   -31809   -31895   -31913   -31802   -31765 
  -31854   -31907   -31881   -31855   -31832   -31805   -31830   -31875 
  -31877   -31891   -31910   -31860   -31837   -31890   -31862   -31806 
  -31864   -31886   -31807   -31781   -31847   -31920   -31896   -31815 
  -31813   -31882   -31894   -31818   -31781   -31859   -31934   -31877 
  -31792   -31827   -31863   -31825   -31839   -31860   -31845   -31893 
  -31924   -31868   -31824   -31814   -31831   -31866   -31860   -31862 
  -31912   -31883   -31775   -31810   -31938   -31915   -31839   -31830 
  -31809   -31832   -31894   -31848   -31791   -31859   -31899   -31854 
  -31835   -31856   -31915   -31925   -31825   -31778   -31824   -31853 
  -31863   -31850   -31808   -31808   -31861   -31897   -31898   -31892 
  -31879   -31831   -31789   -31849   -31916   -31871   -31830   -31825 
