Origin Time       2016/09/25 22:56:00
Lat.              35.372
Long.             134.733
Depth. (km)       7
Mag.              2.9
Station Code      KYTH03
Station Lat.      35.313
Station Long.     135.1334
Station Height(m) -260
Record Time       2016/09/25 22:56:17
Sampling Freq(Hz) 100Hz
Duration Time(s)  120
Dir.              3
Scale Factor      2940(gal)/6170270
Max. Acc. (gal)   0.092
Last Correction   2016/09/25 22:56:02
Memo.             
[...]
   42098    42097    42093    42092    42095    42094    42094    42095 
   42094    42094    42094    42094    42095    42095    42095    42094 
   42093    42094    42094    42094    42096    42096    42095    42097 
   42098    42095    42094    42095    42095    42095    42095    42095 
   42096    42095    42094    42094    42095    42096    42096    42097 
   42097    42096    42095    42095    42094    42092    42095    42097 
   42094    42093    42094    42094    42093    42094    42095    42096 
   42095    42094    42095    42094    42094    42094    42093    42093 
   42095    42097    42097    42095    42095    42096    42094    42094 
   42096    42095    42094    42096    42095    42095    42095    42096 
   42097    42096    42094    42095    42096    42095    42094    42095 
   42095    42096    42097    42095    42094    42095    42095    42094 
   42095    42095    42095    42095    42097    42096    42096    42095 
   42094    42094    42095    42095    42094    42094    42095    42096 
   42096    42095    42096    42096    42097    42097    42095    42093 
   42096    42097    42096    42096    42095    42093    42094    42097 
   42096    42096    42096    42095    42094    42094    42095    42095 
   42095    42095    42094    42094    42095    42095    42095    42096 
   42095    42093    42095    42096    42093    42094    42097    42095 
   42094    42097    42096    42094    42095    42095    42093    42094 
   42096    42096    42095    42095    42094    42094    42095    42095 
   42095    42096    42097    42096    42096    42097    42097    42095 
   42094    42094    42095    42095    42095    42094    42093    42095 
   42096    42095    42096    42097    42095    42094    42094    42096 
   42095    42095    42095    42095    42096    42096    42095    42096 
   42096    42095    42094    42094    42093    42094    42095    42095 
   42096    42096    42095    42095    42094    42094    42096    42095 
   42093    42095    42095    42094    42095    42095    42094    42094 
   42096    42096    42096    42096    42096    42095    42094    42093 
   42094    42096    42095    42094    42093    42094    42096    42096 
   42094    42094    42094    42095    42095    42094    42095    42096 
   42096    42094    42095    42096    42095    42094    42093    42094 
   42096    42095    42094    42095    42095    42095    42096    42097 
   42095    42094    42095    42096    42095    42096    42097    42095 
   42093    42094    42095    42094    42093    42094    42094    42094 
   42095    42095    42094    42094    42095    42095    42096    42097 
   42096    42095    42093    42094    42096    42096    42095    42095 
   42094    42096    42097    42095    42094    42096    42096    42096 
   42096    42094    42095    42095    42095    42095    42095    42095 
   42094    42093    42092    42093    42094    42096    42096    42094 
   42094    42096    42096    42096    42096    42095    42095    42095 
   42094    42094    42095    42095    42096    42096    42096    42096 
   42096    42095    42096    42096    42095    42095    42096    42096 
   42095    42096    42097    42096    42095    42096    42095    42094 
   42094    42095    42097    42096    42096    42095    42095    42095 
   42096    42093    42093    42097    42097    42095    42095    42096 
   42096    42095    42095    42095    42094    42094    42095    42096 
   42094    42095    42096    42095    42095    42094    42094    42096 
   42095    42095    42096    42095    42094    42094    42095    42096 
   42096    42095    42095    42095    42094    42095    42094    42094 
   42096    42096    42095    42095    42095    42094    42095    42095 
   42094    42095    42096    42096    42094    42094    42096    42097 
   42095    42093    42094    42094    42094    42095    42094    42095 
   42096    42095    42096    42097    42095    42092    42093    42095 
   42094    42092    42095    42097    42095    42093    42093    42095 
   42097    42097    42096    42095    42095    42094    42093    42093 
   42094    42094    42095    42096    42096    42095    42094    42095 
   42095    42093    42094    42095    42094    42094    42094    42093 
   42093    42094    42094    42095    42094    42095    42096    42095 
   42094    42096    42096    42095    42095    42096    42095    42094 
   42095    42096    42095    42094    42094    42095    42094    42095 
   42097    42096    42095    42095    42094    42093    42093    42094 
   42093    42093    42095    42095    42095    42095    42094    42095 
   42097    42096    42096    42096    42095    42095    42095    42093 
   42094    42093    42092    42094    42095    42095    42094    42092 
   42093    42096    42096    42095    42094    42094    42095    42096 
   42095    42094    42093    42094    42094    42095    42096    42094 
   42094    42095    42094    42095    42096    42095    42095    42096 
   42094    42093    42094    42093    42092    42094    42095    42094 
   42094    42093    42093    42094    42095    42095    42093    42094 
   42095    42095    42095    42094    42093    42095    42096    42094 
   42093    42095    42095    42094    42094    42094    42093    42094 
   42096    42094    42093    42095    42095    42092    42092    42094 
   42094    42094    42096    42095    42094    42095    42097    42097 
   42095    42094    42096    42095    42093    42093    42095    42095 
   42095    42095    42095    42096    42096    42095    42095    42094 
   42093    42095    42095    42094    42094    42096    42095    42093 
   42095    42096    42096    42095    42094    42094    42095    42096 
   42096    42094    42094    42095    42094    42095    42096    42094 
   42093    42095    42095    42094    42094    42096    42097    42093 
   42092    42094    42094    42094    42096    42095    42094    42095 
   42096    42096    42094    42092    42094    42096    42093    42093 
   42095    42096    42094    42094    42096    42097    42095    42094 
   42095    42096    42094    42094    42096    42095    42095    42095 
   42095    42095    42095    42094    42095    42096    42096    42096 
   42095    42093    42094    42095    42093    42092    42094    42096 
   42095    42092    42094    42095    42094    42093    42094    42094 
   42093    42094    42095    42095    42093    42092    42094    42094 
   42094    42095    42095    42094    42094    42094    42095    42094 
   42092    42094    42095    42094    42094    42094    42094    42094 
   42095    42095    42094    42094    42095    42093    42093    42096 
   42096    42095    42095    42095    42094    42094    42094    42094 
   42094    42094    42094    42094    42093    42093    42093    42094 
   42094    42093    42093    42094    42095    42095    42094    42093 
   42092    42093    42094    42093    42093    42095    42096    42096 
   42096    42096    42094    42092    42094    42095    42094    42094 
   42095    42094    42094    42096    42096    42095    42093    42093 
   42094    42092    42094    42097    42095    42095    42096    42094 
   42094    42094    42093    42094    42095    42093    42093    42094 
   42093    42095    42097    42096    42095    42095    42094    42094 
   42095    42094    42095    42095    42095    42094    42094    42095 
   42095    42095    42095    42095    42094    42095    42096    42096 
   42096    42093    42091    42094    42096    42095    42094    42095 
   42095    42094    42094    42095    42094    42094    42097    42096 
   42094    42095    42094    42094    42096    42095    42094    42095 
   42094    42093    42096    42096    42094    42094    42095    42096 
   42097    42097    42095    42093    42096    42097    42095    42094 
   42095    42096    42096    42095    42094    42094    42094    42094 
   42094    42093    42097    42097    42094    42094    42095    42096 
   42094    42094    42097    42097    42094    42095    42097    42095 
   42094    42095    42096    42094    42093    42095    42096    42095 
   42095    42095    42094    42093    42093    42094    42094    42095 
   42096    42096    42094    42093    42095    42096    42094    42094 
   42096    42095    42093    42094    42096    42096    42096    42095 
   42095    42095    42094    42094    42095    42095    42097    42096 
   42094    42093    42096    42096    42095    42095    42095    42095 
   42096    42097    42096    42096    42095    42094    42096    42095 
   42094    42095    42094    42093    42096    42096    42092    42093 
   42095    42094    42095    42095    42093    42095    42096    42095 
   42096    42097    42095    42094    42095    42095    42096    42097 
   42095    42094    42096    42096    42097    42097    42094    42093 
   42094    42094    42094    42095    42094    42095    42097    42095 
   42092    42094    42097    42096    42094    42095    42094    42093 
   42094    42096    42096    42095    42093    42094    42096    42095 
   42095    42097    42096    42095    42095    42094    42093    42094 
   42094    42091    42086    42085    42081    42076    42087    42112 
   42127    42109    42075    42058    42085    42134    42120    42084 
   42123    42105    42045    42143    42165    42019    42053    42136 
   42058    42088    42155    42074    42071    42125    42088    42092 
   42112    42079    42080    42096    42098    42094    42087    42104 
   42108    42083    42083    42092    42089    42094    42099    42091 
   42085    42092    42098    42102    42110    42104    42093    42090 
   42087    42098    42099    42089    42099    42100    42090    42097 
   42095    42077    42087    42103    42090    42085    42097    42096 
   42098    42103    42097    42089    42093    42095    42086    42094 
   42104    42089    42089    42100    42088    42094    42119    42101 
   42072    42084    42093    42084    42089    42098    42097    42097 
   42093    42093    42095    42095    42101    42107    42102    42097 
   42087    42090    42106    42098    42089    42096    42077    42062 
   42084    42104    42099    42085    42087    42100    42093    42090 
   42110    42104    42086    42098    42102    42094    42097    42091 
   42087    42103    42112    42102    42087    42082    42092    42101 
   42095    42085    42091    42104    42095    42082    42095    42101 
   42092    42095    42093    42086    42088    42084    42092    42098 
   42080    42083    42101    42099    42096    42104    42104    42094 
   42105    42122    42106    42091    42095    42094    42094    42094 
   42090    42090    42092    42089    42093    42096    42092    42093 
   42095    42101    42104    42093    42090    42096    42097    42093 
   42084    42082    42093    42099    42094    42090    42091    42094 
   42093    42094    42096    42089    42092    42100    42091    42095 
   42105    42097    42093    42100    42097    42089    42092    42095 
   42097    42101    42094    42086    42099    42102    42090    42095 
   42104    42089    42080    42099    42103    42088    42091    42104 
   42102    42096    42095    42099    42095    42085    42090    42097 
   42089    42088    42096    42091    42092    42106    42103    42086 
   42089    42095    42089    42098    42105    42093    42089    42098 
   42097    42092    42090    42092    42094    42089    42097    42106 
   42086    42080    42104    42100    42079    42096    42102    42085 
   42099    42107    42091    42095    42093    42089    42110    42098 
   42071    42084    42101    42095    42095    42102    42098    42093 
   42093    42087    42088    42104    42103    42085    42082    42090 
   42092    42091    42084    42083    42101    42103    42095    42101 
   42085    42076    42103    42110    42095    42093    42100    42097 
   42092    42093    42094    42092    42097    42108    42105    42090 
   42095    42103    42095    42094    42100    42098    42088    42086 
   42089    42087    42093    42097    42089    42083    42091    42102 
   42099    42092    42095    42099    42100    42108    42101    42084 
   42092    42102    42093    42093    42091    42083    42094    42098 
   42093    42099    42096    42094    42102    42099    42098    42098 
   42081    42082    42100    42099    42098    42102    42096    42093 
   42087    42088    42104    42097    42082    42100    42109    42091 
   42088    42101    42091    42078    42099    42110    42084    42077 
   42097    42100    42091    42093    42098    42095    42086    42079 
   42090    42109    42104    42089    42092    42103    42096    42088 
   42101    42106    42100    42103    42089    42083    42101    42092 
   42082    42098    42095    42093    42097    42090    42100    42098 
   42077    42095    42113    42099    42097    42099    42085    42075 
   42083    42097    42099    42096    42096    42096    42097    42095 
   42091    42102    42105    42086    42091    42098    42074    42087 
   42126    42114    42088    42088    42086    42096    42107    42091 
   42089    42103    42100    42086    42069    42093    42126    42105 
   42094    42109    42087    42071    42099    42099    42079    42094 
   42105    42082    42065    42081    42106    42111    42104    42088 
   42054    42049    42079    42075    42059    42086    42100    42084 
   42115    42160    42134    42100    42084    42008    41949    41984 
   42002    42010    42092    42158    42175    42222    42265    42274 
   42287    42273    42207    42119    42036    42004    41991    41941 
   41909    41937    41973    41994    42064    42190    42260    42258 
   42241    42199    42142    42107    42104    42133    42119    42016 
   41974    42040    42038    42004    42066    42115    42084    42072 
   42114    42125    42081    42070    42096    42058    42004    42039 
   42092    42080    42056    42081    42109    42097    42092    42119 
   42159    42170    42123    42126    42190    42149    42075    42115 
   42125    42048    42043    42072    42043    42032    42059    42083 
   42097    42105    42128    42145    42137    42125    42103    42086 
   42089    42076    42062    42074    42069    42066    42098    42122 
   42129    42137    42128    42111    42110    42112    42110    42088 
   42062    42077    42087    42069    42093    42127    42115    42084 
   42058    42067    42089    42087    42077    42054    42054    42093 
   42101    42097    42113    42112    42107    42111    42113    42115 
   42109    42103    42101    42093    42090    42104    42103    42089 
   42096    42092    42081    42099    42093    42065    42092    42125 
   42088    42064    42107    42118    42070    42071    42118    42093 
   42046    42092    42133    42100    42109    42150    42132    42094 
   42100    42113    42086    42068    42099    42105    42079    42067 
   42059    42085    42116    42086    42083    42123    42107    42078 
   42076    42071    42098    42137    42095    42057    42118    42130 
   42069    42072    42083    42066    42094    42113    42094    42086 
   42086    42091    42095    42083    42079    42082    42078    42089 
   42121    42134    42114    42099    42106    42101    42082    42088 
   42096    42074    42078    42108    42102    42089    42094    42092 
   42082    42082    42107    42114    42098    42113    42118    42090 
   42085    42096    42105    42105    42084    42081    42110    42108 
   42090    42105    42109    42091    42099    42095    42073    42094 
   42110    42081    42076    42095    42100    42097    42092    42105 
   42118    42090    42076    42093    42094    42088    42082    42092 
   42119    42102    42072    42093    42114    42104    42082    42062 
   42060    42066    42071    42075    42060    42069    42105    42112 
   42108    42109    42105    42105    42104    42109    42119    42100 
   42079    42088    42102    42095    42067    42069    42100    42095 
   42063    42063    42094    42106    42089    42098    42120    42102 
   42091    42110    42089    42075    42115    42110    42059    42066 
   42097    42089    42085    42098    42108    42110    42093    42088 
   42106    42095    42090    42115    42108    42097    42112    42103 
   42095    42118    42118    42094    42097    42099    42076    42079 
   42089    42070    42072    42097    42096    42096    42110    42112 
   42112    42107    42092    42085    42078    42082    42104    42111 
   42096    42078    42078    42099    42100    42072    42074    42108 
   42107    42081    42093    42116    42097    42066    42075    42103 
   42117    42119    42110    42099    42106    42110    42076    42058 
   42086    42101    42098    42105    42114    42111    42105    42096 
   42073    42076    42107    42099    42086    42101    42101    42091 
   42083    42083    42108    42131    42110    42090    42103    42107 
   42093    42088    42094    42103    42091    42067    42087    42110 
   42069    42058    42111    42104    42059    42083    42114    42104 
   42103    42110    42103    42087    42075    42081    42094    42103 
   42112    42102    42076    42076    42088    42095    42109    42101 
   42075    42083    42108    42106    42097    42096    42100    42107 
   42105    42103    42094    42073    42089    42111    42086    42078 
   42114    42107    42064    42090    42132    42098    42082    42106 
   42082    42071    42104    42113    42105    42097    42099    42115 
   42091    42066    42092    42093    42067    42080    42093    42101 
   42110    42092    42089    42109    42093    42071    42087    42109 
   42103    42090    42095    42100    42098    42108    42108    42096 
   42096    42097    42104    42109    42087    42068    42074    42088 
   42099    42084    42065    42088    42095    42078    42088    42096 
   42090    42097    42104    42111    42104    42093    42107    42105 
   42093    42117    42135    42109    42097    42097    42077    42076 
   42090    42092    42101    42102    42089    42090    42105    42112 
   42097    42083    42098    42114    42087    42058    42076    42109 
   42106    42076    42078    42102    42087    42069    42090    42096 
   42088    42100    42114    42110    42094    42087    42097    42102 
   42103    42100    42075    42072    42101    42100    42091    42114 
   42123    42094    42077    42097    42108    42083    42072    42098 
   42105    42084    42081    42102    42122    42106    42082    42101 
   42111    42092    42094    42116    42113    42090    42091    42104 
   42093    42085    42088    42083    42095    42121    42110    42075 
   42076    42101    42090    42072    42093    42106    42098    42105 
   42108    42088    42075    42090    42103    42097    42093    42078 
   42071    42104    42115    42091    42095    42102    42085    42083 
   42092    42090    42090    42094    42092    42080    42073    42092 
   42112    42103    42084    42094    42117    42110    42091    42092 
   42099    42097    42078    42074    42095    42095    42087    42103 
   42100    42084    42102    42117    42094    42084    42100    42099 
   42094    42110    42111    42089    42084    42103    42105    42093 
   42104    42110    42095    42094    42098    42096    42101    42107 
   42098    42081    42081    42099    42105    42086    42076    42098 
