Origin Time       2016/09/25 22:56:00
Lat.              35.372
Long.             134.733
Depth. (km)       7
Mag.              2.9
Station Code      KYTH03
Station Lat.      35.313
Station Long.     135.1334
Station Height(m) -260
Record Time       2016/09/25 22:56:17
Sampling Freq(Hz) 100Hz
Duration Time(s)  120
Dir.              2
Scale Factor      2940(gal)/6170270
Max. Acc. (gal)   0.076
Last Correction   2016/09/25 22:56:02
Memo.             
[...]
  177840   177838   177841   177840   177838   177839   177842   177845 
  177843   177839   177839   177842   177842   177842   177843   177840 
  177839   177842   177843   177843   177844   177842   177839   177841 
  177842   177842   177842   177842   177841   177840   177838   177839 
  177843   177843   177841   177839   177841   177845   177841   177837 
  177839   177840   177841   177843   177840   177841   177844   177843 
  177841   177840   177840   177842   177844   177842   177839   177840 
  177840   177839   177840   177839   177841   177845   177841   177839 
  177842   177842   177843   177843   177840   177841   177842   177841 
  177840   177839   177839   177841   177845   177841   177836   177844 
  177846   177840   177841   177837   177835   177840   177840   177841 
  177846   177843   177838   177839   177840   177836   177838   177842 
  177841   177841   177842   177839   177839   177841   177841   177841 
  177841   177843   177841   177836   177841   177842   177836   177840 
  177846   177843   177838   177838   177841   177839   177839   177844 
  177844   177844   177844   177838   177839   177842   177841   177843 
  177842   177840   177840   177839   177843   177842   177836   177838 
  177840   177841   177843   177840   177838   177842   177841   177837 
  177838   177837   177840   177845   177842   177842   177843   177838 
  177842   177845   177838   177841   177846   177842   177839   177841 
  177842   177841   177841   177842   177837   177836   177844   177843 
  177836   177839   177844   177842   177839   177841   177841   177840 
  177841   177842   177844   177844   177839   177839   177842   177841 
  177838   177840   177844   177844   177838   177839   177845   177842 
  177839   177842   177841   177840   177843   177841   177841   177841 
  177841   177843   177842   177837   177839   177840   177841   177844 
  177844   177840   177844   177844   177840   177844   177844   177842 
  177844   177841   177840   177844   177841   177841   177843   177840 
  177838   177839   177839   177840   177840   177842   177842   177840 
  177842   177846   177842   177842   177843   177841   177845   177845 
  177838   177842   177847   177842   177838   177839   177843   177843 
  177841   177842   177845   177843   177841   177844   177843   177841 
  177843   177843   177841   177844   177842   177837   177841   177843 
  177837   177838   177844   177842   177839   177841   177842   177841 
  177842   177842   177838   177839   177841   177840   177841   177840 
  177840   177846   177843   177840   177842   177843   177843   177841 
  177839   177841   177844   177842   177838   177843   177844   177836 
  177840   177847   177840   177838   177844   177845   177842   177840 
  177839   177841   177840   177839   177845   177844   177839   177840 
  177843   177839   177838   177840   177839   177842   177844   177841 
  177845   177844   177838   177843   177844   177839   177842   177845 
  177842   177842   177842   177841   177843   177842   177837   177841 
  177843   177840   177845   177847   177837   177837   177844   177840 
  177838   177844   177843   177841   177843   177842   177841   177841 
  177839   177837   177839   177844   177844   177840   177842   177844 
  177840   177835   177837   177841   177846   177843   177836   177838 
  177847   177845   177840   177840   177840   177840   177842   177843 
  177841   177841   177841   177841   177843   177840   177843   177848 
  177843   177840   177843   177844   177842   177843   177842   177841 
  177844   177844   177840   177839   177842   177840   177837   177841 
  177845   177847   177846   177840   177838   177838   177838   177843 
  177845   177837   177838   177846   177844   177839   177841   177841 
  177838   177841   177842   177841   177843   177841   177840   177844 
  177845   177841   177840   177841   177840   177838   177839   177838 
  177838   177842   177844   177842   177840   177839   177840   177842 
  177842   177842   177842   177844   177844   177838   177836   177839 
  177842   177844   177842   177842   177842   177841   177841   177843 
  177840   177840   177843   177840   177839   177842   177842   177841 
  177842   177841   177839   177843   177843   177842   177844   177843 
  177837   177839   177846   177843   177840   177841   177840   177842 
  177843   177839   177840   177842   177842   177842   177838   177839 
  177844   177841   177837   177838   177841   177845   177843   177841 
  177844   177845   177841   177842   177841   177839   177842   177846 
  177847   177843   177838   177839   177840   177839   177842   177845 
  177841   177839   177841   177844   177842   177841   177843   177843 
  177843   177841   177839   177841   177844   177841   177839   177841 
  177844   177843   177841   177841   177842   177844   177844   177839 
  177839   177841   177842   177841   177841   177843   177844   177843 
  177845   177843   177839   177839   177841   177840   177839   177841 
  177845   177843   177840   177843   177844   177840   177841   177843 
  177842   177847   177846   177838   177840   177847   177846   177838 
  177836   177846   177847   177838   177840   177843   177836   177841 
  177847   177842   177842   177842   177839   177842   177842   177843 
  177846   177842   177839   177845   177845   177841   177843   177846 
  177843   177843   177843   177839   177842   177846   177838   177839 
  177846   177843   177840   177841   177840   177841   177840   177840 
  177845   177846   177841   177840   177842   177842   177840   177838 
  177842   177844   177839   177842   177845   177841   177841   177842 
  177839   177840   177839   177840   177841   177841   177842   177846 
  177845   177839   177839   177843   177843   177843   177842   177839 
  177841   177842   177842   177841   177839   177840   177841   177839 
  177842   177842   177840   177843   177843   177840   177840   177842 
  177843   177841   177840   177842   177841   177839   177842   177843 
  177842   177840   177839   177842   177842   177838   177840   177843 
  177843   177843   177839   177837   177839   177841   177844   177847 
  177846   177842   177842   177843   177843   177841   177841   177844 
  177843   177839   177836   177840   177843   177842   177839   177840 
  177840   177839   177841   177844   177845   177838   177834   177840 
  177845   177842   177838   177843   177843   177838   177842   177846 
  177843   177840   177839   177839   177843   177843   177840   177841 
  177842   177837   177837   177844   177845   177842   177841   177841 
  177842   177844   177842   177839   177840   177845   177845   177842 
  177843   177843   177840   177843   177842   177840   177844   177843 
  177838   177838   177839   177841   177846   177845   177840   177842 
  177839   177836   177842   177845   177843   177842   177840   177840 
  177842   177842   177841   177841   177845   177843   177840   177844 
  177847   177842   177841   177843   177842   177840   177841   177841 
  177841   177843   177844   177842   177841   177841   177841   177842 
  177842   177843   177844   177841   177840   177841   177840   177841 
  177840   177840   177844   177842   177841   177843   177840   177838 
  177839   177842   177842   177841   177839   177837   177842   177846 
  177840   177839   177846   177845   177842   177844   177843   177841 
  177842   177839   177839   177838   177840   177846   177842   177837 
  177845   177845   177840   177842   177841   177840   177847   177844 
  177839   177848   177849   177841   177840   177844   177840   177840 
  177844   177840   177840   177845   177843   177840   177841   177844 
  177847   177842   177840   177845   177843   177842   177844   177840 
  177842   177845   177841   177841   177844   177843   177842   177844 
  177842   177844   177847   177843   177843   177845   177841   177839 
  177842   177845   177844   177843   177844   177843   177842   177843 
  177845   177845   177844   177844   177844   177842   177842   177844 
  177841   177841   177841   177839   177844   177847   177842   177839 
  177842   177843   177843   177842   177839   177841   177844   177841 
  177839   177841   177841   177843   177847   177846   177841   177842 
  177845   177844   177839   177838   177845   177843   177837   177843 
  177840   177835   177846   177846   177837   177843   177843   177835 
  177842   177842   177837   177840   177841   177841   177843   177842 
  177839   177835   177837   177844   177846   177842   177839   177842 
  177846   177846   177843   177841   177839   177839   177840   177841 
  177846   177846   177839   177840   177846   177844   177840   177842 
  177845   177844   177843   177842   177842   177842   177837   177839 
  177847   177845   177843   177844   177840   177841   177844   177842 
  177842   177844   177844   177844   177842   177841   177845   177845 
  177842   177842   177845   177842   177841   177843   177843   177843 
  177841   177841   177845   177845   177840   177840   177843   177840 
  177835   177835   177833   177824   177812   177805   177816   177858 
  177907   177911   177874   177838   177851   177898   177857   177763 
  177798   177829   177787   177888   177909   177751   177789   177897 
  177879   177888   177845   177759   177797   177863   177863   177869 
  177875   177830   177832   177906   177884   177834   177866   177833 
  177781   177817   177821   177811   177835   177830   177830   177838 
  177848   177890   177893   177857   177845   177844   177846   177843 
  177834   177820   177806   177820   177827   177823   177849   177864 
  177856   177845   177832   177829   177842   177856   177847   177835 
  177839   177840   177851   177864   177849   177845   177854   177842 
  177830   177825   177825   177833   177833   177837   177852   177845 
  177831   177840   177848   177847   177840   177832   177848   177862 
  177853   177857   177863   177842   177833   177845   177835   177828 
  177841   177834   177825   177834   177845   177861   177855   177833 
  177848   177859   177836   177834   177850   177851   177842   177833 
  177824   177831   177848   177846   177843   177856   177847   177828 
  177839   177855   177852   177848   177837   177825   177842   177852 
  177837   177834   177843   177860   177855   177832   177837   177832 
  177821   177837   177842   177842   177845   177836   177842   177851 
  177842   177845   177854   177853   177853   177851   177841   177838 
  177843   177845   177848   177837   177822   177837   177845   177831 
  177838   177848   177850   177855   177845   177845   177852   177829 
  177828   177856   177850   177841   177847   177844   177852   177855 
  177846   177845   177831   177824   177838   177832   177824   177838 
  177847   177850   177856   177851   177847   177855   177853   177846 
  177849   177831   177817   177834   177841   177826   177834   177856 
  177851   177838   177848   177846   177839   177849   177846   177846 
  177851   177831   177832   177857   177849   177829   177832   177848 
  177853   177849   177846   177837   177824   177831   177847   177848 
  177841   177839   177834   177836   177851   177859   177854   177850 
  177842   177836   177843   177842   177834   177834   177840   177845 
  177855   177864   177851   177830   177827   177838   177852   177853 
  177833   177834   177856   177851   177843   177850   177838   177837 
  177854   177838   177828   177843   177831   177835   177871   177854 
  177821   177846   177857   177838   177849   177849   177826   177838 
  177858   177842   177824   177835   177854   177859   177856   177846 
  177837   177831   177833   177840   177839   177836   177850   177861 
  177845   177830   177842   177857   177850   177829   177828   177845 
  177843   177833   177835   177839   177847   177854   177849   177845 
  177851   177850   177835   177830   177846   177854   177836   177831 
  177842   177839   177834   177841   177845   177841   177838   177848 
  177857   177848   177836   177838   177855   177853   177834   177843 
  177851   177836   177845   177856   177840   177832   177839   177841 
  177847   177852   177838   177831   177844   177846   177850   177849 
  177831   177834   177842   177837   177845   177848   177850   177851 
  177834   177840   177855   177834   177826   177855   177862   177839 
  177844   177863   177838   177821   177849   177850   177823   177820 
  177837   177849   177838   177839   177860   177852   177844   177857 
  177854   177848   177844   177829   177832   177839   177836   177847 
  177856   177852   177847   177847   177846   177840   177831   177822 
  177821   177833   177840   177839   177846   177855   177863   177856 
  177836   177844   177858   177844   177838   177834   177832   177841 
  177823   177811   177840   177857   177847   177834   177836   177857 
  177857   177844   177854   177849   177832   177842   177847   177846 
  177853   177844   177836   177833   177829   177849   177841   177804 
  177830   177857   177852   177855   177840   177838   177855   177846 
  177847   177856   177838   177834   177850   177849   177850   177862 
  177851   177830   177826   177816   177806   177830   177851   177824 
  177809   177833   177833   177831   177870   177894   177883   177869 
  177848   177807   177778   177795   177853   177923   177973   177992 
  177961   177872   177810   177823   177824   177787   177771   177744 
  177685   177681   177716   177737   177813   177886   177833   177800 
  177887   177935   177927   177965   177965   177879   177836   177820 
  177787   177828   177922   177969   177901   177772   177807   177961 
  177947   177832   177841   177891   177801   177681   177739   177872 
  177870   177784   177793   177879   177851   177802   177901   177921 
  177785   177760   177840   177837   177791   177792   177821   177845 
  177855   177865   177887   177890   177855   177809   177781   177802 
  177853   177874   177847   177808   177789   177803   177855   177881 
  177885   177925   177906   177828   177828   177839   177815   177838 
  177848   177829   177856   177863   177823   177838   177882   177852 
  177814   177844   177868   177854   177845   177855   177841   177820 
  177849   177866   177845   177832   177809   177789   177790   177813 
  177843   177843   177833   177839   177844   177862   177876   177853 
  177854   177872   177830   177813   177862   177851   177822   177864 
  177871   177835   177848   177878   177876   177845   177819   177831 
  177840   177820   177822   177840   177835   177836   177842   177827 
  177830   177861   177863   177828   177809   177819   177837   177848 
  177836   177836   177855   177835   177816   177837   177847   177860 
  177872   177824   177799   177851   177863   177847   177889   177909 
  177864   177829   177830   177819   177806   177852   177891   177858 
  177846   177864   177826   177798   177819   177806   177805   177849 
  177837   177812   177843   177860   177848   177853   177876   177870 
  177845   177840   177830   177831   177859   177856   177824   177814 
  177826   177833   177840   177835   177817   177832   177866   177873 
  177857   177845   177843   177836   177834   177842   177828   177825 
  177858   177866   177844   177834   177844   177864   177864   177848 
  177845   177830   177822   177861   177872   177837   177838   177853 
  177833   177821   177827   177816   177807   177834   177842   177822 
  177846   177866   177833   177824   177868   177888   177842   177823 
  177879   177887   177840   177826   177828   177844   177848   177816 
  177826   177859   177837   177831   177852   177831   177827   177841 
  177841   177859   177849   177823   177841   177847   177830   177834 
  177853   177869   177848   177815   177843   177880   177838   177808 
  177843   177844   177818   177841   177863   177848   177845   177849 
  177822   177821   177865   177849   177803   177846   177876   177850 
  177876   177876   177841   177855   177855   177836   177839   177848 
  177858   177854   177840   177834   177830   177851   177873   177837 
  177812   177840   177841   177834   177846   177832   177833   177848 
  177833   177826   177832   177831   177850   177876   177849   177817 
  177848   177862   177822   177834   177863   177840   177834   177845 
  177846   177845   177832   177819   177817   177838   177855   177831 
  177822   177851   177854   177832   177852   177875   177842   177840 
  177866   177840   177834   177865   177850   177834   177861   177857 
  177827   177831   177828   177803   177814   177841   177861   177883 
  177875   177850   177865   177876   177838   177817   177829   177838 
  177838   177820   177825   177861   177851   177813   177829   177864 
  177868   177852   177835   177838   177857   177851   177829   177840 
  177846   177817   177820   177837   177817   177829   177862   177851 
  177845   177848   177843   177838   177819   177838   177864   177827 
  177815   177839   177846   177855   177852   177841   177836   177835 
  177847   177836   177825   177855   177861   177827   177826   177868 
  177881   177844   177816   177830   177853   177843   177807   177822 
  177865   177852   177835   177857   177850   177838   177865   177845 
  177790   177827   177889   177859   177814   177829   177850   177847 
  177852   177861   177851   177832   177836   177849   177828   177812 
  177830   177835   177830   177834   177835   177852   177874   177839 
  177817   177856   177850   177831   177872   177874   177834   177841 
  177852   177832   177809   177807   177834   177849   177836   177840 
  177861   177855   177828   177842   177871   177842   177816   177839 
  177859   177857   177839   177828   177849   177871   177859   177828 
  177831   177872   177869   177826   177822   177835   177831   177829 
  177826   177823   177835   177843   177852   177870   177850   177828 
  177846   177829   177810   177840   177847   177828   177817   177822 
  177848   177868   177855   177836   177858   177876   177846   177833 
  177836   177830   177858   177860   177823   177846   177874   177850 
  177829   177826   177831   177838   177845   177850   177846   177839 
  177829   177823   177832   177838   177851   177861   177852   177848 
  177838   177835   177843   177833   177832   177852   177855   177827 
  177813   177843   177865   177845   177824   177842   177868   177847 
  177826   177861   177869   177826   177836   177875   177844   177811 
  177830   177838   177844   177857   177847   177830   177834   177854 
  177844   177811   177829   177867   177851   177823   177831   177851 
  177838   177811   177830   177859   177844   177835   177854   177862 
  177853   177828   177815   177827   177838   177836   177837   177838 
  177841   177854   177854   177853   177865   177838   177827   177861 
  177843   177823   177841   177833   177830   177851   177849   177834 
  177834   177850   177862   177842   177823   177845   177851   177839 
  177858   177846   177814   177845   177864   177827   177831   177863 
  177846   177824   177839   177853   177840   177839   177852   177838 
  177819   177835   177830   177798   177821   177871   177860   177824 
  177844   177884   177864   177818   177829   177856   177846   177854 
