Origin Time       2016/09/25 22:56:00
Lat.              35.372
Long.             134.733
Depth. (km)       7
Mag.              2.9
Station Code      KYTH03
Station Lat.      35.313
Station Long.     135.1334
Station Height(m) 40
Record Time       2016/09/25 22:56:17
Sampling Freq(Hz) 100Hz
Duration Time(s)  120
Dir.              5
Scale Factor      3920(gal)/6170801
Max. Acc. (gal)   0.861
Last Correction   2016/09/25 22:56:02
Memo.             
[...]
  -10521   -10522   -10520   -10516   -10517   -10519   -10523   -10524 
  -10520   -10520   -10517   -10516   -10523   -10525   -10519   -10515 
  -10518   -10522   -10522   -10522   -10520   -10516   -10520   -10524 
  -10524   -10521   -10517   -10520   -10520   -10521   -10523   -10519 
  -10517   -10518   -10521   -10521   -10520   -10523   -10522   -10516 
  -10519   -10521   -10519   -10521   -10522   -10520   -10517   -10518 
  -10521   -10522   -10520   -10519   -10518   -10518   -10519   -10524 
  -10526   -10519   -10515   -10517   -10520   -10522   -10523   -10519 
  -10515   -10518   -10522   -10524   -10523   -10516   -10513   -10519 
  -10523   -10524   -10521   -10516   -10517   -10523   -10523   -10517 
  -10515   -10519   -10522   -10524   -10521   -10515   -10511   -10517 
  -10525   -10521   -10515   -10515   -10517   -10520   -10522   -10518 
  -10513   -10514   -10520   -10523   -10522   -10517   -10514   -10516 
  -10521   -10520   -10516   -10516   -10516   -10519   -10522   -10521 
  -10517   -10513   -10519   -10524   -10520   -10516   -10516   -10518 
  -10520   -10522   -10521   -10514   -10515   -10519   -10522   -10525 
  -10519   -10515   -10517   -10520   -10522   -10517   -10513   -10516 
  -10520   -10527   -10523   -10514   -10514   -10517   -10524   -10524 
  -10517   -10513   -10514   -10524   -10526   -10520   -10517   -10516 
  -10521   -10525   -10520   -10517   -10516   -10518   -10522   -10523 
  -10521   -10515   -10516   -10522   -10525   -10524   -10517   -10515 
  -10520   -10521   -10525   -10526   -10516   -10515   -10521   -10524 
  -10524   -10518   -10517   -10519   -10519   -10520   -10519   -10519 
  -10519   -10520   -10522   -10519   -10518   -10520   -10520   -10523 
  -10521   -10518   -10521   -10522   -10524   -10523   -10518   -10519 
  -10519   -10521   -10524   -10518   -10517   -10520   -10521   -10524 
  -10521   -10518   -10517   -10520   -10526   -10523   -10518   -10514 
  -10514   -10524   -10527   -10521   -10515   -10515   -10521   -10523 
  -10524   -10522   -10513   -10515   -10523   -10525   -10524   -10519 
  -10518   -10521   -10523   -10524   -10519   -10516   -10518   -10521 
  -10525   -10521   -10515   -10518   -10519   -10522   -10522   -10517 
  -10516   -10518   -10523   -10526   -10520   -10515   -10513   -10517 
  -10527   -10524   -10515   -10514   -10517   -10524   -10525   -10521 
  -10515   -10512   -10521   -10527   -10522   -10517   -10514   -10514 
  -10523   -10528   -10522   -10514   -10514   -10521   -10526   -10524 
  -10518   -10515   -10518   -10521   -10522   -10521   -10519   -10517 
  -10521   -10526   -10523   -10518   -10517   -10517   -10521   -10522 
  -10520   -10518   -10515   -10521   -10523   -10519   -10519   -10520 
  -10518   -10519   -10522   -10523   -10521   -10518   -10520   -10521 
  -10520   -10518   -10519   -10522   -10520   -10519   -10521   -10520 
  -10520   -10520   -10518   -10519   -10522   -10525   -10522   -10517 
  -10516   -10517   -10521   -10524   -10520   -10518   -10515   -10516 
  -10523   -10526   -10521   -10513   -10512   -10518   -10524   -10526 
  -10517   -10513   -10517   -10522   -10526   -10521   -10516   -10518 
  -10518   -10522   -10524   -10519   -10516   -10518   -10524   -10523 
  -10519   -10519   -10515   -10519   -10524   -10520   -10518   -10516 
  -10521   -10525   -10522   -10522   -10518   -10519   -10523   -10521 
  -10521   -10516   -10515   -10521   -10522   -10523   -10517   -10514 
  -10521   -10522   -10523   -10522   -10517   -10518   -10519   -10523 
  -10523   -10516   -10519   -10520   -10521   -10525   -10519   -10515 
  -10515   -10519   -10527   -10525   -10519   -10515   -10516   -10525 
  -10525   -10519   -10516   -10515   -10523   -10526   -10525   -10522 
  -10514   -10516   -10524   -10526   -10522   -10516   -10519   -10524 
  -10522   -10521   -10517   -10517   -10526   -10527   -10521   -10514 
  -10515   -10524   -10526   -10525   -10522   -10515   -10518   -10524 
  -10523   -10519   -10517   -10520   -10521   -10522   -10523   -10519 
  -10519   -10520   -10521   -10528   -10521   -10513   -10517   -10520 
  -10526   -10523   -10517   -10519   -10518   -10524   -10525   -10521 
  -10521   -10519   -10523   -10524   -10519   -10520   -10518   -10522 
  -10526   -10519   -10518   -10516   -10520   -10529   -10525   -10517 
  -10515   -10517   -10523   -10526   -10525   -10518   -10515   -10523 
  -10523   -10518   -10518   -10517   -10520   -10522   -10522   -10520 
  -10516   -10517   -10522   -10524   -10521   -10516   -10519   -10523 
  -10524   -10522   -10517   -10519   -10521   -10522   -10526   -10519 
  -10515   -10520   -10523   -10524   -10520   -10515   -10516   -10519 
  -10525   -10525   -10519   -10516   -10518   -10521   -10524   -10522 
  -10517   -10515   -10518   -10525   -10524   -10519   -10519   -10519 
  -10520   -10524   -10522   -10519   -10518   -10519   -10520   -10520 
  -10520   -10519   -10520   -10523   -10520   -10519   -10518   -10519 
  -10521   -10521   -10521   -10521   -10519   -10518   -10518   -10521 
  -10523   -10519   -10517   -10519   -10520   -10522   -10523   -10520 
  -10519   -10520   -10521   -10523   -10521   -10521   -10522   -10522 
  -10522   -10520   -10520   -10522   -10523   -10524   -10521   -10516 
  -10519   -10522   -10522   -10520   -10518   -10519   -10521   -10523 
  -10522   -10517   -10516   -10520   -10525   -10522   -10515   -10516 
  -10520   -10522   -10522   -10520   -10516   -10514   -10521   -10526 
  -10523   -10519   -10515   -10517   -10524   -10524   -10517   -10516 
  -10518   -10520   -10524   -10521   -10518   -10517   -10520   -10527 
  -10523   -10519   -10516   -10515   -10524   -10528   -10523   -10518 
  -10512   -10516   -10524   -10526   -10522   -10515   -10515   -10520 
  -10522   -10522   -10518   -10518   -10519   -10521   -10522   -10519 
  -10521   -10523   -10521   -10522   -10520   -10520   -10525   -10523 
  -10521   -10518   -10515   -10520   -10525   -10526   -10519   -10512 
  -10517   -10524   -10526   -10522   -10514   -10514   -10519   -10525 
  -10527   -10520   -10514   -10516   -10522   -10526   -10522   -10516 
  -10516   -10518   -10523   -10527   -10520   -10516   -10518   -10523 
  -10526   -10519   -10516   -10519   -10520   -10525   -10524   -10519 
  -10517   -10517   -10525   -10527   -10520   -10515   -10516   -10523 
  -10525   -10524   -10519   -10513   -10519   -10524   -10522   -10521 
  -10517   -10515   -10520   -10524   -10525   -10519   -10517   -10521 
  -10523   -10525   -10521   -10515   -10518   -10519   -10523   -10521 
  -10515   -10519   -10522   -10522   -10521   -10518   -10518   -10519 
  -10524   -10526   -10518   -10514   -10518   -10524   -10524   -10516 
  -10516   -10516   -10519   -10526   -10524   -10519   -10515   -10518 
  -10526   -10523   -10520   -10516   -10516   -10522   -10523   -10523 
  -10517   -10512   -10517   -10522   -10523   -10520   -10516   -10515 
  -10518   -10525   -10522   -10518   -10518   -10519   -10521   -10520 
  -10520   -10521   -10520   -10521   -10520   -10521   -10519   -10520 
  -10528   -10526   -10518   -10516   -10519   -10523   -10525   -10521 
  -10516   -10512   -10518   -10527   -10524   -10519   -10515   -10516 
  -10524   -10525   -10523   -10517   -10511   -10517   -10522   -10525 
  -10521   -10514   -10517   -10520   -10523   -10524   -10517   -10516 
  -10520   -10526   -10525   -10515   -10515   -10521   -10525   -10524 
  -10516   -10515   -10518   -10520   -10525   -10520   -10515   -10514 
  -10515   -10526   -10524   -10517   -10518   -10514   -10518   -10523 
  -10522   -10519   -10513   -10518   -10526   -10522   -10518   -10513 
  -10516   -10526   -10526   -10518   -10513   -10515   -10525   -10526 
  -10522   -10516   -10509   -10515   -10524   -10525   -10521   -10512 
  -10513   -10521   -10526   -10527   -10516   -10512   -10517   -10520 
  -10525   -10518   -10513   -10518   -10521   -10526   -10523   -10515 
  -10516   -10517   -10522   -10524   -10519   -10518   -10517   -10518 
  -10521   -10518   -10517   -10515   -10516   -10521   -10517   -10518 
  -10518   -10517   -10522   -10520   -10517   -10518   -10518   -10522 
  -10521   -10518   -10517   -10516   -10520   -10521   -10519   -10518 
  -10514   -10517   -10523   -10522   -10517   -10511   -10516   -10523 
  -10522   -10520   -10516   -10515   -10519   -10521   -10521   -10514 
  -10514   -10522   -10521   -10519   -10519   -10516   -10518   -10520 
  -10522   -10518   -10514   -10518   -10522   -10523   -10519   -10514 
  -10516   -10519   -10521   -10523   -10517   -10512   -10516   -10525 
  -10524   -10518   -10516   -10517   -10519   -10523   -10522   -10517 
  -10515   -10517   -10519   -10522   -10521   -10518   -10520   -10518 
  -10517   -10519   -10520   -10521   -10519   -10521   -10521   -10517 
  -10520   -10524   -10522   -10521   -10518   -10519   -10523   -10526 
  -10530   -10533   -10539   -10562   -10587   -10587   -10549   -10477 
  -10372   -10292   -10371   -10574   -10744   -10772   -10483   -10273 
  -10596   -10570   -10297   -10798   -10704    -9891   -10375   -11007 
  -10568   -10505   -10777   -10429   -10083   -10514   -10962   -10612 
  -10354   -10531   -10328   -10237   -10691   -10761   -10467   -10532 
  -10616   -10414   -10465   -10707   -10536   -10315   -10416   -10443 
  -10466   -10675   -10791   -10640   -10449   -10448   -10421   -10412 
  -10639   -10668   -10392   -10328   -10458   -10489   -10549   -10704 
  -10669   -10445   -10449   -10608   -10544   -10499   -10595   -10485 
  -10337   -10426   -10546   -10601   -10638   -10598   -10485   -10402 
  -10424   -10487   -10546   -10600   -10576   -10532   -10546   -10519 
  -10504   -10581   -10577   -10464   -10438   -10498   -10481   -10453 
  -10540   -10582   -10514   -10525   -10564   -10521   -10531   -10588 
  -10574   -10493   -10407   -10427   -10513   -10538   -10546   -10530 
  -10471   -10490   -10548   -10565   -10613   -10591   -10488   -10489 
  -10534   -10542   -10515   -10461   -10462   -10490   -10505   -10527 
  -10561   -10554   -10481   -10477   -10527   -10533   -10587   -10624 
  -10534   -10503   -10573   -10525   -10427   -10477   -10535   -10484 
  -10480   -10550   -10540   -10486   -10523   -10564   -10538   -10545 
  -10542   -10487   -10491   -10526   -10518   -10504   -10505   -10506 
  -10485   -10492   -10536   -10528   -10543   -10611   -10580   -10502 
  -10518   -10525   -10466   -10479   -10552   -10524   -10462   -10499 
  -10547   -10552   -10572   -10564   -10499   -10465   -10509   -10520 
  -10490   -10539   -10561   -10501   -10504   -10529   -10497   -10501 
  -10555   -10538   -10474   -10508   -10573   -10550   -10517   -10548 
  -10559   -10470   -10438   -10552   -10537   -10405   -10485   -10611 
  -10531   -10502   -10623   -10591   -10460   -10496   -10527   -10467 
  -10488   -10521   -10530   -10578   -10550   -10469   -10507   -10573 
  -10517   -10513   -10597   -10529   -10427   -10486   -10524   -10497 
  -10521   -10542   -10551   -10556   -10543   -10551   -10509   -10448 
  -10506   -10564   -10531   -10533   -10550   -10481   -10432   -10495 
  -10533   -10501   -10530   -10588   -10564   -10544   -10577   -10543 
  -10460   -10468   -10518   -10485   -10473   -10555   -10546   -10484 
  -10532   -10581   -10569   -10547   -10535   -10535   -10493   -10475 
  -10514   -10489   -10480   -10538   -10524   -10514   -10581   -10592 
  -10531   -10492   -10522   -10539   -10460   -10449   -10547   -10552 
  -10499   -10521   -10558   -10536   -10508   -10542   -10543   -10446 
  -10437   -10544   -10565   -10528   -10543   -10557   -10523   -10483 
  -10502   -10529   -10516   -10510   -10488   -10481   -10529   -10549 
  -10515   -10494   -10552   -10598   -10547   -10543   -10546   -10452 
  -10463   -10554   -10521   -10505   -10575   -10529   -10439   -10511 
  -10571   -10487   -10476   -10553   -10551   -10507   -10521   -10550 
  -10507   -10498   -10544   -10524   -10510   -10507   -10484   -10524 
  -10523   -10476   -10522   -10540   -10489   -10550   -10616   -10522 
  -10506   -10596   -10512   -10437   -10532   -10521   -10432   -10492 
  -10574   -10548   -10536   -10557   -10523   -10511   -10529   -10468 
  -10445   -10539   -10578   -10553   -10563   -10528   -10461   -10472 
  -10501   -10532   -10567   -10502   -10458   -10524   -10549   -10571 
  -10608   -10555   -10485   -10445   -10458   -10562   -10601   -10507 
  -10424   -10408   -10434   -10516   -10630   -10665   -10614   -10557 
  -10504   -10493   -10511   -10511   -10518   -10479   -10434   -10490 
  -10545   -10575   -10620   -10556   -10464   -10486   -10500   -10497 
  -10583   -10636   -10540   -10416   -10412   -10501   -10541   -10535 
  -10587   -10575   -10451   -10454   -10556   -10588   -10581   -10531 
  -10461   -10440   -10441   -10511   -10636   -10617   -10473   -10430 
  -10474   -10480   -10538   -10672   -10658   -10520   -10485   -10473 
  -10430   -10495   -10562   -10536   -10528   -10491   -10431   -10525 
  -10630   -10561   -10546   -10633   -10543   -10397   -10443   -10488 
  -10449   -10549   -10691   -10623   -10500   -10563   -10687   -10661 
  -10559   -10485   -10366   -10254   -10280   -10363   -10418   -10519 
  -10693   -10802   -10700   -10485   -10314   -10113    -9926    -9980 
  -10266   -10615   -10953   -11153   -11144   -11144   -11177   -11044 
  -10906   -10851   -10568   -10026    -9516    -9277    -9541   -10238 
  -10727   -10594   -10298   -10283   -10457   -10901   -11589   -11873 
  -11441   -10737   -10089    -9673    -9908   -10611   -10807   -10289 
   -9823    -9710    -9802   -10267   -11050   -11491   -11264   -10859 
  -10678   -10529   -10412   -10522   -10562   -10375   -10264   -10297 
  -10373   -10523   -10688   -10658   -10435   -10350   -10502   -10607 
  -10624   -10634   -10444   -10205   -10356   -10629   -10695   -10842 
  -10844   -10405   -10225   -10511   -10581   -10476   -10626   -10708 
  -10435   -10200   -10291   -10469   -10431   -10362   -10565   -10711 
  -10517   -10436   -10659   -10717   -10562   -10616   -10740   -10576 
  -10419   -10489   -10486   -10421   -10465   -10533   -10589   -10597 
  -10584   -10625   -10624   -10564   -10504   -10414   -10336   -10293 
  -10268   -10324   -10405   -10414   -10420   -10535   -10728   -10848 
  -10873   -10885   -10846   -10731   -10596   -10465   -10306   -10124 
  -10078   -10217   -10355   -10463   -10575   -10567   -10541   -10663 
  -10664   -10495   -10558   -10680   -10524   -10447   -10536   -10512 
  -10566   -10736   -10743   -10647   -10560   -10460   -10332   -10184 
  -10209   -10464   -10637   -10629   -10673   -10730   -10595   -10508 
  -10664   -10665   -10451   -10377   -10334   -10192   -10161   -10247 
  -10392   -10637   -10800   -10776   -10760   -10763   -10646   -10475 
  -10374   -10388   -10465   -10551   -10690   -10776   -10648   -10482 
  -10447   -10427   -10409   -10450   -10440   -10372   -10396   -10493 
  -10559   -10634   -10669   -10577   -10482   -10450   -10468   -10521 
  -10506   -10460   -10476   -10470   -10465   -10611   -10793   -10784 
  -10651   -10531   -10402   -10322   -10391   -10496   -10516   -10540 
  -10562   -10505   -10494   -10525   -10444   -10347   -10379   -10456 
  -10479   -10549   -10748   -10808   -10576   -10482   -10690   -10699 
  -10518   -10580   -10591   -10343   -10326   -10478   -10411   -10353 
  -10457   -10497   -10489   -10597   -10672   -10579   -10525   -10583 
  -10553   -10436   -10428   -10563   -10639   -10545   -10492   -10555 
  -10546   -10530   -10595   -10571   -10508   -10519   -10450   -10339 
  -10378   -10470   -10502   -10527   -10566   -10640   -10652   -10535 
  -10488   -10513   -10500   -10490   -10430   -10392   -10476   -10542 
  -10583   -10637   -10607   -10547   -10526   -10502   -10525   -10562 
  -10541   -10578   -10571   -10399   -10380   -10529   -10494   -10418 
  -10488   -10498   -10452   -10467   -10445   -10427   -10523   -10632 
  -10687   -10701   -10647   -10584   -10573   -10557   -10455   -10342 
  -10410   -10595   -10613   -10474   -10442   -10512   -10524   -10518 
  -10564   -10592   -10523   -10439   -10533   -10649   -10540   -10453 
  -10523   -10483   -10383   -10440   -10522   -10523   -10566   -10641 
  -10650   -10615   -10575   -10533   -10525   -10543   -10478   -10349 
  -10345   -10450   -10478   -10455   -10511   -10561   -10560   -10626 
  -10682   -10616   -10541   -10517   -10474   -10420   -10425   -10511 
  -10595   -10570   -10511   -10507   -10461   -10391   -10394   -10427 
  -10489   -10589   -10676   -10680   -10601   -10584   -10586   -10472 
  -10414   -10496   -10547   -10528   -10479   -10429   -10451   -10511 
  -10496   -10489   -10611   -10705   -10644   -10547   -10518   -10510 
  -10446   -10420   -10540   -10621   -10524   -10473   -10553   -10507 
  -10348   -10359   -10477   -10511   -10589   -10730   -10696   -10596 
  -10637   -10593   -10400   -10326   -10362   -10387   -10474   -10594 
  -10585   -10521   -10545   -10547   -10502   -10565   -10647   -10597 
  -10527   -10476   -10361   -10310   -10419   -10529   -10539   -10546 
  -10611   -10638   -10569   -10519   -10560   -10566   -10452   -10426 
  -10599   -10647   -10477   -10450   -10552   -10535   -10527   -10580 
  -10554   -10497   -10504   -10558   -10532   -10443   -10498   -10596 
  -10562   -10516   -10476   -10410   -10403   -10469   -10538   -10552 
  -10575   -10596   -10507   -10446   -10500   -10501   -10437   -10470 
  -10556   -10548   -10602   -10736   -10612   -10409   -10503   -10604 
  -10510   -10458   -10495   -10531   -10489   -10391   -10428   -10570 
  -10628   -10566   -10489   -10505   -10516   -10476   -10543   -10613 
  -10536   -10473   -10481   -10446   -10448   -10585   -10687   -10615 
  -10515   -10510   -10523   -10491   -10469   -10488   -10481   -10437 
  -10432   -10507   -10603   -10625   -10602   -10582   -10554   -10583 
  -10593   -10444   -10362   -10496   -10569   -10490   -10473   -10514 
  -10488   -10489   -10555   -10554   -10521   -10557   -10546   -10468 
  -10508   -10574   -10523   -10504   -10522   -10517   -10513   -10426 
  -10391   -10537   -10616   -10569   -10562   -10534   -10472   -10545 
  -10652   -10562   -10402   -10381   -10433   -10472   -10506   -10549 
  -10605   -10603   -10541   -10539   -10614   -10634   -10504   -10383 
  -10452   -10537   -10480   -10442   -10489   -10531   -10564   -10587 
  -10601   -10609   -10544   -10465   -10480   -10497   -10466   -10442 
  -10472   -10581   -10616   -10521   -10504   -10567   -10570   -10576 
  -10603   -10517   -10382   -10406   -10533   -10571   -10514   -10443 
  -10439   -10522   -10597   -10600   -10555   -10506   -10458   -10429 
  -10475   -10531   -10504   -10520   -10612   -10594   -10521   -10537 
  -10573   -10575   -10544   -10532   -10553   -10518   -10487   -10498 
  -10425   -10368   -10435   -10501   -10551   -10613   -10591   -10540 
  -10543   -10530   -10501   -10479   -10458   -10487   -10543   -10568 
  -10552   -10506   -10498   -10555   -10581   -10522   -10453   -10452 
  -10563   -10708   -10701   -10587   -10492   -10350   -10246   -10346 
  -10527   -10601   -10591   -10605   -10613   -10538   -10476   -10500 
  -10539   -10556   -10525   -10467   -10460   -10456   -10485   -10624 
