Origin Time       2021/12/03 02:18:00
Lat.              35.527
Long.             138.978
Depth. (km)       21
Mag.              4.1
Station Code      KNGH22
Station Lat.      35.3583
Station Long.     139.0910
Station Height(m) -1843
Record Time       2021/12/03 02:18:04
Sampling Freq(Hz) 100Hz
Duration Time(s)  120
Dir.              2
Scale Factor      3920(gal)/6170801
Max. Acc. (gal)   2.048
Last Correction   2021/12/03 02:17:49
Memo.             
[...]
     -10      -10      -12      -12      -12      -13      -13      -10 
     -10      -11      -12      -13      -14      -13      -14      -15 
     -11      -13      -18      -19      -16      -14      -12      -12 
     -13      -12      -11      -12      -11      -10      -11      -12 
     -12      -14      -16      -17      -17      -16      -16      -15 
     -14      -14      -13      -12      -13      -13      -13      -15 
     -15      -14      -15      -14       -9       -7       -8       -9 
     -10      -14      -15      -16      -19      -19      -17      -17 
     -16      -14      -15      -14      -13      -13      -12      -12 
     -13      -13      -12      -10       -9       -7       -7       -9 
      -9      -12      -17      -18      -16      -15      -13      -11 
     -10      -14      -16      -16      -15      -13      -10      -12 
     -14      -12      -10      -11      -11       -9      -12      -13 
     -12      -13      -15      -16      -15      -15      -15      -11 
     -10      -11      -13      -14      -16      -15      -13      -13 
     -15      -14      -14      -14      -11       -8      -10      -12 
     -12      -14      -17      -20      -19      -15      -14      -15 
     -12      -11      -11      -14      -18      -19      -16      -15 
     -13      -11      -11      -10       -8       -6       -7      -10 
     -12      -15      -15      -13      -15      -16      -13      -11 
     -12      -15      -16      -14      -15      -15      -13      -13 
     -14      -13      -11       -9       -8      -10       -9       -8 
      -8      -10      -11      -13      -17      -17      -15      -16 
     -15      -14      -13      -12      -14      -16      -15      -16 
     -17      -16      -14      -13      -12      -10      -11      -12 
     -10      -12      -18      -20      -18      -16      -17      -17 
     -15      -15      -16      -15      -12      -13      -15      -15 
     -15      -15      -13      -12      -11      -11      -10       -8 
      -9      -13      -14      -15      -15      -14      -13      -13 
     -12      -11      -10      -12      -13      -13      -12      -12 
     -10      -10      -11       -9       -8       -9       -9       -8 
      -8      -12      -18      -18      -17      -17      -16      -14 
     -15      -19      -19      -17      -17      -16      -13      -13 
     -13      -12      -12      -10       -8       -7       -8       -9 
      -9      -10      -13      -15      -16      -15      -16      -14 
     -14      -15      -15      -16      -15      -15      -13      -13 
     -13      -13      -14      -12       -8       -9      -10      -10 
     -12      -15      -15      -16      -16      -13      -11      -13 
     -13      -11      -12      -14      -13      -15      -17      -16 
     -16      -17      -17      -15      -13      -11      -11      -13 
     -14      -14      -15      -14      -13      -14      -13      -11 
     -11      -13      -15      -15      -15      -13      -11      -10 
      -9      -10      -12       -9       -7      -10      -11      -10 
      -9       -9      -10      -13      -14      -14      -15      -14 
     -12      -13      -14      -10       -8       -9      -10      -12 
     -16      -13       -9       -9      -11      -11      -12      -11 
      -9       -9      -13      -17      -17      -13      -11      -13 
     -13      -12      -14      -15      -13      -14      -13      -12 
     -13      -13      -12      -14      -15      -11       -9      -11 
     -11      -12      -14      -15      -14      -14      -15      -14 
     -13      -14      -15      -16      -15      -14      -14      -15 
     -13      -12      -13      -11      -10      -10       -9       -7 
      -7      -10      -14      -14      -11      -13      -16      -15 
     -13      -13      -12      -13      -13      -11      -12      -14 
     -13      -12      -12      -11      -11      -11      -11      -13 
     -15      -15      -18      -20      -18      -18      -18      -15 
     -14      -14      -12      -12      -14      -15      -16      -18 
     -17      -14      -14      -13      -10       -7       -9      -11 
     -10      -11      -16      -17      -16      -13      -12      -11 
      -9      -10      -15      -16      -16      -16      -15      -14 
     -14      -15      -17      -16      -13      -13      -14      -14 
     -14      -14      -16      -18      -18      -15      -14      -16 
     -16      -15      -14      -15      -14      -12      -12      -12 
     -10       -8       -9      -11      -10       -9       -8       -7 
      -9      -12      -12      -13      -14      -16      -18      -17 
     -15      -12      -13      -15      -13      -11      -11      -13 
     -12      -12      -12      -12       -9       -7       -7       -9 
     -10      -12      -14      -14      -16      -17      -14      -12 
     -14      -15      -13      -13      -15      -15      -14      -15 
     -15      -14      -12      -12      -13      -12       -8       -7 
      -9      -12      -12      -13      -16      -16      -14      -13 
     -13      -13      -15      -15      -14      -14      -14      -12 
     -12      -12      -12      -12      -12      -12      -12      -11 
     -10      -11      -15      -16      -15      -14      -15      -15 
     -15      -14      -13      -13      -12      -11      -11      -13 
     -13      -13      -13      -11       -9       -8       -7       -6 
      -8      -12      -14      -15      -14      -13      -14      -14 
     -10       -8       -8      -10      -10      -11      -12      -12 
     -13      -10       -8       -9       -6       -5       -9      -10 
      -8      -11      -16      -17      -18      -18      -16      -13 
     -12      -13      -15      -15      -16      -15      -14      -14 
     -14      -12       -8       -9      -12      -10       -8       -9 
     -11      -14      -17      -16      -13      -13      -14      -13 
     -15      -17      -15      -14      -14      -15      -15      -14 
     -15      -15      -12      -11      -10       -7       -7       -9 
      -9       -9      -12      -13      -10      -11      -15      -13 
     -11      -11      -12      -12      -10      -12      -13      -10 
      -9      -11      -12      -10       -9       -8       -7       -9 
     -11      -14      -16      -16      -17      -16      -14      -13 
     -13      -13      -13      -13      -15      -15      -13      -11 
     -13      -13      -10      -11      -12      -11      -11      -13 
     -13      -13      -16      -18      -16      -13      -13      -13 
     -12      -13      -14      -15      -14      -12      -13      -14 
     -12      -10      -10      -11       -9       -7       -7       -8 
      -6       -8      -13      -16      -15      -13      -13      -14 
     -14      -13      -15      -15      -11       -9      -12      -13 
     -12      -12      -11      -10      -11      -11      -11      -12 
     -12      -13      -17      -18      -17      -17      -17      -15 
     -14      -15      -16      -15      -13      -13      -14      -14 
     -14      -12      -10      -10      -12      -12      -11      -11 
     -11      -13      -15      -15      -15      -14      -14      -14 
     -13      -11      -13      -15      -14      -14      -16      -14 
     -12      -12      -12      -11      -10      -10      -11      -11 
     -10      -11      -13      -16      -15      -13      -11      -11 
      -9      -10      -13      -12       -9      -11      -13      -13 
     -11      -11      -12      -10       -7       -8      -10      -11 
     -11      -11      -11      -12      -13      -13      -13      -12 
     -13      -14      -14      -14      -15      -14      -13      -15 
     -15      -14      -13      -12      -13      -14      -13      -12 
     -13      -13      -13      -15      -18      -17      -16      -14 
     -11      -12      -14      -14      -13      -13      -13      -14 
     -15      -15      -14      -13      -13      -14      -13      -11 
     -11      -12      -15      -17      -18      -15      -13      -12 
     -12      -11      -12      -14      -14      -12      -10       -9 
      -9      -11      -12      -11       -9       -8      -10      -10 
      -8       -8      -12      -15      -17      -18      -16      -15 
     -14      -15      -15      -16      -15      -13      -13      -12 
     -13      -12       -9      -11      -12       -9       -9      -10 
     -11      -12      -15      -14      -13      -14      -13      -13 
     -11      -11      -11      -11      -11      -12      -12      -12 
     -13      -10      -11      -12      -10       -9      -11      -10 
     -11      -14      -16      -17      -17      -15      -13      -15 
     -17      -14      -11      -13      -14      -14      -13      -12 
     -10       -9       -8       -8       -9       -9       -8       -7 
      -9      -11      -13      -16      -17      -16      -15      -15 
     -14      -13      -13      -15      -14      -11      -10       -9 
      -9      -11      -10       -8       -9       -7       -7      -10 
     -10      -10      -13      -15      -16      -18      -18      -16 
     -15      -17      -18      -15      -12      -13      -14      -12 
     -12      -14      -13      -11       -9       -7       -7       -8 
      -8      -10      -14      -14      -13      -14      -14      -12 
     -12      -12      -13      -13      -13      -15      -16      -14 
     -15      -16      -14      -15      -14      -10      -10      -11 
      -9      -11      -13      -15      -15      -13      -11      -11 
     -10      -11      -12      -11      -12      -11       -7       -7 
     -11      -10       -8       -8       -8       -7       -9      -11 
     -11      -12      -16      -19      -17      -15      -16      -16 
     -12      -11      -12      -11      -10      -10      -12      -12 
     -11      -10      -11      -10       -7       -8       -8       -6 
      -8      -11      -14      -14      -11       -3        9        8 
     -24      -65      -89     -111     -120      -33      113      153 
     120      127       32     -122      -48      -13     -227     -260 
     -77      154      277       -1     -171       96      171      -85 
    -192      -29       32     -145     -165      107      184       14 
       0      -23     -112      -30       19      -26       -6       -9 
     -23       74       95      -55      -97      -33      -52      -80 
     -71      -54      -47       11      172      175      -12      -85 
     -89     -101      -23       20      -45      -72      -46       19 
     183      222      -12     -160     -101     -107     -147      -90 
     -18       51      103      125      168       72     -137     -163 
    -153     -204      -44      138      101      102       88     -103 
    -181     -100      -86     -107      -26      132      166       83 
      40      -65     -182     -142      -51       20       80       92 
      98       76      -90     -190      -91     -139     -181       87 
     229      137       94       36      -55     -132     -147      -20 
     -26     -219     -221     -115      -65       61      163      213 
     276      247       84     -160     -284     -275     -275     -108 
     135      235      279      183       47       33      -85     -226 
    -177     -144     -185      -91       12       25      170      240 
      59      -14       -6      -81      -61      -52     -145     -109 
       4       18      -20        7      105      121       53      -12 
    -124     -155      -35      -18      -82      -21       66       59 
       8       -8       -3        6       91       87      -88     -156 
     -98      -72       -4       91       35      -43       15       16 
      14       57      -43     -113      -92     -129      -36      140 
      85      -36        9        9     -136     -150       20       49 
     -79      -88        6      113      172       93       44       31 
    -122     -182      -90      -88      -70       43       55      -40 
     -77       20      166      127     -107     -198      -29      115 
      76       11      -49     -184     -230      -85       71      115 
     104       78       41        5      -87     -186      -93       50 
      46       41       -6     -121      -57       82       88       38 
     -37      -91      -73      -80      -69       64       98      -71 
    -105       39       80       28      -57     -121      -42        4 
     -51       17       46      -58       -5       26      -91       10 
     139       28       24       84     -114     -258      -84       38 
     -21       71      159      -55     -145       33       64       13 
     -40     -181     -126       83       31     -122      -52      139 
     245      111     -139     -220     -159      -71      -10       37 
     109       74      -20        2       13      -11        8      -32 
     -36       49        1      -83      -15      -29     -149      -43 
     143      126       66       22      -63     -112     -159     -203 
    -152        8      223      251       68       47       19     -283 
    -367      -19      337      439      328        0     -744    -1480 
   -1115       42      278     -399     -325        4    -1057    -1702 
     302     2209      813    -1545    -1463     -559     -945     -726 
     484      930     1339     1025    -1749    -2659     1077     3211 
    1303      126     -128     -640      571     2450     2510      837 
    -787     -765     -222     -459     -273      412      123     -784 
    -897     -307       53      209      385      368       23     -691 
    -573      841     1213      -71    -1323    -1706     -645      721 
     516      -68        4     -124     -151      175      242      164 
     176      398      797      644     -118     -283       70     -453 
   -1057     -332      428      434      605      437     -296     -454 
    -424     -857     -646      275      287     -382     -236      340 
     553      694      708      165     -609     -785     -638     -685 
    -146      803      883      252     -236     -274       69      202 
    -144      -44      617      200    -1022     -755      342      217 
     -94      401      381     -198     -277     -289     -610     -508 
      43      418      622      541      -92     -410       58      313 
      80      -24     -136     -599     -796     -232      262      484 
    1000     1048      215     -614     -975     -875     -575     -266 
      86       43     -373     -319      174      188     -193       87 
     641      347      -38      226      517      675      493     -143 
    -344     -172     -290     -225       92     -115     -811    -1057 
    -454      150      168      169      376      273       -3      159 
     448      421      355      165     -265     -536     -552     -345 
       7      232      471      638      400      185      -53     -692 
    -832     -187      182      209      338      335       56     -461 
    -826     -432      271      381      120      124      226      -80 
    -438     -120      324      225      116      106     -123     -275 
    -161      -20     -129     -304      -48      441      545      220 
    -188     -395     -222       10     -171     -369     -239     -129 
      21      167       -3       39      461      608      494      358 
     139      -19      -46     -112     -276     -392     -443     -479 
    -298       27       89      -59     -110      -18      124      163 
     -29     -260     -285     -210     -112       -6      -20      -21 
     174      225      -81     -195      105      343      316      216 
     155       39     -198     -307     -112      -11     -167     -120 
     109      156      160      144      -18      -58        8      -53 
    -134     -124       10       76      -71      -72      112      232 
     338      273      -56     -304     -268      -93      -30     -151 
    -285     -250     -132      -69       66      225      191       52 
     -18       30       30     -196     -257      -52     -142     -244 
      49      160       87      279      470      365        7     -298 
    -272     -147     -127     -107        1      140      218      250 
     123     -119     -115      -53     -196     -212      -48      -30 
    -133      -69       87       85      -23     -185     -277     -178 
    -138     -132       77      321      327      103      -42       25 
      76      -47     -218     -175        0       73       40      -64 
     -54      165      307      184      -27      -89      -82     -147 
    -108       83      174       67     -121     -160       11       80 
     -49     -182     -251     -171       95      323      174     -134 
     -22      171        2     -125      -80      -37      -21      -81 
    -137     -129     -131      -92       21       58       -3       15 
      88        8     -151      -90       83       34     -122     -131 
     -63        9      155      222       23     -195     -206     -109 
       4       79       50      -66       14      291      285      116 
      65      -32      -11       61     -132     -293     -284     -279 
    -215      -98       15      147      149       47      144      278 
     119      -78     -112     -186     -266     -184      -12      120 
     149      124       53     -112     -151       54      169       98 
      57      -25     -199     -234     -112      -12        4       -2 
      53      128       60      -57       24      103      -73     -206 
    -119     -102      -93      156      300       70     -122      -48 
     -34     -143     -107      -21      -76     -157     -166      -54 
     178      319      252       94       26       76       23     -174 
    -282     -228      -69       83       21     -138      -46      143 
     100      -26        2       76      -15     -164      -92       72 
       3     -170     -137      -45      -50       17      113      122 
     152      161       46      -58      -73     -103     -177     -225 
    -182      -48       96      195      242      249      183      -13 
    -213     -302     -294     -136       59       85       73      143 
     167       83      -15      -75     -135     -178     -160     -156 
    -196      -57      195      160       -2       30       78       15 
     -68      -83       10       92       35      -88     -122      -68 
     -61      -84       25      183      166       26     -106     -183 
    -150      -78      -41       12       98      171      140        9 
     -94     -127     -113      -70      -58      -48       22       76 
      46       28       50       32       15      -38     -142      -81 
      24      -66      -80       73      132      115       67      -60 
    -154     -150      -62       40       61       15      -24       -9 
      -7      -65     -108      -55      102      121      -57      -73 
      66       72      -25      -78      -88      -94      -60       -8 
      19      -19      -75       26      124       35       18       81 
       5      -70      -57      -67      -42        1      -26      -44 
     -46      -53        9       61       28      -20      -53      -30 
