Origin Time       2021/12/03 02:18:00
Lat.              35.527
Long.             138.978
Depth. (km)       21
Mag.              4.1
Station Code      KNGH22
Station Lat.      35.3583
Station Long.     139.0910
Station Height(m) -1843
Record Time       2021/12/03 02:18:04
Sampling Freq(Hz) 100Hz
Duration Time(s)  120
Dir.              1
Scale Factor      3920(gal)/6170801
Max. Acc. (gal)   0.033
Last Correction   2021/12/03 02:17:49
Memo.             
[...]
     -19      -18      -20      -21      -19      -18      -19      -19 
     -19      -21      -21      -18      -18      -21      -21      -19 
     -19      -19      -19      -19      -18      -19      -18      -17 
     -19      -21      -20      -20      -19      -19      -20      -20 
     -19      -19      -20      -19      -18      -19      -18      -17 
     -20      -20      -18      -20      -21      -20      -19      -19 
     -19      -19      -19      -20      -20      -19      -18      -20 
     -20      -19      -19      -19      -19      -19      -20      -20 
     -20      -19      -20      -21      -19      -18      -19      -18 
     -19      -19      -18      -18      -18      -19      -18      -18 
     -20      -20      -19      -18      -18      -19      -20      -20 
     -19      -19      -20      -20      -20      -20      -20      -20 
     -20      -20      -18      -19      -20      -19      -18      -20 
     -21      -19      -18      -19      -19      -20      -21      -20 
     -18      -18      -18      -18      -18      -21      -22      -20 
     -19      -18      -17      -18      -20      -19      -19      -20 
     -20      -20      -20      -19      -18      -18      -19      -21 
     -20      -18      -18      -19      -19      -22      -23      -20 
     -19      -20      -20      -19      -20      -20      -18      -18 
     -20      -20      -20      -19      -19      -21      -21      -21 
     -19      -18      -19      -19      -18      -19      -21      -20 
     -19      -20      -21      -21      -21      -21      -19      -20 
     -20      -18      -17      -19      -20      -19      -18      -20 
     -19      -17      -18      -20      -19      -19      -20      -21 
     -21      -20      -18      -18      -20      -20      -19      -21 
     -22      -19      -20      -21      -20      -18      -20      -19 
     -19      -21      -22      -19      -19      -20      -20      -20 
     -20      -19      -19      -20      -19      -19      -19      -18 
     -18      -18      -20      -19      -18      -19      -20      -19 
     -19      -20      -20      -19      -19      -20      -20      -19 
     -20      -20      -20      -21      -20      -22      -23      -20 
     -20      -20      -19      -20      -20      -18      -19      -20 
     -19      -19      -20      -19      -20      -21      -20      -20 
     -20      -20      -20      -19      -18      -19      -20      -20 
     -20      -21      -21      -20      -19      -19      -20      -21 
     -20      -17      -17      -19      -20      -20      -20      -18 
     -19      -20      -20      -20      -19      -19      -20      -20 
     -19      -19      -20      -20      -20      -19      -20      -20 
     -19      -19      -18      -19      -19      -18      -19      -21 
     -19      -18      -19      -18      -16      -20      -22      -19 
     -18      -20      -20      -20      -19      -19      -19      -20 
     -19      -20      -21      -19      -18      -19      -19      -19 
     -22      -21      -19      -19      -20      -21      -20      -19 
     -18      -19      -19      -20      -21      -20      -19      -19 
     -18      -18      -19      -20      -18      -18      -20      -21 
     -21      -20      -20      -19      -20      -21      -20      -19 
     -19      -20      -21      -20      -20      -19      -20      -20 
     -20      -19      -19      -20      -19      -18      -18      -19 
     -19      -20      -20      -19      -19      -20      -19      -19 
     -22      -22      -21      -20      -19      -20      -20      -20 
     -19      -19      -20      -19      -20      -20      -19      -20 
     -21      -19      -18      -19      -20      -22      -21      -20 
     -19      -18      -19      -20      -19      -19      -21      -20 
     -19      -19      -20      -19      -18      -20      -20      -18 
     -18      -20      -20      -19      -20      -20      -19      -20 
     -22      -20      -19      -20      -19      -21      -21      -18 
     -19      -19      -18      -18      -18      -18      -20      -20 
     -20      -19      -20      -22      -21      -18      -18      -20 
     -20      -18      -21      -21      -19      -19      -19      -18 
     -19      -19      -19      -20      -19      -18      -20      -20 
     -19      -20      -20      -19      -18      -18      -19      -20 
     -21      -19      -18      -19      -19      -19      -19      -20 
     -21      -21      -20      -21      -21      -20      -20      -21 
     -20      -19      -20      -19      -19      -21      -21      -20 
     -21      -21      -20      -21      -21      -19      -18      -20 
     -21      -21      -21      -20      -19      -22      -21      -18 
     -20      -21      -19      -20      -21      -20      -21      -22 
     -21      -21      -20      -18      -19      -20      -20      -19 
     -19      -20      -20      -20      -20      -20      -21      -20 
     -20      -20      -19      -19      -19      -20      -21      -20 
     -20      -21      -21      -21      -21      -21      -20      -19 
     -20      -21      -20      -20      -20      -18      -18      -19 
     -21      -20      -18      -20      -21      -19      -19      -20 
     -19      -18      -19      -21      -20      -19      -19      -20 
     -20      -19      -20      -20      -19      -20      -21      -19 
     -18      -18      -19      -19      -19      -19      -19      -19 
     -20      -19      -20      -21      -20      -20      -20      -21 
     -21      -19      -18      -20      -20      -19      -19      -19 
     -19      -19      -20      -18      -19      -19      -20      -20 
     -19      -20      -21      -20      -19      -19      -19      -19 
     -20      -20      -20      -20      -20      -20      -20      -20 
     -20      -22      -22      -20      -19      -19      -19      -21 
     -21      -19      -19      -21      -20      -19      -19      -20 
     -18      -19      -21      -20      -18      -20      -21      -21 
     -20      -20      -19      -19      -20      -20      -21      -21 
     -19      -20      -24      -23      -21      -21      -21      -19 
     -21      -21      -20      -20      -22      -22      -21      -20 
     -20      -19      -21      -23      -21      -20      -20      -19 
     -19      -21      -20      -18      -19      -22      -21      -20 
     -21      -20      -19      -18      -19      -20      -20      -19 
     -19      -19      -19      -19      -19      -20      -20      -20 
     -21      -20      -18      -18      -19      -19      -19      -20 
     -19      -18      -20      -20      -19      -19      -19      -20 
     -20      -18      -17      -18      -19      -19      -19      -19 
     -19      -19      -21      -20      -18      -20      -20      -17 
     -18      -20      -19      -20      -21      -20      -20      -19 
     -18      -18      -20      -20      -19      -20      -21      -19 
     -19      -20      -20      -18      -19      -20      -19      -18 
     -20      -19      -18      -19      -20      -20      -19      -20 
     -19      -19      -21      -20      -19      -20      -19      -18 
     -19      -20      -18      -19      -21      -20      -19      -20 
     -19      -19      -19      -18      -18      -20      -19      -17 
     -18      -20      -19      -20      -20      -20      -20      -20 
     -19      -20      -19      -18      -17      -18      -19      -19 
     -19      -19      -20      -20      -19      -20      -21      -20 
     -18      -19      -20      -19      -18      -19      -20      -20 
     -20      -20      -19      -19      -20      -21      -19      -19 
     -21      -20      -19      -20      -20      -21      -20      -18 
     -20      -21      -19      -19      -21      -20      -19      -19 
     -20      -19      -18      -19      -20      -21      -20      -20 
     -19      -20      -21      -19      -20      -21      -20      -20 
     -20      -20      -21      -19      -19      -21      -21      -20 
     -20      -20      -19      -19      -20      -20      -20      -18 
     -18      -19      -19      -20      -19      -19      -21      -20 
     -18      -18      -19      -19      -19      -19      -17      -19 
     -21      -19      -19      -20      -19      -19      -18      -18 
     -20      -19      -17      -19      -21      -20      -19      -19 
     -20      -20      -20      -20      -19      -19      -19      -18 
     -18      -20      -19      -19      -20      -21      -20      -19 
     -20      -21      -22      -20      -19      -20      -20      -20 
     -20      -19      -19      -19      -19      -21      -20      -20 
     -20      -19      -19      -20      -19      -18      -19      -19 
     -19      -18      -18      -19      -19      -20      -19      -18 
     -19      -21      -20      -19      -19      -19      -19      -19 
     -18      -19      -20      -20      -20      -19      -19      -18 
     -19      -19      -18      -20      -21      -21      -22      -21 
     -19      -19      -20      -20      -19      -21      -21      -19 
     -19      -19      -19      -20      -20      -18      -18      -18 
     -19      -20      -20      -19      -20      -20      -19      -20 
     -21      -19      -18      -21      -21      -20      -19      -19 
     -20      -20      -18      -18      -18      -19      -18      -19 
     -18      -17      -19      -19      -17      -19      -20      -19 
     -19      -19      -19      -19      -20      -20      -20      -20 
     -19      -18      -18      -19      -20      -19      -18      -19 
     -20      -19      -20      -20      -19      -19      -19      -18 
     -21      -20      -17      -19      -20      -18      -18      -20 
     -20      -20      -19      -19      -19      -19      -20      -19 
     -18      -18      -19      -20      -19      -20      -21      -21 
     -21      -21      -19      -19      -19      -19      -21      -21 
     -20      -20      -18      -16      -17      -17      -18      -21 
     -23      -23      -22      -21      -20      -21      -19      -17 
     -17      -17      -20      -23      -19      -18      -21      -22 
     -19      -16      -19      -20      -15      -14      -22      -23 
     -18      -18      -20      -19      -19      -19      -20      -19 
     -18      -20      -22      -22      -20      -18      -18      -17 
     -17      -18      -18      -16      -17      -21      -23      -20 
     -20      -20      -17      -18      -20      -18      -19      -20 
     -18      -20      -23      -21      -18      -20      -19      -16 
     -16      -17      -20      -21      -21      -24      -22      -17 
     -16      -15      -14      -17      -20      -21      -21      -19 
     -18      -18      -18      -17      -16      -18      -21      -21 
     -21      -21      -19      -17      -16      -19      -20      -20 
     -21      -23      -23      -20      -17      -17      -16      -17 
     -20      -21      -23      -24      -21      -20      -20      -20 
     -21      -19      -15      -17      -19      -18      -20      -23 
     -24      -26      -26      -23      -19      -17      -16      -13 
     -15      -19      -24      -26      -24      -22      -21      -19 
     -18      -18      -17      -16      -18      -17      -17      -22 
     -24      -22      -21      -20      -18      -19      -20      -16 
     -16      -19      -18      -18      -21      -22      -23      -24 
     -22      -19      -19      -20      -18      -16      -18      -20 
     -21      -21      -20      -20      -19      -21      -22      -22 
     -20      -18      -19      -21      -21      -19      -20      -21 
     -20      -20      -22      -20      -19      -17      -17      -20 
     -21      -19      -19      -20      -19      -18      -17      -19 
     -20      -18      -18      -20      -22      -22      -22      -22 
     -20      -18      -18      -19      -18      -17      -19      -18 
     -16      -17      -19      -22      -23      -20      -17      -18 
     -21      -22      -23      -21      -17      -16      -18      -19 
     -19      -21      -23      -21      -21      -18      -16      -18 
     -20      -19      -21      -20      -16      -19      -22      -21 
     -21      -20      -17      -19      -20      -19      -20      -21 
     -18      -17      -21      -23      -20      -17      -18      -20 
     -20      -18      -19      -19      -19      -21      -21      -19 
     -21      -21      -19      -21      -22      -19      -16      -18 
     -21      -19      -20      -22      -20      -19      -20      -20 
     -21      -20      -17      -18      -23      -22      -17      -18 
     -22      -23      -21      -18      -18      -17      -17      -17 
     -19      -20      -21      -20      -20      -21      -21      -19 
     -19      -21      -21      -20      -19      -19      -17      -18 
     -21      -22      -21      -21      -20      -19      -17      -15 
     -17      -18      -19      -23      -24      -21      -24      -23 
     -14      -12      -19      -25      -31      -34      -29      -13 
       7        9       -6      -11       -3      -10      -19        3 
      21       -6      -36      -20        8        0      -13       -2 
       0      -18      -30      -49      -51       -8        6      -43 
     -63      -45      -43      -36      -21      -38      -64      -71 
     -54      -30      -23      -21      -11      -11      -22      -19 
      -3        1       -9      -16      -19      -23      -25      -22 
      -9       -9      -32      -38      -23       -4        7       -5 
     -21      -15      -14      -18      -15      -14      -19      -24 
     -26      -24      -28      -35      -34      -24      -21      -22 
     -11       -4      -13      -19      -20      -28      -28      -19 
     -18      -14       -3       -4      -17      -20      -15      -19 
     -25      -28      -31      -32      -26      -17      -14      -12 
      -6      -11      -24      -31      -26      -17      -16      -20 
     -22      -16      -19      -32      -24       -5       -8      -22 
     -19      -17      -24      -24      -21      -21      -17      -10 
     -10      -14      -20      -27      -27      -18      -14      -19 
     -23      -21      -22      -20      -11       -7      -13      -17 
     -23      -34      -35      -27      -18       -9       -6       -6 
      -9      -16      -16      -11      -12      -18      -16      -11 
     -18      -26      -22      -20      -25      -27      -33      -34 
     -25      -23      -24      -19      -19      -23      -20       -9 
      -2       -7      -14      -14      -18      -23      -22      -21 
     -25      -29      -30      -29      -24      -17      -11       -7 
     -10      -14      -18      -25      -31      -30      -27      -23 
     -11       -6      -13      -18      -19      -21      -24      -24 
     -17      -10      -13      -21      -22      -20      -22      -24 
     -18      -14      -18      -24      -22      -21      -21      -18 
     -16      -19      -21      -17      -13      -17      -26      -28 
     -25      -20      -14      -16      -20      -16      -13      -14 
     -13      -17      -20      -17      -18      -22      -26      -27 
     -25      -25      -25      -24      -24      -20      -15      -13 
     -11      -14      -19      -20      -18      -17      -18      -20 
     -22      -20      -15      -15      -16      -17      -18      -19 
     -18      -19      -20      -17      -18      -22      -24      -24 
     -25      -24      -22      -17      -14      -18      -20      -17 
     -17      -20      -21      -22      -23      -22      -21      -20 
     -19      -19      -18      -20      -19      -15      -16      -20 
     -23      -25      -24      -21      -19      -17      -19      -19 
     -14      -13      -16      -16      -16      -21      -23      -23 
     -23      -21      -21      -22      -17      -15      -19      -18 
     -15      -19      -22      -20      -21      -27      -28      -22 
     -18      -16      -15      -16      -17      -18      -19      -20 
     -23      -23      -18      -18      -20      -17      -16      -18 
     -17      -17      -19      -22      -22      -19      -17      -17 
     -18      -16      -15      -20      -25      -24      -21      -20 
     -20      -18      -17      -18      -18      -17      -19      -20 
     -18      -19      -21      -24      -24      -20      -19      -19 
     -17      -17      -19      -22      -21      -16      -17      -21 
     -21      -20      -18      -15      -16      -20      -23      -21 
     -17      -21      -24      -20      -18      -19      -20      -20 
     -19      -19      -17      -17      -18      -19      -19      -20 
     -21      -21      -20      -17      -17      -20      -20      -17 
     -18      -18      -19      -24      -24      -20      -18      -17 
     -16      -19      -21      -19      -16      -18      -22      -23 
     -22      -21      -21      -22      -21      -18      -15      -13 
     -13      -15      -17      -19      -20      -21      -21      -23 
     -24      -22      -20      -19      -17      -13      -14      -17 
     -21      -22      -21      -20      -18      -16      -19      -21 
     -20      -20      -19      -15      -14      -16      -17      -18 
     -19      -21      -22      -20      -18      -21      -22      -17 
     -15      -17      -17      -17      -21      -22      -21      -20 
     -20      -19      -19      -18      -19      -19      -18      -17 
     -18      -21      -25      -24      -21      -21      -21      -21 
     -20      -17      -15      -16      -19      -18      -16      -17 
     -20      -22      -20      -19      -22      -20      -17      -20 
     -22      -18      -16      -15      -17      -20      -20      -19 
     -21      -24      -25      -23      -21      -20      -18      -15 
     -13      -15      -17      -19      -22      -23      -23      -23 
     -21      -17      -14      -13      -16      -18      -19      -20 
     -22      -22      -22      -21      -19      -18      -17      -17 
     -17      -16      -18      -22      -21      -19      -20      -20 
     -20      -19      -18      -19      -21      -19      -17      -17 
     -19      -18      -16      -19      -22      -22      -21      -18 
     -15      -17      -17      -17      -19      -22      -22      -21 
     -20      -20      -19      -17      -17      -17      -19      -21 
     -20      -20      -22      -21      -21      -21      -18      -16 
     -19      -20      -18      -19      -21      -22      -23      -24 
     -21      -18      -17      -19      -20      -19      -19      -20 
     -21      -20      -20      -17      -16      -21      -23      -20 
     -18      -20      -22      -20      -20      -20      -18      -18 
     -20      -21      -20      -18      -20      -21      -22      -22 
     -22      -20      -20      -20      -19      -20      -20      -19 
     -20      -19      -18      -19      -20      -21      -20      -18 
     -20      -21      -20      -20      -19      -18      -19      -19 
