Origin Time       2021/12/03 02:18:00
Lat.              35.527
Long.             138.978
Depth. (km)       21
Mag.              4.1
Station Code      KNGH22
Station Lat.      35.3583
Station Long.     139.0910
Station Height(m) 157
Record Time       2021/12/03 02:18:04
Sampling Freq(Hz) 100Hz
Duration Time(s)  120
Dir.              5
Scale Factor      3920(gal)/6170801
Max. Acc. (gal)   16.900
Last Correction   2021/12/03 02:17:49
Memo.             
[...]
    4899     4893     4894     4896     4898     4898     4897     4895 
    4895     4901     4905     4901     4901     4904     4904     4904 
    4902     4902     4904     4903     4900     4902     4902     4901 
    4899     4896     4898     4901     4899     4899     4901     4898 
    4897     4903     4903     4896     4893     4896     4902     4905 
    4903     4897     4893     4898     4902     4903     4905     4904 
    4901     4901     4900     4900     4902     4902     4900     4899 
    4897     4900     4906     4906     4901     4899     4900     4900 
    4901     4904     4904     4903     4901     4900     4898     4898 
    4901     4902     4902     4904     4900     4899     4905     4905 
    4899     4901     4901     4898     4899     4900     4898     4902 
    4905     4900     4897     4898     4898     4896     4895     4896 
    4898     4903     4907     4903     4896     4898     4902     4900 
    4900     4901     4901     4901     4902     4900     4899     4900 
    4897     4895     4900     4904     4902     4900     4900     4900 
    4901     4903     4904     4903     4900     4898     4900     4899 
    4897     4897     4897     4896     4900     4902     4900     4899 
    4893     4891     4898     4901     4902     4903     4898     4895 
    4896     4899     4899     4900     4902     4901     4901     4899 
    4895     4897     4903     4905     4904     4901     4900     4899 
    4899     4901     4903     4903     4899     4895     4897     4900 
    4900     4899     4894     4891     4892     4896     4899     4900 
    4899     4899     4902     4903     4898     4897     4901     4904 
    4903     4903     4903     4903     4902     4898     4898     4902 
    4900     4895     4897     4902     4899     4893     4895     4898 
    4899     4901     4903     4904     4902     4899     4902     4903 
    4900     4900     4901     4901     4905     4906     4900     4898 
    4899     4897     4899     4902     4898     4897     4897     4896 
    4898     4899     4896     4897     4900     4897     4897     4902 
    4903     4900     4896     4897     4901     4901     4901     4900 
    4898     4901     4903     4902     4904     4907     4904     4902 
    4905     4904     4900     4901     4901     4898     4902     4906 
    4901     4899     4900     4895     4894     4898     4897     4896 
    4898     4895     4893     4899     4901     4899     4903     4906 
    4905     4906     4907     4906     4905     4903     4903     4904 
    4903     4900     4897     4897     4897     4897     4899     4895 
    4892     4896     4898     4899     4896     4894     4901     4904 
    4901     4902     4904     4902     4905     4907     4902     4904 
    4910     4907     4898     4896     4899     4900     4900     4899 
    4897     4897     4898     4898     4898     4897     4900     4901 
    4896     4898     4903     4901     4901     4904     4901     4903 
    4906     4902     4901     4904     4903     4902     4900     4899 
    4909     4923     4923     4905     4888     4891     4900     4899 
    4896     4898     4899     4899     4904     4906     4903     4899 
    4899     4900     4903     4904     4900     4897     4900     4904 
    4904     4903     4897     4896     4904     4907     4905     4902 
    4898     4900     4904     4902     4899     4899     4900     4900 
    4897     4895     4898     4900     4899     4898     4898     4900 
    4904     4904     4901     4902     4906     4904     4903     4904 
    4901     4903     4907     4906     4901     4898     4897     4897 
    4900     4902     4899     4896     4896     4898     4901     4896 
    4892     4899     4901     4898     4899     4899     4900     4903 
    4901     4903     4907     4905     4904     4908     4910     4907 
    4906     4903     4899     4902     4902     4897     4895     4892 
    4892     4894     4892     4892     4896     4897     4899     4900 
    4900     4903     4907     4909     4910     4906     4902     4906 
    4907     4906     4906     4903     4901     4903     4900     4896 
    4897     4899     4897     4897     4899     4897     4894     4894 
    4894     4895     4897     4897     4898     4899     4899     4905 
    4909     4907     4909     4909     4905     4907     4909     4905 
    4903     4903     4901     4903     4904     4898     4894     4894 
    4893     4895     4897     4892     4889     4893     4893     4895 
    4902     4900     4895     4899     4902     4903     4907     4908 
    4904     4903     4904     4906     4907     4907     4908     4905 
    4901     4902     4901     4895     4893     4894     4897     4898 
    4894     4891     4889     4889     4894     4900     4900     4901 
    4904     4905     4907     4908     4908     4908     4907     4907 
    4907     4908     4908     4901     4895     4897     4899     4897 
    4895     4896     4896     4891     4890     4897     4897     4891 
    4892     4898     4903     4902     4899     4899     4900     4902 
    4907     4906     4904     4905     4905     4908     4909     4904 
    4903     4906     4905     4902     4897     4895     4897     4897 
    4895     4895     4893     4892     4893     4893     4892     4895 
    4898     4899     4897     4900     4902     4899     4902     4909 
    4907     4902     4900     4903     4909     4913     4910     4905 
    4902     4904     4903     4901     4902     4901     4895     4893 
    4898     4896     4891     4889     4890     4892     4895     4900 
    4899     4894     4895     4901     4904     4905     4907     4906 
    4901     4901     4907     4909     4905     4903     4903     4901 
    4900     4901     4902     4900     4898     4897     4896     4896 
    4897     4897     4897     4898     4898     4900     4901     4902 
    4902     4901     4904     4905     4900     4898     4906     4910 
    4907     4906     4904     4902     4903     4903     4900     4899 
    4900     4899     4895     4894     4892     4890     4888     4887 
    4891     4897     4897     4897     4900     4901     4906     4909 
    4903     4904     4908     4907     4907     4907     4905     4908 
    4908     4902     4899     4899     4903     4903     4896     4893 
    4896     4896     4896     4894     4893     4895     4893     4891 
    4893     4894     4896     4897     4893     4895     4904     4908 
    4906     4901     4902     4907     4908     4906     4906     4908 
    4910     4908     4904     4903     4904     4902     4899     4899 
    4900     4898     4895     4896     4897     4893     4891     4892 
    4893     4893     4896     4896     4897     4901     4904     4900 
    4898     4904     4911     4908     4902     4904     4908     4908 
    4905     4903     4904     4901     4898     4901     4902     4897 
    4895     4897     4900     4901     4899     4898     4896     4894 
    4897     4899     4895     4893     4896     4897     4900     4904 
    4905     4907     4908     4907     4907     4908     4906     4902 
    4902     4904     4904     4901     4898     4896     4897     4898 
    4900     4898     4893     4893     4898     4902     4900     4897 
    4898     4900     4904     4904     4904     4905     4906     4906 
    4904     4905     4906     4903     4898     4899     4902     4902 
    4900     4897     4894     4893     4894     4895     4894     4897 
    4897     4894     4894     4897     4903     4905     4900     4899 
    4901     4901     4905     4907     4907     4906     4903     4905 
    4909     4906     4904     4904     4898     4896     4900     4900 
    4899     4897     4894     4895     4895     4893     4896     4898 
    4899     4899     4897     4897     4899     4900     4901     4898 
    4898     4900     4899     4897     4900     4904     4904     4905 
    4905     4904     4903     4901     4901     4903     4903     4903 
    4898     4896     4900     4900     4898     4899     4899     4901 
    4904     4903     4898     4899     4905     4905     4902     4901 
    4897     4897     4901     4900     4895     4894     4897     4898 
    4898     4897     4896     4901     4904     4900     4898     4900 
    4901     4899     4899     4901     4899     4897     4899     4898 
    4898     4904     4905     4900     4902     4907     4910     4911 
    4906     4902     4903     4905     4905     4901     4894     4893 
    4894     4894     4897     4896     4892     4892     4895     4893 
    4891     4893     4896     4898     4899     4899     4899     4906 
    4907     4901     4900     4903     4907     4911     4908     4904 
    4904     4903     4903     4902     4901     4904     4904     4897 
    4890     4890     4893     4894     4893     4895     4896     4896 
    4895     4896     4898     4898     4898     4900     4903     4904 
    4903     4902     4903     4906     4908     4908     4905     4903 
    4902     4905     4909     4905     4898     4897     4898     4896 
    4892     4891     4894     4896     4894     4893     4895     4896 
    4894     4895     4902     4907     4906     4903     4907     4913 
    4911     4906     4906     4904     4902     4903     4901     4898 
    4898     4898     4894     4892     4892     4890     4890     4897 
    4896     4895     4899     4896     4893     4899     4904     4904 
    4907     4912     4928     4966     5042     5173     5333     5426 
    5290     4756     3812     2838     2524     3272     4668     5847 
    6243     6028     6161     7528     9355     9299     6540     3518 
    1987      742      121     1538     2855     2907     4194     6560 
    7919     8489     7868     5286     3652     5420     6859     4359 
    1741     3459     6977     7735     5812     4379     4840     5574 
    5134     4297     3944     3529     2672     2930     5206     6323 
    4487     2993     3360     4181     5294     6478     7040     7045 
    6524     5216     3020      911     1192     4533     7879     8137 
    6017     4137     3718     4877     7013     7266     4111     1654 
    3390     6421     6978     6060     5954     5440     3918     4126 
    5355     4218     2014     1621     3052     5105     6002     5512 
    5697     6694     7323     7510     6424     4323     3939     5425 
    6004     5242     4791     4442     3459     3528     5495     7256 
    7243     5234     2070      -22      364     3195     6697     7718 
    6447     5678     5040     3514     3072     4556     5999     5824 
    4651     4517     5136     4422     3527     3752     3599     4009 
    6244     7727     7781     7834     7001     5477     4628     4095 
    4314     5289     4422     1967     2025     4584     5228     3854 
    3650     3882     3524     4425     5792     6291     7187     7114 
    5244     5039     6563     6867     6351     5930     5152     4149 
    3186     2841     3168     3117     3246     4661     6520     7985 
    8376     6299     3166     2414     3554     4665     5859     5677 
    3883     3204     3531     4144     5391     5110     3699     4293 
    5362     5110     5167     5513     5527     5352     4453     3890 
    4789     5634     5291     4317     3676     4265     5522     6522 
    7820     8470     6714     4431     3471     2657     2348     3657 
    5184     5823     5417     3905     3448     4916     5206     4426 
    5306     6133     5593     5387     5015     4187     4344     4882 
    4665     4007     3815     5088     6905     6835     5354     5038 
    5813     6198     6105     5239     3675     3435     4493     4109 
    2877     3215     3717     3126     3358     4650     5397     5506 
    5445     5726     6608     7111     7212     7334     6722     5884 
    5375     4224     2856     2603     3391     4117     4044     4051 
    4927     5345     4769     4550     4549     4254     4939     5993 
    4889     2823     2919     4207     4795     5544     6178     5595 
    4877     4589     4409     5059     6051     5982     5348     4911 
    4552     4851     6024     6718     6220     5645     5954     6270 
    5472     4628     4991     5637     5621     4978     3938     3486 
    4365     5800     6221     4336     1586     1351     2829     2736 
    1939     2524     4174     6229     8016     8695     7665     5329 
    4566     6239     6025     3203     2913     5164     5715     5485 
    6278     6095     4903     4573     4619     4020     2798     2031 
    3312     5634     6384     5537     4445     3678     4240     6221 
    7249     5885     3740     3276     4812     6392     7142     6755 
    4255     1989     2852     4792     5858     6758     6608     4686 
    2971     2553     3000     4713     6650     6476     4950     3772 
    2842     3473     6616     8928     7962     6177     5342     4733 
    5384     7447     7311     4010     1182      190     -252      931 
    4432     6967     6821     6438     6018     4342     4504     7630 
    9670     9554     8225     5522     3773     4341     4687     3354 
    1350      298     1814     5626     8590     7538     3545     2287 
    6645    11416    11501     9035     7332     6146     3891      470 
   -1481    -1066    -1888    -5273    -8575   -11166   -12010    -7639 
    -574     1583    -2406    -6568    -5987     -454     8420    18232 
   23990    23074    20362    20569    21642    22071    24805    29475 
   31504    29761    25966    20994    15742     9189     -639   -10425 
  -14264   -11761    -7333    -4922    -6521   -12045   -18705   -21204 
  -14074     1410    13807    13373     4147    -4081    -7151    -4188 
    4957    15840    18106     6551    -7806   -12612    -8505      658 
   10386    13344     7991     1458     2389    11154    20262    23876 
   19882    11816     8038    10282    13609    13706     7290    -2145 
   -6247    -4539     -836     3758     5890     1275    -6851   -10184 
   -7094    -2010     3492     9106    12032    11301    10615    11092 
    7665     -404    -4111     2243    11901    16649    14336     5635 
   -3755    -5748      383     9543    16243    16466    13983    14811 
   15474    13572    13712    14959    13505    10683     6862     1266 
   -3339    -5624    -8092   -11938   -15161   -15228   -11273    -4711 
     881     2397      312    -2891    -3659     2055    11980    19199 
   22158    22193    18480    11712     5727     4133     6807    10133 
   10715     8598     5649     2079     -867     -763      576      944 
    1378     1259      920     3185     6091     5618     3238     2512 
    3586     5287     8014    11326    13407    13913    13019     9757 
    4785     1473     1104     1487     1754     1848     -532    -5089 
   -7071    -4192     1626     6949     8697     8254     9139    10642 
   10579     9287     8304     8448     8112     5643     3204     2451 
    1836     1700     3505     6397     9065    10446     9744     7944 
    7238     8889    12162    14505    13762    10528     6519     2607 
    -492    -2138    -2128     -926     -363    -2361    -6257    -9510 
  -10532    -8428    -3257     1331     2142     1599     2280     2891 
    3172     4794     7482     9926    11796    13177    14793    16749 
   17693    16935    14670    11790    10094    10091     9393     5908 
    1769     -198     -154     1246     2947     3167     2043     1112 
    1029     2005     4783     8675    10565     9115     6564     4483 
    2683     1547     1352     1467     1379     1053     1012     1990 
    4202     6815     8284     7852     5951     3803     2820     3454 
    5074     6240     6075     5466     4998     4382     3882     3675 
    3797     4140     4160     4261     5340     7276     9070     9667 
    8910     6964     4126     1820      926      393     -532     -932 
      88     1875     3203     4082     5393     7244     8826     9158 
    7806     5824     5216     6447     7837     8238     7614     5960 
    4075     2725     2069     2245     2426     2455     3651     5721 
    7283     8379     9328     9779     9771     9155     7545     5721 
    4338     3207     2615     2530     2603     3256     4164     4114 
    3269     2785     2830     2620     1921     1385     1313     1719 
    3139     5298     6549     6315     5862     6016     6416     6839 
    7357     7683     7550     7038     6457     6402     7023     7406 
    6715     5469     4767     4510     3716     2465     1884     2429 
    3574     4659     5459     6156     6592     6449     6125     6148 
    6560     7085     6937     5729     4327     3439     2832     1923 
     510     -505     -106     1566     3398     4305     4406     4150 
    3341     2582     3072     4536     5825     6658     6860     6109 
    5346     5792     7136     8236     8597     8763     9276     9701 
    9199     7783     6586     6207     5897     5153     4022     2374 
     963     1205     2599     3172     2755     2496     2336     2075 
    2296     2833     3213     3518     3874     4436     4955     5101 
    5268     5358     5044     4964     5416     6004     6775     7853 
    8873     9299     8753     7464     6032     4595     3444     3206 
    3623     3965     3940     3505     2773     2026     1815     2428 
    3350     4463     6208     7867     8190     7317     6015     4850 
    4385     4570     5172     6061     6509     6167     5606     5246 
    5109     5114     5325     5953     6692     6708     5775     4523 
    3859     4298     5032     5015     4609     4127     3328     2868 
    3301     4007     4344     4156     3452     2414     1285      468 
     343      497      393      553     1554     2942     4010     4597 
    5204     6331     7568     8430     9118     9616     9787     9741 
    9504     9401     9556     9193     8196     7398     6755     5949 
    5718     6561     7593     7645     6717     5639     4927     4450 
    3919     3407     2971     2556     2276     2113     2168     2598 
    2833     2364     1808     1846     2076     1995     1893     1917 
    1734     1522     1743     2216     2821     3765     4611     5285 
    6557     8062     8744     8768     8659     8406     7999     7472 
    6971     6658     6278     5737     5138     4209     3377     3569 
    4204     4211     4032     4153     3938     3270     2925     3269 
    4090     4957     5543     5875     5876     5561     5608     6314 
    7083     7543     7676     7353     6549     5533     4696     4213 
    4096     4278     4505     4693     4849     4672     4303     4425 
    4904     5123     5274     5515     5472     5293     5110     4492 
    3722     3300     2924     2660     2816     2898     2699     2812 
    3344     3973     4639     5047     5205     5793     6656     7009 
    6871     6643     6602     6818     6795     6300     5940     5801 
    5295     4733     4819     5227     5503     5810     5890     5263 
    4279     3562     3254     3221     3303     3321     3084     2775 
    2728     2679     2564     2856     3295     3467     3759     4364 
    5017     5502     5763     5917     5966     5979     6250     6674 
    6896     6841     6531     6046     5531     5039     4790     4991 
    5148     4944     5072     5799     6468     6788     6884     6615 
