Origin Time       2021/12/03 02:18:00
Lat.              35.527
Long.             138.978
Depth. (km)       21
Mag.              4.1
Station Code      KNGH22
Station Lat.      35.3583
Station Long.     139.0910
Station Height(m) -1843
Record Time       2021/12/03 02:18:04
Sampling Freq(Hz) 100Hz
Duration Time(s)  120
Dir.              3
Scale Factor      3920(gal)/6170801
Max. Acc. (gal)   0.728
Last Correction   2021/12/03 02:17:49
Memo.             
[...]
       9        8        8        8        8        8        9        9 
       8        8       10       10        7        6        7        9 
      10        7        5        6        8        9        9        8 
       7        8        9        8        7        7        8        9 
       9        7        6        7        6        6        6        6 
       8        8        7        7        8        9        8        9 
      10        7        6        9       10       10       11       10 
       7        6        6        4        6        9        7        6 
       6        6        7        8        8        9        9        7 
       7       10       12       10       10       11       11       10 
      11       10        8        7        7        7        8        8 
       7        7        8        8        9       10        9        8 
       8        8       10        9        8       10       12        9 
       7        8        8        8        6        7       10        8 
       8        9        8        8        9        9        8       10 
      10        9        9       10        9        8       10       11 
      10        8        7        7        7        7        8       10 
      10        8        7        8        7        5        6        7 
       9        9        9       10       10        9        9       10 
       8        6        7        8        8        9       10       10 
       8        7        7        7        7        8        9       10 
      12       11       10       10        9        9       10       10 
       9        8        8        7        8        8        7        7 
       8        9        9        7        5        7        9        8 
       8        8        7        9       12       11       10       11 
      10        7        6        5        5        6        8        8 
       8        8        7        8       10        9        9        9 
       8        8        9        9       10       10        8        9 
       9        6        6        9        9        8        9        9 
       9        9        8        9        8        6        7        9 
       7        7       11       13       11       10       10        9 
       9        8        6        5        6        8        8        5 
       6        8        8        8        7        5        7        8 
       8        9       10        8        9       10       10       10 
       9        7        8        9        7        7        7        7 
       8        9        8        8        8        6        6        9 
      10        8        8        9       10        9        9       10 
       8        7        7        8        8        8        8        8 
       8        9        8        8       10       10        8        7 
       6        8        9        8        7        9        9        8 
       8        7        7        7        7        7        7        6 
       7        9        8        5        6        8        9        8 
       9       10        9        9        9        7        8        9 
      10        9        9       10        9        8        8        8 
       9        7        8       12       11        8        8        7 
       7        8        9       10       10        9        9       10 
       9        9        9        7        7        8        9        7 
       7       10        9        7        8        8        8        7 
       7        9       10        9        8        8        9       10 
       8        6        7        8        7        7        6        8 
       8        7        6        7        6        7        8        8 
       9       10       10       10       10       10       10       12 
      11        8        8        8        7        8        7        6 
       8       10       10        9       10       10       10       10 
      10        8        8       10       10        9        9        7 
       6        8        7        7        8        7        6        8 
       9        8        8        8        8        9        7        6 
       8        7        6        8       10       10       10       10 
       8        7        8        8        8        8        8        8 
       9        6        6        9        9        6        6        7 
       8        9        8        8       10        9        8        9 
       9        8        5        5        7        8        8        8 
       7        7        7        8       10       11       10       10 
      11       11       11       10       10       11       10       10 
      12       10        8        8        8        8        8        6 
       7       10        9        8        8        9        9       10 
       8        6        7        9       10        9       11       11 
       9        7        8        8        7        6        6        8 
       9        8        8        8        7        7        9       10 
       9        8        8        8        8       10       12       11 
       9       10        8        8        8        7        8       10 
       8        7       10        8        5        7        9        8 
      10       11        9        7        8        8        9        9 
       7        7        9        9        7        7        8        6 
       7        8        8        8        9       10        8        7 
       8        9       10       10       10       11       12        9 
       8        9        9        9        8        8        9        9 
      11       13       12        9        8       10       10       10 
      11       11       11       11        9        9       11       10 
       8        9        8        5        5        6        7        9 
       9        7        7        7        7        6        8        8 
       8        8        9       10        9        9       11       12 
       9        7        8        7        6        6        7        9 
       9        7        7        9        9        9        9        9 
       8        7        7        9       11       11        9        9 
      10       11       10        9       10        9        7        9 
      10        8        9        9        9        9        9        8 
       9        9        9       10       10       11       11       10 
       7        7        8        7        8        9        8        9 
       9        7        9        9        7        7        7        8 
      10        9        8        9       10       10       12       10 
       7        8        8        8        9        8        7        8 
       9       10        9        8        8       10       10        9 
       9        9       10        9       10       11       10        9 
      10        9        8        9        8        7        9       11 
      10        8        8        9        9        9        9        9 
       9        9       10        9        7        7       10        9 
       8        8        8        8        7        6        8        8 
       7        9        9        7        8        8        7        9 
      10       10       10        8        8       10       11       11 
      10        9        9        8        9       10       11       11 
       9        7        7        9        8        7        9        9 
       9       11       11        8        8       10       10       11 
      11        9        9        9        7        7        9       10 
       9       10       10        9       11       11       10        9 
       9        8       10       12       12       10        9       11 
      11       10        9        9        8        8       10       10 
       9       10        9        8        8        8        9        9 
       9        9        8        9       10       10       10       10 
      10        7        7        8        9        7        7       10 
      10        7        7        7        7        7        9       10 
       9        7        9       10        8        8        8        9 
      10        9        8        8        8        8        7        9 
      11        9        7        8       11       11       12       12 
      11       11       10       10       11       11       10       11 
      11        9        8        8        6        5        7        8 
       9        8        6        7        9        9        9       10 
       9        7       10       12       10        9       10       10 
      10        9        9        9        9        8        9       10 
      11        9       10       13       12        9        9        9 
       8        9        9        8        9       11       10        9 
      10       10        7        6        8        9        9        8 
       9       10        9        9        8        7        9       10 
      10       11       11       10       12       12       11       11 
      12        9        8        9        7        6        7        8 
       9        8        8        8        8        9       10       10 
      10       10       10       11       10       10       12       11 
       9        9        9        7        7        9        8        8 
      10        9        7        8        9        8        7        8 
      10       10        9       10       11       11       12       12 
      10       10        9        8        8        9        9        9 
       9        9        9        9        7        7        9       10 
       9        8        9        8        8        9       10        9 
       8        8        7        7       10       10        8       10 
      12       12       10       10       10       11       11       10 
      10       10        9        9       10       11       12       11 
       9        9        9        8        7        7        9        9 
       9       10       11       10        9       10       10       10 
      10       10       11       13       11       10       10       11 
      10        8        8        9       10       13       18       18 
       4      -13      -20      -29      -35        0       56       69 
      59       63       23      -31       -2        3      -75      -81 
     -15       71      114       11      -43       53       73      -19 
     -56        3       23      -42      -44       55       80       22 
      17        2      -28        3       18        3       11       11 
       7       40       45       -7      -20        1       -5      -16 
     -14       -7       -4       20       80       77       10      -16 
     -20      -23        6       19       -5      -12       -1       24 
      83       95       10      -43      -23      -28      -43      -20 
       7       33       53       62       78       39      -38      -47 
     -44      -62       -3       61       50       55       46      -27 
     -53      -25      -21      -26        5       64       77       47 
      29      -11      -51      -38       -6       21       43       49 
      55       44      -20      -54      -21      -44      -52       49 
      96       63       53       31       -5      -36      -40        7 
      -1      -73      -72      -34      -13       35       73       95 
     120      109       48      -44      -91      -91      -92      -28 
      62      102      121       83       35       30      -18      -70 
     -52      -44      -57      -19       16       23       77       99 
      36       12       10      -16       -8       -9      -42      -26 
      13       17        5       17       53       58       32        6 
     -36      -42        2        4      -16        8       37       36 
      20       12       12       18       51       44      -20      -41 
     -22      -16       11       46       25       -1       19       18 
      21       36       -3      -27      -21      -35        1       65 
      44        2       19       15      -39      -40       21       27 
     -18      -19       15       55       78       49       34       27 
     -31      -52      -20      -19      -13       27       32       -1 
     -12       24       74       59      -24      -55        4       54 
      41       19       -5      -56      -70      -18       37       55 
      53       44       30       16      -20      -56      -21       28 
      27       31       13      -30       -5       44       46       28 
      -2      -20      -12      -17      -13       36       47      -13 
     -21       30       43       26       -6      -29        0       13 
      -5       24       30       -7       14       20      -21       21 
      64       23       27       46      -32      -82      -16       24 
       5       44       71      -10      -37       26       35       20 
      -2      -55      -29       45       20      -32       -3       67 
     105       53      -38      -67      -48      -17        8       28 
      54       41        9       17       20       11       17        3 
       3       32       14      -15        9        0      -42        0 
      65       59       40       23       -9      -28      -46      -63 
     -44       17       98      105       39       34       18      -93 
    -118        8      135      172      131        3     -282     -546 
    -393       30      103     -132      -89        4     -407     -604 
     166      841      308     -522     -481     -206     -371     -256 
     192      358      530      376     -672     -945      435     1155 
     488      103      -30     -221      253      936      947      330 
    -259     -253      -82     -170      -79      165       46     -278 
    -309     -100       22       83      154      149       17     -249 
    -187      330      441      -25     -481     -624     -228      259 
     185       -1       23      -32      -30       86      103       76 
      83      172      320      252      -28      -77       40     -169 
    -377     -105      161      176      250      174      -94     -148 
    -157     -319     -224      110      101     -135      -71      133 
     215      278      284       77     -209     -274     -237     -257 
     -41      310      339      114      -65      -78       47       84 
     -42       12      247       68     -368     -248      133       75 
     -14      170      149      -57      -86     -107     -224     -177 
      24      164      249      217      -19     -123       48      129 
      43        9      -41     -221     -288      -77      101      198 
     400      409       99     -208     -349     -319     -216      -98 
      38       19     -127      -97       78       75      -53       65 
     257      144       17      113      216      277      201      -35 
    -107      -57     -107      -76       38      -48     -304     -387 
    -163       55       68       82      162      121       22       84 
     183      172      151       77      -80     -179     -190     -114 
      14       97      193      253      165       92       -6     -248 
    -288      -58       68       88      143      141       34     -164 
    -298     -150      102      142       58       68      103      -18 
    -145      -22      131       93       63       58      -29      -84 
     -44        3      -40     -100       -1      177      215       99 
     -52     -129      -65       13      -58     -125      -76      -37 
      24       75       13       39      195      248      213      164 
      79       17        1      -32      -97     -141     -163     -178 
    -108       10       33      -16      -31        5       58       72 
       0      -83      -93      -67      -31        9        5        7 
      80       95      -17      -52       60      142      133      102 
      79       31      -57      -94      -25        3      -55      -29 
      55       70       75       70        9       -4       18       -4 
     -33      -31       18       40      -13      -11       57      105 
     146      117       -6      -96      -85      -24       -3      -48 
     -97      -81      -40      -17       36       95       82       33 
       8       23       20      -64      -81       -7      -46      -76 
      32       67       47      124      192      153       20      -93 
     -84      -40      -34      -26       16       68       98      111 
      60      -28      -23       -7      -62      -64       -7       -5 
     -41      -14       43       41        2      -59      -93      -57 
     -44      -38       43      132      134       53        4       30 
      45       -4      -66      -48       14       38       27       -9 
      -2       79      130       85        9      -14      -17      -44 
     -27       44       77       38      -30      -42       20       41 
      -8      -57      -84      -53       48      133       75      -33 
      13       76       11      -32      -16       -3        2      -20 
     -40      -39      -40      -23       20       33       12       20 
      47       16      -41      -16       43       22      -33      -37 
     -14       16       73       95       20      -57      -61      -26 
      15       43       32       -9       26      126      123       66 
      44        4       13       34      -40      -96      -95      -95 
     -70      -26       17       67       68       34       73      118 
      56      -12      -26      -58      -89      -58        6       56 
      68       60       34      -28      -39       35       74       51 
      39        6      -61      -74      -30        5       12       11 
      33       61       34       -7       26       52      -15      -61 
     -30      -28      -21       74      123       39      -27       -2 
      -2      -41      -28        1      -19      -47      -51       -8 
      81      135      111       53       30       46       20      -53 
     -92      -72      -13       40       15      -39       -2       63 
      48        6       17       42        6      -48      -19       39 
       8      -52      -36       -5       -7       20       55       61 
      74       74       31       -7      -15      -29      -55      -72 
     -56       -5       48       86      107      110       85       11 
     -65      -99      -97      -38       32       43       42       70 
      78       48       11      -15      -41      -56      -49      -52 
     -65       -7       85       71       16       29       44       19 
     -13      -17       19       48       26      -20      -32      -14 
     -13      -18       24       78       73       25      -24      -56 
     -44      -16       -3       16       50       79       67       19 
     -20      -34      -29      -15      -11       -4       22       40 
      30       27       34       26       22        0      -40      -16 
      19      -14      -13       42       62       59       39       -8 
     -42      -41       -8       29       34       18        6       12 
      11      -12      -27       -6       53       57       -8      -10 
      37       38        5      -13      -19      -21      -10        7 
      18        5      -14       26       60       27       23       44 
      15      -12      -10      -13       -1       13        3       -2 
      -4       -7       17       37       25        8       -4        4 
