Origin Time       2021/12/03 02:18:00
Lat.              35.527
Long.             138.978
Depth. (km)       21
Mag.              4.1
Station Code      KNGH22
Station Lat.      35.3583
Station Long.     139.0910
Station Height(m) 157
Record Time       2021/12/03 02:18:04
Sampling Freq(Hz) 100Hz
Duration Time(s)  120
Dir.              6
Scale Factor      3920(gal)/6170801
Max. Acc. (gal)   13.164
Last Correction   2021/12/03 02:17:49
Memo.             
[...]
  -38538   -38540   -38541   -38540   -38539   -38541   -38542   -38541 
  -38541   -38542   -38544   -38545   -38541   -38540   -38540   -38539 
  -38540   -38539   -38536   -38538   -38539   -38539   -38541   -38541 
  -38539   -38537   -38536   -38538   -38541   -38542   -38539   -38541 
  -38546   -38542   -38536   -38540   -38541   -38539   -38539   -38538 
  -38542   -38543   -38540   -38541   -38543   -38540   -38540   -38541 
  -38538   -38536   -38540   -38544   -38540   -38539   -38542   -38541 
  -38540   -38541   -38543   -38544   -38541   -38538   -38540   -38542 
  -38539   -38537   -38542   -38545   -38543   -38542   -38542   -38541 
  -38538   -38537   -38539   -38539   -38539   -38541   -38539   -38537 
  -38540   -38544   -38544   -38540   -38542   -38544   -38541   -38540 
  -38543   -38544   -38544   -38545   -38543   -38542   -38540   -38537 
  -38541   -38544   -38541   -38540   -38540   -38539   -38540   -38543 
  -38542   -38543   -38543   -38543   -38542   -38539   -38539   -38541 
  -38541   -38543   -38543   -38542   -38542   -38544   -38543   -38541 
  -38540   -38539   -38544   -38546   -38540   -38541   -38546   -38543 
  -38542   -38543   -38542   -38541   -38540   -38540   -38541   -38542 
  -38541   -38541   -38543   -38544   -38541   -38542   -38543   -38541 
  -38539   -38540   -38540   -38540   -38543   -38542   -38538   -38538 
  -38539   -38539   -38541   -38541   -38538   -38542   -38545   -38540 
  -38538   -38542   -38542   -38540   -38542   -38544   -38544   -38543 
  -38543   -38541   -38541   -38544   -38541   -38538   -38540   -38545 
  -38547   -38541   -38538   -38540   -38541   -38541   -38540   -38539 
  -38542   -38544   -38541   -38542   -38547   -38544   -38538   -38539 
  -38539   -38538   -38540   -38539   -38536   -38538   -38539   -38540 
  -38544   -38543   -38539   -38541   -38541   -38538   -38538   -38540 
  -38543   -38544   -38544   -38544   -38542   -38540   -38540   -38539 
  -38538   -38540   -38542   -38541   -38537   -38539   -38542   -38542 
  -38543   -38543   -38541   -38539   -38540   -38544   -38543   -38537 
  -38537   -38541   -38542   -38542   -38540   -38538   -38538   -38540 
  -38541   -38544   -38543   -38541   -38542   -38541   -38539   -38540 
  -38542   -38540   -38538   -38538   -38540   -38541   -38541   -38542 
  -38540   -38540   -38544   -38542   -38540   -38541   -38540   -38542 
  -38544   -38540   -38540   -38544   -38543   -38542   -38544   -38541 
  -38537   -38539   -38539   -38538   -38544   -38545   -38538   -38536 
  -38542   -38545   -38544   -38541   -38540   -38544   -38544   -38539 
  -38540   -38540   -38537   -38539   -38541   -38541   -38542   -38541 
  -38542   -38546   -38544   -38539   -38540   -38541   -38539   -38537 
  -38540   -38543   -38539   -38537   -38542   -38543   -38538   -38538 
  -38532   -38519   -38517   -38535   -38548   -38540   -38534   -38538 
  -38541   -38539   -38537   -38538   -38538   -38541   -38543   -38540 
  -38539   -38540   -38540   -38541   -38542   -38542   -38541   -38543 
  -38544   -38544   -38542   -38542   -38540   -38539   -38542   -38542 
  -38540   -38540   -38540   -38538   -38537   -38540   -38541   -38538 
  -38537   -38541   -38541   -38536   -38536   -38543   -38544   -38539 
  -38540   -38543   -38543   -38541   -38541   -38544   -38545   -38540 
  -38539   -38543   -38544   -38540   -38538   -38538   -38537   -38536 
  -38539   -38543   -38542   -38538   -38534   -38535   -38537   -38538 
  -38539   -38542   -38542   -38541   -38541   -38542   -38543   -38543 
  -38542   -38541   -38543   -38542   -38539   -38538   -38537   -38538 
  -38541   -38538   -38537   -38540   -38538   -38537   -38537   -38538 
  -38537   -38536   -38538   -38541   -38541   -38539   -38539   -38541 
  -38543   -38542   -38542   -38544   -38543   -38543   -38545   -38545 
  -38539   -38538   -38543   -38544   -38540   -38538   -38538   -38537 
  -38536   -38535   -38536   -38538   -38537   -38537   -38536   -38537 
  -38541   -38541   -38540   -38544   -38544   -38542   -38542   -38542 
  -38542   -38544   -38544   -38540   -38540   -38542   -38543   -38543 
  -38541   -38540   -38540   -38536   -38533   -38536   -38538   -38538 
  -38537   -38538   -38539   -38537   -38538   -38539   -38539   -38539 
  -38541   -38543   -38544   -38544   -38544   -38544   -38543   -38544 
  -38546   -38546   -38542   -38541   -38541   -38542   -38542   -38537 
  -38531   -38531   -38534   -38534   -38534   -38535   -38535   -38532 
  -38532   -38537   -38541   -38538   -38540   -38545   -38546   -38542 
  -38543   -38547   -38548   -38546   -38546   -38547   -38547   -38544 
  -38542   -38545   -38542   -38538   -38538   -38537   -38538   -38539 
  -38536   -38535   -38535   -38533   -38533   -38536   -38538   -38538 
  -38537   -38541   -38543   -38539   -38540   -38543   -38543   -38543 
  -38546   -38545   -38543   -38542   -38543   -38544   -38541   -38539 
  -38542   -38544   -38543   -38539   -38538   -38542   -38541   -38535 
  -38536   -38540   -38542   -38539   -38537   -38539   -38540   -38539 
  -38541   -38542   -38545   -38548   -38543   -38538   -38543   -38546 
  -38546   -38544   -38541   -38540   -38540   -38540   -38540   -38540 
  -38539   -38537   -38535   -38536   -38538   -38540   -38539   -38539 
  -38541   -38540   -38539   -38541   -38544   -38543   -38542   -38544 
  -38545   -38543   -38544   -38545   -38541   -38541   -38543   -38540 
  -38540   -38543   -38540   -38536   -38540   -38542   -38538   -38539 
  -38543   -38542   -38538   -38538   -38537   -38535   -38539   -38540 
  -38539   -38540   -38542   -38542   -38543   -38544   -38543   -38543 
  -38542   -38542   -38543   -38543   -38541   -38542   -38544   -38540 
  -38538   -38540   -38541   -38541   -38539   -38537   -38538   -38541 
  -38541   -38538   -38540   -38543   -38541   -38538   -38539   -38539 
  -38539   -38539   -38543   -38548   -38547   -38542   -38544   -38547 
  -38544   -38543   -38544   -38544   -38542   -38538   -38540   -38544 
  -38541   -38540   -38542   -38542   -38541   -38539   -38538   -38540 
  -38538   -38535   -38536   -38541   -38545   -38545   -38543   -38545 
  -38544   -38543   -38544   -38543   -38540   -38542   -38544   -38544 
  -38544   -38546   -38545   -38543   -38542   -38541   -38541   -38541 
  -38541   -38542   -38541   -38539   -38539   -38538   -38537   -38539 
  -38541   -38539   -38540   -38543   -38539   -38536   -38542   -38547 
  -38546   -38546   -38546   -38543   -38544   -38544   -38541   -38543 
  -38545   -38544   -38543   -38540   -38537   -38540   -38543   -38538 
  -38535   -38538   -38539   -38535   -38536   -38539   -38541   -38538 
  -38536   -38540   -38544   -38544   -38544   -38547   -38546   -38543 
  -38546   -38545   -38543   -38546   -38546   -38541   -38541   -38543 
  -38542   -38541   -38540   -38538   -38538   -38542   -38540   -38535 
  -38535   -38538   -38540   -38542   -38541   -38537   -38535   -38536 
  -38542   -38543   -38540   -38543   -38547   -38547   -38546   -38545 
  -38545   -38546   -38544   -38542   -38542   -38544   -38544   -38541 
  -38542   -38543   -38540   -38540   -38540   -38535   -38532   -38536 
  -38539   -38535   -38534   -38537   -38541   -38540   -38538   -38538 
  -38541   -38543   -38541   -38542   -38547   -38546   -38541   -38544 
  -38549   -38546   -38544   -38548   -38547   -38540   -38540   -38544 
  -38543   -38539   -38539   -38538   -38539   -38540   -38538   -38536 
  -38537   -38535   -38534   -38538   -38542   -38542   -38541   -38541 
  -38542   -38544   -38546   -38546   -38544   -38544   -38546   -38548 
  -38548   -38544   -38540   -38540   -38541   -38542   -38541   -38539 
  -38537   -38539   -38540   -38536   -38534   -38534   -38539   -38542 
  -38540   -38540   -38545   -38543   -38539   -38539   -38542   -38543 
  -38542   -38540   -38539   -38543   -38543   -38540   -38544   -38545 
  -38541   -38538   -38541   -38543   -38541   -38543   -38544   -38539 
  -38536   -38537   -38539   -38540   -38538   -38537   -38537   -38538 
  -38537   -38536   -38541   -38544   -38541   -38538   -38540   -38546 
  -38546   -38544   -38543   -38540   -38540   -38544   -38544   -38543 
  -38544   -38544   -38542   -38541   -38543   -38541   -38536   -38537 
  -38539   -38539   -38540   -38538   -38535   -38534   -38538   -38541 
  -38539   -38537   -38538   -38537   -38538   -38542   -38543   -38543 
  -38543   -38542   -38543   -38547   -38548   -38544   -38542   -38544 
  -38542   -38540   -38542   -38541   -38539   -38541   -38539   -38537 
  -38538   -38538   -38536   -38537   -38541   -38539   -38537   -38538 
  -38539   -38541   -38543   -38544   -38543   -38542   -38542   -38545 
  -38545   -38545   -38545   -38546   -38546   -38545   -38542   -38542 
  -38543   -38543   -38539   -38537   -38536   -38535   -38536   -38538 
  -38537   -38538   -38539   -38536   -38537   -38541   -38540   -38538 
  -38541   -38545   -38545   -38542   -38544   -38545   -38547   -38544 
  -38542   -38546   -38547   -38543   -38539   -38541   -38542   -38539 
  -38538   -38541   -38540   -38537   -38536   -38537   -38538   -38538 
  -38539   -38538   -38536   -38540   -38544   -38544   -38546   -38556 
  -38582   -38641   -38771   -39035   -39495   -40104   -40545   -40253 
  -38753   -36139   -33380   -32121   -33493   -36593   -38953   -39383 
  -39433   -41066   -43981   -45939   -44231   -38165   -32845   -34657 
  -40130   -40393   -36143   -34903   -37835   -40251   -40541   -40358 
  -39080   -36330   -35961   -40029   -44081   -42712   -37082   -34291 
  -37481   -40993   -39576   -35275   -31772   -30653   -34003   -41586 
  -46801   -44433   -39380   -38634   -40933   -41499   -39616   -38333 
  -38683   -38148   -37312   -38391   -39001   -37386   -36161   -37073 
  -38560   -38931   -38792   -39235   -40045   -40323   -39100   -36470 
  -34687   -35402   -36944   -37877   -39157   -40242   -38799   -35758 
  -35758   -39352   -40907   -38974   -38781   -41419   -41645   -37792 
  -35343   -37859   -40716   -39323   -37219   -38736   -40781   -39464 
  -37484   -38132   -39120   -37948   -36565   -37306   -39499   -41031 
  -40805   -39866   -39361   -38417   -36618   -35235   -35547   -37973 
  -40197   -39593   -37810   -37435   -38542   -40098   -40692   -39656 
  -38106   -37575   -38100   -37887   -36494   -36721   -39071   -39799 
  -38304   -38155   -40016   -40760   -39376   -38446   -38971   -39064 
  -38226   -37976   -38679   -38479   -36520   -35699   -37827   -39690 
  -39206   -38824   -40004   -40938   -40021   -37920   -36715   -37595 
  -38693   -37858   -37001   -37964   -38739   -38416   -38627   -39757 
  -40455   -39842   -38887   -38846   -39265   -38909   -37530   -36137 
  -36162   -37868   -39369   -39255   -39221   -40498   -40967   -39286 
  -37110   -36543   -37975   -39065   -38427   -38474   -39642   -39083 
  -36766   -35363   -36350   -38741   -39909   -39115   -38567   -38909 
  -38634   -38140   -38622   -39170   -38502   -37360   -37648   -39201 
  -39771   -39114   -38992   -39527   -39412   -38505   -37876   -38278 
  -39290   -39327   -38081   -37948   -39539   -40024   -38371   -36787 
  -37463   -39726   -39900   -37343   -36570   -38735   -39921   -38992 
  -38206   -38365   -38320   -37690   -37572   -38063   -38074   -37882 
  -38651   -40076   -40502   -39440   -38279   -37848   -37905   -38215 
  -38147   -37759   -38466   -40102   -40546   -39460   -38287   -37590 
  -37458   -37986   -38642   -38814   -38498   -38295   -38375   -38114 
  -37591   -37594   -38149   -38737   -39169   -39473   -39393   -38600 
  -37791   -37773   -37971   -38162   -38720   -38802   -38084   -38099 
  -39157   -38989   -37263   -37139   -38933   -39487   -38853   -39215 
  -40017   -39654   -38636   -38848   -40074   -39484   -36918   -36456 
  -39453   -41483   -39673   -37469   -38093   -39053   -37750   -36236 
  -36833   -38624   -39975   -40545   -40182   -38592   -36348   -35020 
  -36121   -38685   -39491   -37816   -36628   -38042   -40817   -42172 
  -40700   -38046   -36850   -37349   -38188   -38406   -37692   -37442 
  -39261   -41583   -41551   -39109   -36931   -36924   -37565   -37113 
  -37638   -39990   -40473   -38691   -38909   -40937   -40150   -36261 
  -34054   -36098   -39625   -40829   -39846   -39219   -39365   -39207 
  -38475   -37436   -36561   -36257   -36625   -37688   -39251   -40514 
  -40517   -39379   -38675   -39560   -40137   -38235   -36431   -37469 
  -39062   -39420   -39763   -40307   -40209   -38942   -36822   -35583 
  -36003   -36831   -37870   -39665   -40225   -37930   -35359   -34744 
  -34976   -36324   -40346   -44707   -45499   -43114   -40778   -39606 
  -38623   -38235   -39938   -42557   -42679   -39416   -36221   -36774 
  -38587   -35939   -31454   -32537   -37535   -40044   -39358   -37750 
  -36132   -35131   -35819   -37952   -39696   -39814   -38537   -37582 
  -38818   -40799   -39920   -37300   -38022   -41131   -40494   -36265 
  -34931   -38767   -42240   -39964   -34655   -32936   -35609   -38313 
  -39769   -41648   -42764   -41230   -38594   -37641   -38841   -39961 
  -39702   -39591   -41179   -43466   -42550   -36717   -31540   -32657 
  -36633   -37388   -36465   -38290   -41811   -44334   -45602   -44020 
  -38093   -31910   -31596   -37913   -45787   -49289   -46252   -39552 
  -34411   -34246   -38432   -42640   -42789   -38940   -33763   -30458 
  -31323   -34042   -33672   -30760   -31141   -35891   -38385   -35617 
  -34944   -40821   -45743   -45525   -47436   -54842   -59275   -52905 
  -40232   -31755   -31303   -34378   -34534   -31132   -29164   -29998 
  -30581   -29954   -29796   -31886   -35681   -38661   -40492   -42928 
  -45951   -47137   -44882   -41317   -38538   -35348   -32392   -33205 
  -37607   -40575   -39936   -38933   -38899   -38390   -38374   -40459 
  -43323   -45069   -45927   -46544   -46613   -45102   -41887   -39623 
  -40028   -40642   -39619   -37520   -33177   -26986   -24220   -27582 
  -32784   -34805   -34333   -34698   -35921   -36749   -38488   -42203 
  -45713   -46832   -46599   -46535   -45335   -41696   -37859   -36254 
  -35736   -34544   -33619   -34477   -36214   -36424   -35074   -34661 
  -35965   -37654   -38837   -40325   -42733   -43998   -42786   -40707 
  -39188   -38309   -37491   -36935   -37756   -39086   -38881   -37620 
  -37007   -37287   -38095   -39315   -40179   -39924   -39975   -41505 
  -41859   -39158   -36740   -37634   -39503   -39223   -37672   -37131 
  -37673   -37562   -36310   -36270   -38911   -41306   -40424   -38145 
  -37843   -39161   -39471   -38270   -37014   -36092   -35409   -35491 
  -35919   -36268   -37729   -40240   -41484   -41216   -41415   -42008 
  -41518   -40049   -38892   -38754   -39090   -38536   -36645   -35256 
  -35709   -36493   -36230   -35685   -35800   -36279   -36523   -36796 
  -37594   -38613   -39779   -41796   -44125   -45222   -45258   -45235 
  -44760   -43187   -40842   -38635   -37405   -36874   -36069   -35164 
  -35364   -36936   -38619   -39122   -38520   -38084   -38439   -38755 
  -38437   -37963   -37569   -36731   -35730   -35451   -35588   -35780 
  -36567   -37741   -38302   -38396   -39013   -39704   -39198   -37664 
  -36311   -36068   -36993   -38070   -38244   -37744   -37592   -38059 
  -38706   -39512   -40534   -41283   -41603   -41881   -42047   -41601 
  -40489   -39348   -38617   -38070   -37942   -38480   -38889   -38882 
  -39002   -39399   -39918   -40097   -39779   -39767   -40418   -40954 
  -40569   -39467   -38166   -36212   -33858   -32681   -32857   -33140 
  -33116   -33606   -34957   -36117   -36546   -37022   -37948   -38708 
  -38860   -39021   -39591   -39945   -39923   -40182   -40859   -41387 
  -41612   -42112   -42990   -43446   -43118   -42538   -42290   -42559 
  -42716   -42208   -41629   -41265   -40447   -38904   -37152   -35711 
  -34688   -34278   -34791   -35813   -36093   -35015   -33904   -34186 
  -34930   -34884   -34901   -35637   -36033   -35700   -35781   -36818 
  -37796   -37983   -38237   -39549   -41338   -42273   -42187   -42021 
  -42426   -43017   -42759   -41552   -40594   -40247   -39439   -37925 
  -36981   -37205   -37626   -37623   -37543   -37373   -36946   -36741 
  -37421   -39114   -41046   -42278   -42810   -42904   -42199   -40689 
  -39245   -38433   -37906   -37211   -36580   -36462   -36646   -36597 
  -36261   -35806   -35321   -35077   -35111   -35230   -35612   -36535 
  -37811   -38595   -38540   -38438   -38638   -38743   -38718   -38708 
  -38553   -38409   -38918   -39863   -40251   -40097   -40259   -40881 
  -41315   -41187   -40770   -40312   -39605   -38740   -38609   -39437 
  -40113   -40144   -40157   -40158   -39645   -38980   -38701   -38294 
  -37373   -36788   -37018   -37441   -37833   -38250   -38119   -37233 
  -36453   -36631   -37459   -38039   -38239   -38443   -38739   -39132 
  -39457   -39325   -38736   -38086   -37748   -37827   -38098   -38467 
  -38850   -38848   -38590   -38724   -39189   -39300   -38951   -38837 
  -39149   -39214   -38893   -38767   -38936   -38854   -38269   -37566 
  -37049   -36639   -36283   -36046   -36097   -36603   -37366   -37899 
  -38082   -38360   -38879   -39273   -39427   -39462   -39375   -39139 
  -38936   -39012   -39233   -39410   -39636   -40008   -40386   -40432 
  -40229   -40164   -40055   -39467   -38494   -37690   -37443   -37718 
  -38255   -38639   -38654   -38485   -38492   -38815   -39111   -39230 
  -39520   -39889   -39624   -38524   -37434   -37261   -37930   -38646 
  -38827   -38601   -38517   -38651   -38406   -37799   -37536   -37554 
  -37477   -37628   -38032   -38102   -37860   -37997   -38570   -38778 
  -38358   -37992   -38128   -38424   -38465   -38419   -38437   -38364 
  -38431   -38848   -39228   -39163   -38791   -38528   -38410   -38134 
  -37679   -37594   -38305   -39216   -39397   -38995   -38804   -38755 
  -38437   -38332   -38678   -38916   -39069   -39290   -39100   -38647 
  -38671   -39060   -39098   -38714   -38620   -39194   -39806   -39881 
  -39718   -39455   -38843   -38414   -38682   -38836   -38225   -37510 
  -37220   -37104   -36964   -36847   -36763   -36699   -36791   -37226 
  -37781   -37908   -37686   -37868   -38660   -39455   -39797   -39785 
  -39647   -39533   -39651   -39963   -40026   -39627   -39017   -38572 
  -38564   -38884   -39064   -38876   -38557   -38455   -38749   -39193 
  -39252   -38895   -38706   -38865   -38830   -38445   -38220   -38438 
  -38935   -39243   -38998   -38490   -38041   -37439   -36740   -36477 
  -36811   -37283   -37387   -37252   -37478   -38106   -38602   -38812 
  -38929   -39007   -39061   -39105   -39097   -39137   -39348   -39513 
  -39426   -39360   -39392   -39086   -38472   -38185   -38337   -38322 
  -37949   -37728   -37971   -38497   -38947   -39048   -38965   -39178 
  -39701   -40008   -39882   -39605   -39357   -38937   -38198   -37641 
  -37828   -38338   -38335   -37840   -37593   -37932   -38432   -38680 
  -38885   -39369   -39868   -39934   -39511   -38806   -38173   -37853 
  -37710   -37571   -37439   -37395   -37586   -38008   -38357   -38412 
  -38301   -38221   -38187   -38081   -37808   -37481   -37303   -37248 
  -37326   -37671   -38091   -38213   -38033   -38020   -38466   -38995 
  -39233   -39312   -39395   -39466   -39490   -39378   -39130   -38943 
