Origin Time       2021/12/03 02:18:00
Lat.              35.527
Long.             138.978
Depth. (km)       21
Mag.              4.1
Station Code      KNGH22
Station Lat.      35.3583
Station Long.     139.0910
Station Height(m) 157
Record Time       2021/12/03 02:18:04
Sampling Freq(Hz) 100Hz
Duration Time(s)  120
Dir.              4
Scale Factor      3920(gal)/6170801
Max. Acc. (gal)   13.286
Last Correction   2021/12/03 02:17:49
Memo.             
[...]
    -353     -356     -355     -354     -353     -354     -357     -357 
    -351     -347     -350     -352     -351     -348     -348     -350 
    -350     -348     -345     -343     -343     -343     -342     -342 
    -347     -354     -354     -347     -348     -354     -352     -348 
    -349     -351     -352     -353     -348     -347     -352     -353 
    -350     -353     -352     -345     -345     -349     -351     -352 
    -346     -343     -347     -348     -345     -348     -354     -351 
    -346     -346     -346     -345     -348     -348     -347     -351 
    -354     -351     -350     -347     -344     -348     -354     -354 
    -349     -346     -348     -350     -349     -349     -352     -352 
    -350     -347     -345     -347     -348     -347     -350     -353 
    -352     -350     -348     -345     -345     -347     -347     -347 
    -351     -353     -349     -347     -352     -355     -351     -348 
    -352     -357     -355     -350     -349     -354     -356     -355 
    -354     -352     -347     -345     -346     -347     -347     -348 
    -349     -348     -347     -347     -346     -346     -346     -349 
    -354     -354     -350     -348     -351     -354     -353     -348 
    -346     -347     -347     -346     -347     -346     -344     -346 
    -348     -349     -352     -348     -345     -352     -356     -347 
    -341     -347     -356     -358     -351     -347     -350     -356 
    -359     -357     -354     -352     -349     -345     -346     -350 
    -350     -347     -344     -344     -345     -346     -346     -346 
    -344     -340     -342     -346     -346     -345     -349     -353 
    -353     -352     -355     -359     -356     -349     -348     -350 
    -351     -353     -353     -348     -346     -345     -344     -346 
    -348     -344     -344     -350     -353     -352     -351     -351 
    -351     -349     -346     -345     -346     -345     -343     -345 
    -348     -349     -345     -344     -350     -352     -350     -347 
    -347     -352     -353     -350     -350     -354     -354     -346 
    -344     -351     -353     -351     -353     -350     -343     -345 
    -349     -349     -354     -353     -344     -342     -346     -347 
    -349     -354     -354     -349     -346     -346     -350     -351 
    -346     -344     -347     -347     -347     -348     -344     -341 
    -344     -346     -350     -352     -345     -344     -350     -352 
    -352     -351     -351     -354     -353     -349     -352     -358 
    -356     -347     -346     -352     -352     -349     -352     -350 
    -335     -320     -324     -343     -353     -347     -344     -346 
    -346     -342     -337     -344     -351     -346     -344     -348 
    -350     -350     -354     -356     -351     -349     -352     -350 
    -345     -347     -351     -350     -350     -354     -352     -348 
    -350     -352     -349     -350     -353     -347     -345     -350 
    -349     -344     -345     -349     -349     -344     -339     -343 
    -351     -347     -342     -347     -352     -352     -354     -357 
    -354     -350     -349     -350     -353     -352     -349     -352 
    -350     -344     -344     -346     -343     -344     -350     -349 
    -346     -344     -345     -348     -346     -348     -353     -352 
    -349     -349     -349     -351     -354     -351     -351     -352 
    -349     -349     -349     -347     -348     -347     -343     -346 
    -348     -345     -348     -349     -344     -343     -346     -344 
    -348     -355     -350     -344     -348     -351     -350     -351 
    -351     -352     -353     -351     -351     -352     -351     -350 
    -349     -346     -345     -346     -343     -342     -343     -344 
    -345     -340     -336     -338     -339     -342     -349     -348 
    -347     -353     -353     -352     -359     -362     -358     -356 
    -361     -363     -359     -356     -354     -354     -354     -349 
    -345     -343     -340     -340     -340     -337     -336     -337 
    -336     -335     -336     -341     -350     -353     -349     -350 
    -354     -354     -357     -361     -360     -358     -357     -355 
    -356     -353     -348     -349     -348     -341     -340     -342 
    -341     -344     -345     -345     -346     -345     -343     -349 
    -356     -356     -354     -352     -352     -355     -358     -354 
    -349     -349     -349     -350     -349     -345     -345     -344 
    -343     -342     -340     -342     -346     -344     -343     -345 
    -347     -347     -349     -351     -355     -359     -357     -355 
    -353     -351     -354     -356     -357     -356     -353     -351 
    -351     -350     -349     -348     -349     -349     -346     -345 
    -345     -343     -340     -343     -348     -350     -348     -346 
    -342     -341     -343     -343     -344     -351     -357     -354 
    -352     -351     -351     -349     -347     -346     -349     -355 
    -356     -348     -345     -350     -353     -353     -356     -354 
    -347     -345     -349     -349     -348     -347     -345     -345 
    -345     -345     -349     -351     -342     -335     -339     -345 
    -350     -350     -346     -347     -352     -351     -351     -354 
    -353     -348     -349     -352     -352     -355     -355     -354 
    -353     -353     -352     -350     -350     -349     -346     -347 
    -343     -338     -343     -349     -350     -351     -348     -344 
    -343     -348     -352     -354     -353     -353     -353     -352 
    -350     -349     -347     -344     -344     -347     -349     -349 
    -348     -345     -345     -348     -349     -349     -350     -351 
    -350     -351     -350     -351     -356     -357     -355     -352 
    -351     -352     -354     -353     -349     -347     -346     -342 
    -343     -350     -352     -346     -340     -339     -341     -340 
    -341     -343     -341     -343     -349     -352     -351     -349 
    -350     -355     -357     -353     -352     -357     -362     -361 
    -357     -357     -354     -351     -353     -353     -348     -345 
    -342     -343     -346     -345     -344     -345     -343     -342 
    -346     -348     -347     -345     -345     -347     -352     -354 
    -349     -347     -352     -352     -351     -353     -351     -348 
    -351     -350     -344     -346     -353     -352     -347     -349 
    -353     -352     -349     -347     -345     -345     -345     -348 
    -352     -351     -350     -352     -350     -347     -349     -349 
    -347     -348     -349     -348     -350     -354     -354     -354 
    -353     -351     -351     -350     -345     -344     -345     -344 
    -341     -344     -349     -350     -342     -339     -345     -354 
    -356     -352     -347     -346     -352     -357     -359     -359 
    -356     -351     -350     -351     -350     -349     -349     -345 
    -341     -341     -344     -347     -345     -342     -343     -341 
    -339     -341     -343     -347     -351     -346     -346     -355 
    -357     -358     -359     -353     -349     -357     -364     -360 
    -353     -352     -354     -353     -354     -353     -347     -342 
    -341     -342     -343     -342     -340     -344     -348     -346 
    -346     -351     -353     -350     -348     -349     -348     -346 
    -343     -346     -351     -350     -345     -346     -352     -350 
    -346     -351     -352     -346     -348     -354     -354     -353 
    -358     -360     -357     -353     -352     -352     -352     -350 
    -347     -344     -347     -352     -349     -346     -345     -341 
    -342     -346     -344     -344     -346     -342     -340     -346 
    -353     -356     -354     -349     -348     -350     -352     -355 
    -358     -357     -355     -349     -344     -346     -351     -349 
    -342     -342     -346     -347     -350     -349     -346     -351 
    -358     -356     -351     -351     -351     -348     -349     -354 
    -353     -348     -347     -351     -352     -349     -344     -341 
    -341     -343     -345     -348     -346     -340     -342     -346 
    -344     -345     -353     -352     -344     -346     -352     -351 
    -352     -359     -363     -360     -356     -354     -351     -354 
    -356     -351     -350     -355     -352     -347     -345     -344 
    -345     -347     -344     -340     -339     -339     -340     -343 
    -345     -346     -347     -346     -343     -346     -353     -353 
    -350     -351     -355     -359     -356     -353     -356     -358 
    -355     -351     -347     -346     -349     -347     -347     -349 
    -349     -348     -347     -349     -354     -355     -349     -346 
    -348     -348     -343     -344     -351     -352     -347     -344 
    -346     -347     -343     -342     -347     -350     -351     -351 
    -349     -351     -354     -355     -352     -348     -348     -353 
    -352     -350     -354     -352     -323     -231      -22      269 
     405       36     -986    -2332    -3082    -2145      435     2592 
    2015     -852    -2998    -2212      962     3693     2214    -3379 
   -5767     -774     3632     1505    -1224     -966     -346     1128 
    2493     -209    -4316    -3907      463     2921      340    -3309 
   -3453     -726     2136     2941     2029      852    -2215    -5363 
   -2113     4198     3569    -2776    -6425    -5268    -1336     3306 
    4549     1656      142     1603     2554     1750      211      265 
    1623      -94    -4356    -5783    -3431     -462     1225     1344 
    -216    -1758     -985      255     -325     -462      352    -1363 
   -4586    -4049      288     2357     -191     -995     2918     4154 
    -252    -3954    -2868     1747     5468     4732     1178    -2861 
   -5709    -3838     1030     1929    -1385    -3791    -4101    -2860 
     387     3495     3316      294    -2695    -3481    -1573     1178 
    1771      -73    -2080    -2864    -2149     -933     -110     1705 
    3623     2369     -393     -567     1123     1622     1378     2790 
    3919     1036    -2917    -3933    -4525    -5439    -4080    -2070 
   -1515    -1365     -680      419      934      680     1342     3170 
    3413      418    -2502    -1687      630     1065      463     -310 
   -1528    -1771    -1071     -657      314      360    -1830    -1933 
     200       26     -669      261      700      374     -740    -2193 
   -1898     -445      841     1365     -169    -2191    -1799      -39 
     526     -463    -2099    -2886    -1345      841     1138      630 
    -143    -1231     -341     1485     2125     2867     2279     -819 
   -2737    -2240     -582     1777     2067     -633    -2376    -1162 
    1301     2332      720     -960    -1272    -2459    -4053    -3759 
   -2528    -1341        5      114    -1035     -960      790     2708 
    3579     2521      908      378     -792    -2287    -1223      284 
    -511    -1486    -1746    -2202    -2252    -2042    -1750     -857 
    -162       45      -57    -1127    -2120    -1521     -376       42 
     137      222      239      947     2028     1397      -58      920 
    2762     1923       79     -681    -1315    -1332     -492     -342 
    -673    -1002    -1394    -1051     -557     -703     -761     -810 
   -1066    -1062     -534      608     1154      314     -342     -352 
    -302      306      477     -897    -1601     -230      864      580 
     617      453    -1285    -2298     -788     1572     2557      695 
   -2126    -2001      -77      -49    -1354    -1733    -1551    -2007 
   -2341    -1779    -1261     -937      -28      532     -991    -3536 
   -3847    -1419     1406     2810     1988      165     -509      -57 
    1062     2106     1286     -426    -1081    -1127     -304     1220 
    1593     1198      681     -491    -1188    -1047     -634      327 
      88    -1521    -1046     -133    -2278    -3401     -978      320 
    -746    -1244     -403     1384     2649     1986      764     -490 
   -2109    -1691      976     2105      598    -1462    -2221     -751 
    1489     1821     -269    -2834    -3351    -1871    -1103    -1709 
   -2279    -2970    -2895      187     3260     2259      355       58 
   -1147    -1854      300     2078     2056     1781       48    -2494 
   -2780    -1841     -799     2334     5315     3212    -1995    -4425 
   -3300    -1353      750     3050     3511      822    -3293    -5742 
   -3913     1194     3904     1138    -2505    -2763    -1354      478 
    2434     1902     -488    -1658    -1852    -1840    -1124       -5 
     114     -743     -420       84     -774      674     3897     2176 
   -2383     -767     6677    12186    11996     7986     4694     3819 
    2595      902     1338     2212      -22    -4003    -6342    -7168 
   -6921    -4932    -4138    -8545   -16392   -21128   -19509   -14180 
   -7476    -2141    -1777    -2472      317     2013      185    -2492 
   -7571   -14926   -17174   -10571     -684     7116    12244    12693 
    6837      173        4     7198    16216    19683    15131     6814 
     287      -89     6560    13867    14224     8263     3108     1466 
   -2068    -9703   -16112   -19145   -19306   -11672     4114    16298 
   17613    11524       97   -11880   -13243    -1766    12218    18837 
   16665     9971     3653     1599     2527      256    -6802   -14552 
  -17967   -13071    -4101    -1358    -6285   -12941   -18956   -21264 
  -13388     2583    13919    13463     6811     1612     -602    -1361 
   -1649    -2101    -1565     1082     3120     2237      291     -177 
    1101     3436     6765     9312     6932    -1900   -12342   -15027 
   -5570     6870    11198     9136     6306     3180      165    -1746 
   -3176    -4281    -3767    -1953    -2061    -4752    -6663    -6444 
   -5506    -5783    -8847   -11928   -10134    -3715     4173    10536 
   11956     9120     6475     5697     5398     3888     1388      854 
    3978     7939     9235     8644     8430     8077     6241     1557 
   -6439   -13019   -13634   -11105    -8744    -6794    -6942    -8201 
   -5269     1751     6511     6289     2792    -2132    -5189    -4534 
   -3778    -5415    -6438    -4259     -498     1710     1121     -642 
    -578     2724     7242    10356    11539    10032     5502     1224 
     682     2975     4193     1889    -2973    -8366   -12870   -15974 
  -18776   -20872   -18539   -11552    -5185    -2227    -2007    -3999 
   -5631    -3243     3227    10794    16364    17561    13801     7929 
    4756     6463    10303    12108    10961     8667     6370     4556 
    4310     5349     5678     4624     2245    -2332    -7835   -10712 
  -10464    -9815   -10057   -10453   -10278    -9459    -8358    -6640 
   -3695     -627     1605     3244     3256     1243     -895    -2763 
   -5457    -7502    -6641    -4128    -2262     -770      973     1692 
     939      916     2489     4093     5338     5628     3422      -72 
   -2316    -2723    -1943    -1112    -1275    -2025    -1817       31 
    2751     5315     6561     5418     2497     -250    -1040      592 
    2487     2318      718     -835    -1863    -2531    -3381    -3853 
   -3013    -1608     -299     1198     2161     1769      864      205 
    -889    -2407    -2956    -2207    -1106        7     1111     1271 
       5    -1093     -679      513     1359     1481     1195      872 
     407      355     1556     3233     3917     3043      897    -1578 
   -3373    -4318    -5386    -7003    -7737    -6904    -5100    -2196 
     892     2451     2587     1981     1092      194    -1376    -3395 
   -4524    -5117    -5848    -5066    -1996      890     1942     2315 
    2475     1579      211     -176      535     1603     2540     2924 
    2790     3225     4885     6735     7179     5629     2862     -247 
   -3137    -4623    -4253    -3204    -2296    -1780    -2399    -4164 
   -5467    -5112    -3709    -2119     -553      993     2542     3392 
    2929     2026     1194      -25    -1060    -1446    -2114    -3241 
   -3946    -4098    -4040    -4037    -4471    -5203    -5680    -5485 
   -4167    -1936      265     2051     3764     5696     7397     8428 
    9239     9456     8277     6823     5756     3712     1001     -490 
    -983    -1855    -3299    -4723    -5510    -5636    -5347    -4289 
   -2504     -997     -318      -47      142     -111     -784    -1061 
   -1166    -1970    -2531    -1829     -986     -710     -414     -406 
    -832     -577      260      450      121     -166     -614    -1152 
   -1410    -1366    -1473    -2064    -2559    -2283    -1242      218 
    1403     1931     2030     1489      152    -1350    -2440    -2610 
   -1685     -674     -371     -345     -228     -222     -352     -158 
     726     1645     1621      900      -18    -1356    -2437    -2216 
   -1182       37     1554     3073     4088     4433     4257     3728 
    2797     1872     1500     1302      780      190     -191     -573 
   -1338    -2366    -2747    -2327    -2323    -3144    -3987    -4340 
   -4124    -3582    -3247    -3526    -4186    -4213    -3103    -1606 
    -314     1089     2566     3192     2725     2229     2606     3753 
    4773     4669     3497     2036      510    -1080    -2360    -2927 
   -2881    -2955    -3350    -3630    -4264    -5405    -5581    -4271 
   -2875    -2229    -1808    -1206     -851    -1010    -1090     -843 
    -647     -240      610     1190     1309     1561     1809     1556 
     923      418      683     1963     3855     5631     6232     5258 
    3812     3041     3286     4247     4597     3709     2647     1412 
    -658    -2470    -3325    -4036    -4781    -5273    -5425    -4896 
   -3843    -3042    -2999    -3844    -4812    -4563    -3426    -2852 
   -2594    -1738     -875     -501      -15      751     1395     1716 
    1834     1945     1610      352    -1103    -1802    -1703    -1101 
    -405      -89     -174     -291     -181      -87     -243     -219 
     133      317      416      682      720      439       68     -424 
    -624     -359     -389     -630     -367      101      592     1341 
    1751     1747     2453     3726     4051     3026     1339     -355 
   -1324    -1470    -1562    -1889    -2410    -3105    -3330    -2919 
   -2601    -2623    -2882    -3032    -2415    -1363     -771     -566 
    -490     -804    -1115     -570      298      417      280      504 
     472      -67     -563     -725     -622     -338     -105     -328 
    -771     -668      -69      446      699      678      636      921 
    1362     1956     2762     3045     2351     1174       87     -590 
    -788     -584     -174       32      -34     -218     -810    -1803 
   -2331    -2098    -1918    -2110    -2189    -2037    -1893    -1922 
   -2140    -2340    -2370    -2312    -2273    -2087    -1367     -150 
    1031     1796     2064     1878     1460     1099      877      741 
     552       56     -526     -744     -710     -396      394     1049 
    1100      995      952      785      506       58     -657    -1383 
   -1578    -1134     -673     -486     -348     -497    -1071    -1394 
   -1113     -816     -832     -751     -341      256      828     1012 
